<?xml version="1.0" encoding="UTF-8" standalone="no" ?><gpx xmlns="http://www.topografix.com/GPX/1/1" xmlns:gpxx="http://www.garmin.com/xmlschemas/GpxExtensions/v3" xmlns:wptx1="http://www.garmin.com/xmlschemas/WaypointExtension/v1" xmlns:gpxtpx="http://www.garmin.com/xmlschemas/TrackPointExtension/v1" creator="eTrex 22x" version="1.1" xmlns:xsi="http://www.w3.org/2001/XMLSchema-instance" xsi:schemaLocation="http://www.topografix.com/GPX/1/1 http://www.topografix.com/GPX/1/1/gpx.xsd http://www.garmin.com/xmlschemas/GpxExtensions/v3 http://www8.garmin.com/xmlschemas/GpxExtensionsv3.xsd http://www.garmin.com/xmlschemas/TrackStatsExtension/v1 http://www8.garmin.com/xmlschemas/TrackStatsExtension.xsd http://www.garmin.com/xmlschemas/WaypointExtension/v1 http://www8.garmin.com/xmlschemas/WaypointExtensionv1.xsd http://www.garmin.com/xmlschemas/TrackPointExtension/v1 http://www.garmin.com/xmlschemas/TrackPointExtensionv1.xsd"><metadata><link href="http://www.garmin.com"><text>Garmin International</text></link><time>2024-08-27T02:57:41Z</time></metadata><wpt lat="10.350638" lon="123.943113"><ele>39.371319</ele><time>2024-08-27T02:57:41Z</time><name>698</name><sym>Flag, Blue</sym></wpt><wpt lat="10.350659" lon="123.943074"><ele>42.304226</ele><time>2024-08-27T02:59:06Z</time><name>699</name><sym>Flag, Blue</sym></wpt><wpt lat="10.350661" lon="123.943087"><ele>41.866314</ele><time>2024-08-27T02:59:21Z</time><name>700</name><sym>Flag, Blue</sym></wpt><wpt lat="10.350658" lon="123.943072"><ele>40.469585</ele><time>2024-08-27T02:59:39Z</time><name>701</name><sym>Flag, Blue</sym></wpt><wpt lat="10.350730" lon="123.943066"><ele>41.311588</ele><time>2024-08-27T03:00:17Z</time><name>702</name><sym>Flag, Blue</sym></wpt><wpt lat="10.350726" lon="123.943054"><ele>42.115040</ele><time>2024-08-27T03:00:35Z</time><name>703</name><sym>Flag, Blue</sym></wpt><wpt lat="10.350762" lon="123.943053"><ele>43.405186</ele><time>2024-08-27T03:00:52Z</time><name>704</name><sym>Flag, Blue</sym></wpt><wpt lat="10.350767" lon="123.943066"><ele>43.998127</ele><time>2024-08-27T03:01:12Z</time><name>705</name><sym>Flag, Blue</sym></wpt><wpt lat="10.350767" lon="123.943079"><ele>43.837299</ele><time>2024-08-27T03:01:36Z</time><name>706</name><sym>Flag, Blue</sym></wpt><wpt lat="10.350788" lon="123.942945"><ele>44.130741</ele><time>2024-08-27T03:02:16Z</time><name>707</name><sym>Flag, Blue</sym></wpt><wpt lat="10.350780" lon="123.942920"><ele>42.971844</ele><time>2024-08-27T03:02:43Z</time><name>708</name><sym>Flag, Blue</sym></wpt><wpt lat="10.350811" lon="123.942845"><ele>41.186665</ele><time>2024-08-27T03:03:13Z</time><name>709</name><sym>Flag, Blue</sym></wpt><wpt lat="10.350825" lon="123.942832"><ele>42.516300</ele><time>2024-08-27T03:03:32Z</time><name>710</name><sym>Flag, Blue</sym></wpt><wpt lat="10.350827" lon="123.942813"><ele>41.312763</ele><time>2024-08-27T03:03:45Z</time><name>711</name><sym>Flag, Blue</sym></wpt><wpt lat="10.350807" lon="123.942803"><ele>42.558826</ele><time>2024-08-27T03:04:00Z</time><name>712</name><sym>Flag, Blue</sym></wpt><wpt lat="10.350828" lon="123.942779"><ele>45.036003</ele><time>2024-08-27T03:04:20Z</time><name>713</name><sym>Flag, Blue</sym></wpt><wpt lat="10.350811" lon="123.942752"><ele>45.094788</ele><time>2024-08-27T03:04:35Z</time><name>714</name><sym>Flag, Blue</sym></wpt><wpt lat="10.350835" lon="123.942720"><ele>45.928562</ele><time>2024-08-27T03:05:05Z</time><name>715</name><sym>Flag, Blue</sym></wpt><wpt lat="10.351051" lon="123.942423"><ele>45.821236</ele><time>2024-08-27T03:06:05Z</time><name>716</name><sym>Flag, Blue</sym></wpt><wpt lat="10.351033" lon="123.942419"><ele>42.367210</ele><time>2024-08-27T03:06:50Z</time><name>717</name><sym>Flag, Blue</sym></wpt><wpt lat="10.351028" lon="123.942416"><ele>44.881020</ele><time>2024-08-27T03:07:20Z</time><name>718</name><sym>Flag, Blue</sym></wpt><wpt lat="10.351011" lon="123.942430"><ele>47.433250</ele><time>2024-08-27T03:07:44Z</time><name>719</name><sym>Flag, Blue</sym></wpt><wpt lat="10.351021" lon="123.942445"><ele>49.895863</ele><time>2024-08-27T03:08:13Z</time><name>720</name><sym>Flag, Blue</sym></wpt><wpt lat="10.350973" lon="123.942444"><ele>46.556030</ele><time>2024-08-27T03:09:06Z</time><name>721</name><sym>Flag, Blue</sym></wpt><wpt lat="10.350763" lon="123.942344"><ele>41.550377</ele><time>2024-08-27T03:10:00Z</time><name>722</name><sym>Flag, Blue</sym></wpt><wpt lat="10.350791" lon="123.942284"><ele>42.542122</ele><time>2024-08-27T03:10:32Z</time><name>723</name><sym>Flag, Blue</sym></wpt><wpt lat="10.350795" lon="123.942305"><ele>44.976540</ele><time>2024-08-27T03:10:48Z</time><name>724</name><sym>Flag, Blue</sym></wpt><wpt lat="10.350855" lon="123.942394"><ele>43.993134</ele><time>2024-08-27T03:11:19Z</time><name>725</name><sym>Flag, Blue</sym></wpt><wpt lat="10.350869" lon="123.942420"><ele>43.836624</ele><time>2024-08-27T03:11:57Z</time><name>726</name><sym>Flag, Blue</sym></wpt><wpt lat="10.350892" lon="123.942429"><ele>44.105080</ele><time>2024-08-27T03:12:14Z</time><name>727</name><sym>Flag, Blue</sym></wpt><wpt lat="10.350897" lon="123.942440"><ele>43.702118</ele><time>2024-08-27T03:12:27Z</time><name>728</name><sym>Flag, Blue</sym></wpt><wpt lat="10.350881" lon="123.942441"><ele>41.802544</ele><time>2024-08-27T03:12:38Z</time><name>729</name><sym>Flag, Blue</sym></wpt><wpt lat="10.350875" lon="123.942482"><ele>43.939079</ele><time>2024-08-27T03:12:56Z</time><name>730</name><sym>Flag, Blue</sym></wpt><wpt lat="10.350636" lon="123.943244"><ele>45.338711</ele><time>2024-08-27T03:15:20Z</time><name>731</name><sym>Flag, Blue</sym></wpt><wpt lat="10.350668" lon="123.943239"><ele>43.937420</ele><time>2024-08-27T03:15:43Z</time><name>732</name><sym>Flag, Blue</sym></wpt><wpt lat="10.350565" lon="123.943236"><ele>46.287914</ele><time>2024-08-27T03:16:12Z</time><name>733</name><sym>Flag, Blue</sym></wpt><wpt lat="10.350504" lon="123.943301"><ele>44.876110</ele><time>2024-08-27T03:16:36Z</time><name>734</name><sym>Flag, Blue</sym></wpt><wpt lat="10.350467" lon="123.943410"><ele>45.547195</ele><time>2024-08-27T03:17:08Z</time><name>735</name><sym>Flag, Blue</sym></wpt><wpt lat="10.350396" lon="123.943451"><ele>44.545273</ele><time>2024-08-27T03:18:29Z</time><name>736</name><sym>Flag, Blue</sym></wpt><wpt lat="10.350337" lon="123.943615"><ele>37.924595</ele><time>2024-08-27T03:19:26Z</time><name>737</name><sym>Flag, Blue</sym></wpt><wpt lat="10.350321" lon="123.943602"><ele>40.219334</ele><time>2024-08-27T03:20:04Z</time><name>738</name><sym>Flag, Blue</sym></wpt><wpt lat="10.350313" lon="123.943599"><ele>41.305553</ele><time>2024-08-27T03:20:22Z</time><name>739</name><sym>Flag, Blue</sym></wpt><wpt lat="10.350270" lon="123.943658"><ele>40.456768</ele><time>2024-08-27T03:20:50Z</time><name>740</name><sym>Flag, Blue</sym></wpt><wpt lat="10.350186" lon="123.943780"><ele>39.931583</ele><time>2024-08-27T03:21:20Z</time><name>741</name><sym>Flag, Blue</sym></wpt><wpt lat="10.350135" lon="123.943815"><ele>37.356316</ele><time>2024-08-27T03:22:10Z</time><name>742</name><sym>Flag, Blue</sym></wpt><wpt lat="10.350027" lon="123.943960"><ele>37.018837</ele><time>2024-08-27T03:22:41Z</time><name>743</name><sym>Flag, Blue</sym></wpt><wpt lat="10.349989" lon="123.943985"><ele>39.638836</ele><time>2024-08-27T03:23:03Z</time><name>744</name><sym>Flag, Blue</sym></wpt><wpt lat="10.349941" lon="123.944088"><ele>42.017635</ele><time>2024-08-27T03:23:23Z</time><name>745</name><sym>Flag, Blue</sym></wpt><wpt lat="10.349931" lon="123.944087"><ele>40.551807</ele><time>2024-08-27T03:23:52Z</time><name>746</name><sym>Flag, Blue</sym></wpt><wpt lat="10.349806" lon="123.944380"><ele>38.207531</ele><time>2024-08-27T03:24:52Z</time><name>747</name><sym>Flag, Blue</sym></wpt><wpt lat="10.349817" lon="123.944368"><ele>39.308643</ele><time>2024-08-27T03:25:29Z</time><name>748</name><sym>Flag, Blue</sym></wpt><wpt lat="10.350055" lon="123.944533"><ele>36.379028</ele><time>2024-08-27T03:26:10Z</time><name>749</name><sym>Flag, Blue</sym></wpt><wpt lat="10.350159" lon="123.944579"><ele>36.733719</ele><time>2024-08-27T03:26:57Z</time><name>750</name><sym>Flag, Blue</sym></wpt><wpt lat="10.350186" lon="123.944538"><ele>37.385098</ele><time>2024-08-27T03:27:15Z</time><name>751</name><sym>Flag, Blue</sym></wpt><wpt lat="10.350741" lon="123.943991"><ele>34.860153</ele><time>2024-08-27T03:29:01Z</time><name>752</name><sym>Flag, Blue</sym></wpt><wpt lat="10.350754" lon="123.943914"><ele>35.638935</ele><time>2024-08-27T03:29:22Z</time><name>753</name><sym>Flag, Blue</sym></wpt><wpt lat="10.350888" lon="123.943777"><ele>37.311993</ele><time>2024-08-27T03:30:01Z</time><name>754</name><sym>Flag, Blue</sym></wpt><wpt lat="10.350853" lon="123.943807"><ele>36.160961</ele><time>2024-08-27T03:30:24Z</time><name>755</name><sym>Flag, Blue</sym></wpt><wpt lat="10.350792" lon="123.943870"><ele>33.331924</ele><time>2024-08-27T03:30:46Z</time><name>756</name><sym>Flag, Blue</sym></wpt><wpt lat="10.352733" lon="123.940881"><ele>43.721184</ele><time>2024-08-27T03:34:06Z</time><name>757</name><sym>Flag, Blue</sym></wpt><wpt lat="10.352636" lon="123.941001"><ele>44.401100</ele><time>2024-08-27T03:34:50Z</time><name>758</name><sym>Flag, Blue</sym></wpt><wpt lat="10.352629" lon="123.941009"><ele>44.528316</ele><time>2024-08-27T03:35:14Z</time><name>759</name><sym>Flag, Blue</sym></wpt><wpt lat="10.352549" lon="123.941035"><ele>44.005733</ele><time>2024-08-27T03:35:33Z</time><name>760</name><sym>Flag, Blue</sym></wpt><wpt lat="10.352484" lon="123.941095"><ele>45.462597</ele><time>2024-08-27T03:35:57Z</time><name>761</name><sym>Flag, Blue</sym></wpt><wpt lat="10.351838" lon="123.941966"><ele>42.792435</ele><time>2024-08-27T03:37:11Z</time><name>762</name><sym>Flag, Blue</sym></wpt><wpt lat="10.351841" lon="123.941995"><ele>38.500633</ele><time>2024-08-27T03:37:39Z</time><name>763</name><sym>Flag, Blue</sym></wpt><wpt lat="10.351850" lon="123.942137"><ele>36.399281</ele><time>2024-08-27T03:38:06Z</time><name>764</name><sym>Flag, Blue</sym></wpt><wpt lat="10.351841" lon="123.942188"><ele>35.428860</ele><time>2024-08-27T03:38:22Z</time><name>765</name><sym>Flag, Blue</sym></wpt><wpt lat="10.351844" lon="123.942225"><ele>36.139187</ele><time>2024-08-27T03:38:38Z</time><name>766</name><sym>Flag, Blue</sym></wpt><wpt lat="10.351852" lon="123.942402"><ele>37.439838</ele><time>2024-08-27T03:39:05Z</time><name>767</name><sym>Flag, Blue</sym></wpt><wpt lat="10.351867" lon="123.942540"><ele>35.290531</ele><time>2024-08-27T03:39:31Z</time><name>768</name><sym>Flag, Blue</sym></wpt><wpt lat="10.351808" lon="123.942744"><ele>37.375179</ele><time>2024-08-27T03:39:58Z</time><name>769</name><sym>Flag, Blue</sym></wpt><wpt lat="10.351521" lon="123.943093"><ele>33.408867</ele><time>2024-08-27T03:41:41Z</time><name>770</name><sym>Flag, Blue</sym></wpt><wpt lat="10.349708" lon="123.944804"><ele>40.552200</ele><time>2024-08-27T03:44:05Z</time><name>771</name><sym>Flag, Blue</sym></wpt><wpt lat="10.349695" lon="123.944820"><ele>42.021896</ele><time>2024-08-27T03:44:27Z</time><name>772</name><sym>Flag, Blue</sym></wpt><wpt lat="10.349668" lon="123.944810"><ele>41.881470</ele><time>2024-08-27T03:44:49Z</time><name>773</name><sym>Flag, Blue</sym></wpt><wpt lat="10.349632" lon="123.944860"><ele>40.960640</ele><time>2024-08-27T03:45:14Z</time><name>774</name><sym>Flag, Blue</sym></wpt><wpt lat="10.349640" lon="123.944862"><ele>42.377617</ele><time>2024-08-27T03:45:30Z</time><name>775</name><sym>Flag, Blue</sym></wpt><wpt lat="10.349639" lon="123.944913"><ele>42.785851</ele><time>2024-08-27T03:45:47Z</time><name>776</name><sym>Flag, Blue</sym></wpt><wpt lat="10.349584" lon="123.944907"><ele>41.191784</ele><time>2024-08-27T03:46:10Z</time><name>777</name><sym>Flag, Blue</sym></wpt><wpt lat="10.349565" lon="123.944960"><ele>39.153767</ele><time>2024-08-27T03:46:59Z</time><name>778</name><sym>Flag, Blue</sym></wpt><wpt lat="10.349376" lon="123.945152"><ele>37.925690</ele><time>2024-08-27T03:47:43Z</time><name>779</name><sym>Flag, Blue</sym></wpt><wpt lat="10.349337" lon="123.945221"><ele>41.285721</ele><time>2024-08-27T03:48:09Z</time><name>780</name><sym>Flag, Blue</sym></wpt><wpt lat="10.349312" lon="123.945319"><ele>37.139397</ele><time>2024-08-27T03:48:40Z</time><name>781</name><sym>Flag, Blue</sym></wpt><wpt lat="10.349186" lon="123.945491"><ele>43.377430</ele><time>2024-08-27T03:49:31Z</time><name>782</name><sym>Flag, Blue</sym></wpt><wpt lat="10.349128" lon="123.945583"><ele>46.743710</ele><time>2024-08-27T03:49:59Z</time><name>783</name><sym>Flag, Blue</sym></wpt><wpt lat="10.349103" lon="123.945601"><ele>45.725491</ele><time>2024-08-27T03:50:15Z</time><name>784</name><sym>Flag, Blue</sym></wpt><wpt lat="10.349075" lon="123.945632"><ele>43.659405</ele><time>2024-08-27T03:50:30Z</time><name>785</name><sym>Flag, Blue</sym></wpt><wpt lat="10.349070" lon="123.945651"><ele>46.997211</ele><time>2024-08-27T03:50:43Z</time><name>786</name><sym>Flag, Blue</sym></wpt><wpt lat="10.349059" lon="123.945702"><ele>44.386913</ele><time>2024-08-27T03:51:05Z</time><name>787</name><sym>Flag, Blue</sym></wpt><wpt lat="10.349025" lon="123.945663"><ele>39.393291</ele><time>2024-08-27T03:51:32Z</time><name>788</name><sym>Flag, Blue</sym></wpt><wpt lat="10.348379" lon="123.946325"><ele>35.251839</ele><time>2024-08-27T03:52:45Z</time><name>789</name><sym>Flag, Blue</sym></wpt><wpt lat="10.348373" lon="123.946339"><ele>35.777439</ele><time>2024-08-27T03:53:03Z</time><name>790</name><sym>Flag, Blue</sym></wpt><wpt lat="10.348392" lon="123.946391"><ele>38.637348</ele><time>2024-08-27T03:53:19Z</time><name>791</name><sym>Flag, Blue</sym></wpt><wpt lat="10.348378" lon="123.946398"><ele>39.243916</ele><time>2024-08-27T03:53:29Z</time><name>792</name><sym>Flag, Blue</sym></wpt><wpt lat="10.348332" lon="123.946428"><ele>39.219913</ele><time>2024-08-27T03:53:45Z</time><name>793</name><sym>Flag, Blue</sym></wpt><wpt lat="10.345983" lon="123.946661"><time>2024-08-27T06:58:56Z</time><name>794</name><sym>Flag, Blue</sym></wpt><wpt lat="10.348593" lon="123.948645"><ele>33.466557</ele><time>2024-08-27T06:59:33Z</time><name>795</name><sym>Flag, Blue</sym></wpt><wpt lat="10.346087" lon="123.947625"><ele>29.112053</ele><time>2024-08-27T07:04:06Z</time><name>796</name><sym>Flag, Blue</sym></wpt><wpt lat="10.346097" lon="123.946788"><ele>28.095493</ele><time>2024-08-27T07:06:28Z</time><name>797</name><sym>Flag, Blue</sym></wpt><wpt lat="10.346307" lon="123.946757"><ele>27.698532</ele><time>2024-08-27T07:07:16Z</time><name>798</name><sym>Flag, Blue</sym></wpt><wpt lat="10.346395" lon="123.946743"><ele>31.269005</ele><time>2024-08-27T07:07:56Z</time><name>799</name><sym>Flag, Blue</sym></wpt><wpt lat="10.346404" lon="123.946748"><ele>32.111023</ele><time>2024-08-27T07:08:16Z</time><name>800</name><sym>Flag, Blue</sym></wpt><wpt lat="10.346702" lon="123.946756"><ele>31.730267</ele><time>2024-08-27T07:08:57Z</time><name>801</name><sym>Flag, Blue</sym></wpt><wpt lat="10.346736" lon="123.946750"><ele>32.536678</ele><time>2024-08-27T07:09:30Z</time><name>802</name><sym>Flag, Blue</sym></wpt><wpt lat="10.346745" lon="123.946746"><ele>31.927814</ele><time>2024-08-27T07:09:45Z</time><name>803</name><sym>Flag, Blue</sym></wpt><wpt lat="10.346767" lon="123.946736"><ele>31.316380</ele><time>2024-08-27T07:09:57Z</time><name>804</name><sym>Flag, Blue</sym></wpt><wpt lat="10.346784" lon="123.946708"><ele>33.141178</ele><time>2024-08-27T07:10:16Z</time><name>805</name><sym>Flag, Blue</sym></wpt><wpt lat="10.346868" lon="123.946765"><ele>32.151928</ele><time>2024-08-27T07:10:38Z</time><name>806</name><sym>Flag, Blue</sym></wpt><wpt lat="10.346878" lon="123.946762"><ele>31.732933</ele><time>2024-08-27T07:10:51Z</time><name>807</name><sym>Flag, Blue</sym></wpt><wpt lat="10.346888" lon="123.946749"><ele>31.873077</ele><time>2024-08-27T07:11:07Z</time><name>808</name><sym>Flag, Blue</sym></wpt><wpt lat="10.346915" lon="123.946755"><ele>32.101990</ele><time>2024-08-27T07:11:18Z</time><name>809</name><sym>Flag, Blue</sym></wpt><wpt lat="10.346937" lon="123.946751"><ele>31.722580</ele><time>2024-08-27T07:11:29Z</time><name>810</name><sym>Flag, Blue</sym></wpt><wpt lat="10.346997" lon="123.946707"><ele>31.118359</ele><time>2024-08-27T07:11:55Z</time><name>811</name><sym>Flag, Blue</sym></wpt><wpt lat="10.345935" lon="123.946704"><ele>30.083420</ele><time>2024-08-27T07:48:40Z</time><name>812</name><sym>Flag, Blue</sym></wpt><wpt lat="10.345954" lon="123.946676"><ele>30.618759</ele><time>2024-08-27T07:49:16Z</time><name>813</name><sym>Flag, Blue</sym></wpt><wpt lat="10.345911" lon="123.946619"><ele>30.839802</ele><time>2024-08-27T07:49:27Z</time><name>814</name><sym>Flag, Blue</sym></wpt><wpt lat="10.345914" lon="123.946625"><ele>30.236675</ele><time>2024-08-27T07:49:38Z</time><name>815</name><sym>Flag, Blue</sym></wpt><wpt lat="10.345916" lon="123.946604"><ele>29.916508</ele><time>2024-08-27T07:49:46Z</time><name>816</name><sym>Flag, Blue</sym></wpt><wpt lat="10.345912" lon="123.946584"><ele>31.797375</ele><time>2024-08-27T07:49:54Z</time><name>817</name><sym>Flag, Blue</sym></wpt><wpt lat="10.345915" lon="123.946566"><ele>31.945293</ele><time>2024-08-27T07:50:03Z</time><name>818</name><sym>Flag, Blue</sym></wpt><wpt lat="10.345911" lon="123.946546"><ele>32.574757</ele><time>2024-08-27T07:50:13Z</time><name>819</name><sym>Flag, Blue</sym></wpt><wpt lat="10.345887" lon="123.946538"><ele>31.437901</ele><time>2024-08-27T07:50:20Z</time><name>820</name><sym>Flag, Blue</sym></wpt><wpt lat="10.345887" lon="123.946521"><ele>31.440739</ele><time>2024-08-27T07:50:29Z</time><name>821</name><sym>Flag, Blue</sym></wpt><wpt lat="10.345868" lon="123.946514"><ele>30.661877</ele><time>2024-08-27T07:50:36Z</time><name>822</name><sym>Flag, Blue</sym></wpt><wpt lat="10.345863" lon="123.946480"><ele>29.809528</ele><time>2024-08-27T07:50:45Z</time><name>823</name><sym>Flag, Blue</sym></wpt><wpt lat="10.345807" lon="123.946321"><ele>29.033260</ele><time>2024-08-27T07:51:11Z</time><name>824</name><sym>Flag, Blue</sym></wpt><wpt lat="10.345816" lon="123.946314"><ele>33.253349</ele><time>2024-08-27T07:51:23Z</time><name>825</name><sym>Flag, Blue</sym></wpt><wpt lat="10.345808" lon="123.946291"><ele>34.610420</ele><time>2024-08-27T07:52:06Z</time><name>826</name><sym>Flag, Blue</sym></wpt><wpt lat="10.345777" lon="123.946246"><ele>35.146492</ele><time>2024-08-27T07:52:16Z</time><name>827</name><sym>Flag, Blue</sym></wpt><wpt lat="10.345780" lon="123.946228"><ele>35.367058</ele><time>2024-08-27T07:52:24Z</time><name>828</name><sym>Flag, Blue</sym></wpt><wpt lat="10.345808" lon="123.946211"><ele>35.151573</ele><time>2024-08-27T07:52:38Z</time><name>829</name><sym>Flag, Blue</sym></wpt><wpt lat="10.345479" lon="123.945704"><ele>24.645557</ele><time>2024-08-27T07:53:47Z</time><name>830</name><sym>Flag, Blue</sym></wpt><wpt lat="10.345987" lon="123.944544"><ele>32.338512</ele><time>2024-08-27T07:55:27Z</time><name>831</name><sym>Flag, Blue</sym></wpt><wpt lat="10.346007" lon="123.944455"><ele>31.781429</ele><time>2024-08-27T07:55:49Z</time><name>832</name><sym>Flag, Blue</sym></wpt><wpt lat="10.346073" lon="123.944434"><ele>30.476681</ele><time>2024-08-27T07:56:13Z</time><name>833</name><sym>Flag, Blue</sym></wpt><wpt lat="10.346083" lon="123.944414"><ele>31.562607</ele><time>2024-08-27T07:56:22Z</time><name>834</name><sym>Flag, Blue</sym></wpt><wpt lat="10.346073" lon="123.944405"><ele>31.465637</ele><time>2024-08-27T07:56:30Z</time><name>835</name><sym>Flag, Blue</sym></wpt><wpt lat="10.346060" lon="123.944298"><ele>33.771194</ele><time>2024-08-27T07:57:04Z</time><name>836</name><sym>Flag, Blue</sym></wpt><wpt lat="10.346203" lon="123.944151"><ele>33.475986</ele><time>2024-08-27T07:57:25Z</time><name>837</name><sym>Flag, Blue</sym></wpt><wpt lat="10.346892" lon="123.943157"><ele>33.805550</ele><time>2024-08-27T07:58:49Z</time><name>838</name><sym>Flag, Blue</sym></wpt><wpt lat="10.347300" lon="123.942243"><ele>40.112556</ele><time>2024-08-27T08:00:18Z</time><name>839</name><sym>Flag, Blue</sym></wpt><wpt lat="10.347381" lon="123.942215"><ele>37.505959</ele><time>2024-08-27T08:00:37Z</time><name>840</name><sym>Flag, Blue</sym></wpt><wpt lat="10.347374" lon="123.942139"><ele>37.650368</ele><time>2024-08-27T08:00:58Z</time><name>841</name><sym>Flag, Blue</sym></wpt><wpt lat="10.347442" lon="123.942030"><ele>37.708675</ele><time>2024-08-27T08:01:28Z</time><name>842</name><sym>Flag, Blue</sym></wpt><wpt lat="10.347476" lon="123.941908"><ele>35.109478</ele><time>2024-08-27T08:01:56Z</time><name>843</name><sym>Flag, Blue</sym></wpt><wpt lat="10.347556" lon="123.941818"><ele>36.098038</ele><time>2024-08-27T08:02:28Z</time><name>844</name><sym>Flag, Blue</sym></wpt><wpt lat="10.347624" lon="123.941682"><ele>37.433472</ele><time>2024-08-27T08:02:48Z</time><name>845</name><sym>Flag, Blue</sym></wpt><wpt lat="10.347630" lon="123.941660"><ele>36.836044</ele><time>2024-08-27T08:03:02Z</time><name>846</name><sym>Flag, Blue</sym></wpt><wpt lat="10.347579" lon="123.941575"><ele>35.206882</ele><time>2024-08-27T08:03:36Z</time><name>847</name><sym>Flag, Blue</sym></wpt><wpt lat="10.347581" lon="123.941580"><ele>34.459843</ele><time>2024-08-27T08:03:44Z</time><name>848</name><sym>Flag, Blue</sym></wpt><wpt lat="10.347620" lon="123.941567"><ele>36.523220</ele><time>2024-08-27T08:03:54Z</time><name>849</name><sym>Flag, Blue</sym></wpt><wpt lat="10.347623" lon="123.941530"><ele>39.718418</ele><time>2024-08-27T08:04:06Z</time><name>850</name><sym>Flag, Blue</sym></wpt><wpt lat="10.347603" lon="123.941528"><ele>44.634552</ele><time>2024-08-27T08:04:31Z</time><name>851</name><sym>Flag, Blue</sym></wpt><wpt lat="10.347527" lon="123.941508"><ele>46.412331</ele><time>2024-08-27T08:04:50Z</time><name>852</name><sym>Flag, Blue</sym></wpt><wpt lat="10.347495" lon="123.941486"><ele>45.066299</ele><time>2024-08-27T08:05:04Z</time><name>853</name><sym>Flag, Blue</sym></wpt><wpt lat="10.347711" lon="123.941453"><ele>43.430984</ele><time>2024-08-27T08:05:53Z</time><name>854</name><sym>Flag, Blue</sym></wpt><wpt lat="10.347680" lon="123.941369"><ele>40.810036</ele><time>2024-08-27T08:06:12Z</time><name>855</name><sym>Flag, Blue</sym></wpt><wpt lat="10.347663" lon="123.941326"><ele>38.653576</ele><time>2024-08-27T08:06:39Z</time><name>856</name><sym>Flag, Blue</sym></wpt><wpt lat="10.347663" lon="123.941192"><ele>39.335384</ele><time>2024-08-27T08:07:25Z</time><name>857</name><sym>Flag, Blue</sym></wpt><wpt lat="10.347670" lon="123.941153"><ele>39.458233</ele><time>2024-08-27T08:07:46Z</time><name>858</name><sym>Flag, Blue</sym></wpt><wpt lat="10.347692" lon="123.941083"><ele>39.603512</ele><time>2024-08-27T08:08:04Z</time><name>859</name><sym>Flag, Blue</sym></wpt><wpt lat="10.347723" lon="123.941071"><ele>40.292110</ele><time>2024-08-27T08:08:15Z</time><name>860</name><sym>Flag, Blue</sym></wpt><wpt lat="10.347764" lon="123.941038"><ele>38.633476</ele><time>2024-08-27T08:08:33Z</time><name>861</name><sym>Flag, Blue</sym></wpt><wpt lat="10.347966" lon="123.940861"><ele>37.780216</ele><time>2024-08-27T08:09:20Z</time><name>862</name><sym>Flag, Blue</sym></wpt><wpt lat="10.347953" lon="123.940853"><ele>38.754742</ele><time>2024-08-27T08:09:35Z</time><name>863</name><sym>Flag, Blue</sym></wpt><wpt lat="10.347964" lon="123.940780"><ele>38.726437</ele><time>2024-08-27T08:09:52Z</time><name>864</name><sym>Flag, Blue</sym></wpt><wpt lat="10.348125" lon="123.940509"><ele>38.838051</ele><time>2024-08-27T08:10:37Z</time><name>865</name><sym>Flag, Blue</sym></wpt><wpt lat="10.348137" lon="123.940467"><ele>38.514580</ele><time>2024-08-27T08:10:50Z</time><name>866</name><sym>Flag, Blue</sym></wpt><wpt lat="10.348145" lon="123.940437"><ele>37.591972</ele><time>2024-08-27T08:11:01Z</time><name>867</name><sym>Flag, Blue</sym></wpt><wpt lat="10.348168" lon="123.940424"><ele>39.339180</ele><time>2024-08-27T08:11:11Z</time><name>868</name><sym>Flag, Blue</sym></wpt><wpt lat="10.348189" lon="123.940424"><ele>41.620613</ele><time>2024-08-27T08:11:22Z</time><name>869</name><sym>Flag, Blue</sym></wpt><wpt lat="10.348174" lon="123.940389"><ele>42.453880</ele><time>2024-08-27T08:11:35Z</time><name>870</name><sym>Flag, Blue</sym></wpt><wpt lat="10.348201" lon="123.940234"><ele>40.550652</ele><time>2024-08-27T08:11:59Z</time><name>871</name><sym>Flag, Blue</sym></wpt><wpt lat="10.348240" lon="123.940195"><ele>42.248661</ele><time>2024-08-27T08:12:25Z</time><name>872</name><sym>Flag, Blue</sym></wpt><wpt lat="10.348236" lon="123.940178"><ele>43.290493</ele><time>2024-08-27T08:12:35Z</time><name>873</name><sym>Flag, Blue</sym></wpt><wpt lat="10.348246" lon="123.940150"><ele>45.192982</ele><time>2024-08-27T08:12:52Z</time><name>874</name><sym>Flag, Blue</sym></wpt><wpt lat="10.348246" lon="123.940038"><ele>43.560932</ele><time>2024-08-27T08:13:11Z</time><name>875</name><sym>Flag, Blue</sym></wpt><wpt lat="10.348262" lon="123.940023"><ele>42.514149</ele><time>2024-08-27T08:13:25Z</time><name>876</name><sym>Flag, Blue</sym></wpt><wpt lat="10.348223" lon="123.939956"><ele>41.408268</ele><time>2024-08-27T08:14:11Z</time><name>877</name><sym>Flag, Blue</sym></wpt><wpt lat="10.348240" lon="123.939919"><ele>41.787842</ele><time>2024-08-27T08:14:22Z</time><name>878</name><sym>Flag, Blue</sym></wpt><wpt lat="10.348212" lon="123.939885"><ele>37.813454</ele><time>2024-08-27T08:14:44Z</time><name>879</name><sym>Flag, Blue</sym></wpt><wpt lat="10.348276" lon="123.939875"><ele>37.951614</ele><time>2024-08-27T08:15:03Z</time><name>880</name><sym>Flag, Blue</sym></wpt><wpt lat="10.348325" lon="123.939797"><ele>37.312607</ele><time>2024-08-27T08:15:22Z</time><name>881</name><sym>Flag, Blue</sym></wpt><wpt lat="10.348376" lon="123.939731"><ele>38.355835</ele><time>2024-08-27T08:15:37Z</time><name>882</name><sym>Flag, Blue</sym></wpt><wpt lat="10.348419" lon="123.939649"><ele>38.341049</ele><time>2024-08-27T08:15:57Z</time><name>883</name><sym>Flag, Blue</sym></wpt><wpt lat="10.348411" lon="123.939646"><ele>40.218590</ele><time>2024-08-27T08:16:08Z</time><name>884</name><sym>Flag, Blue</sym></wpt><wpt lat="10.348455" lon="123.939579"><ele>41.840580</ele><time>2024-08-27T08:16:23Z</time><name>885</name><sym>Flag, Blue</sym></wpt><wpt lat="10.348448" lon="123.939569"><ele>42.263279</ele><time>2024-08-27T08:16:31Z</time><name>886</name><sym>Flag, Blue</sym></wpt><wpt lat="10.348439" lon="123.939548"><ele>43.492908</ele><time>2024-08-27T08:16:41Z</time><name>887</name><sym>Flag, Blue</sym></wpt><wpt lat="10.348788" lon="123.939103"><ele>39.530701</ele><time>2024-08-27T08:17:39Z</time><name>888</name><sym>Flag, Blue</sym></wpt><wpt lat="10.348808" lon="123.939099"><ele>37.584419</ele><time>2024-08-27T08:18:08Z</time><name>889</name><sym>Flag, Blue</sym></wpt><wpt lat="10.348848" lon="123.939009"><ele>35.882687</ele><time>2024-08-27T08:18:28Z</time><name>890</name><sym>Flag, Blue</sym></wpt><wpt lat="10.348853" lon="123.938990"><ele>38.831921</ele><time>2024-08-27T08:18:41Z</time><name>891</name><sym>Flag, Blue</sym></wpt><wpt lat="10.349156" lon="123.938491"><ele>30.666561</ele><time>2024-08-27T08:19:40Z</time><name>892</name><sym>Flag, Blue</sym></wpt></gpx>