<?xml version="1.0" encoding="UTF-8" standalone="no" ?><gpx xmlns="http://www.topografix.com/GPX/1/1" xmlns:gpxx="http://www.garmin.com/xmlschemas/GpxExtensions/v3" xmlns:wptx1="http://www.garmin.com/xmlschemas/WaypointExtension/v1" xmlns:gpxtpx="http://www.garmin.com/xmlschemas/TrackPointExtension/v1" creator="eTrex 22x" version="1.1" xmlns:xsi="http://www.w3.org/2001/XMLSchema-instance" xsi:schemaLocation="http://www.topografix.com/GPX/1/1 http://www.topografix.com/GPX/1/1/gpx.xsd http://www.garmin.com/xmlschemas/GpxExtensions/v3 http://www8.garmin.com/xmlschemas/GpxExtensionsv3.xsd http://www.garmin.com/xmlschemas/TrackStatsExtension/v1 http://www8.garmin.com/xmlschemas/TrackStatsExtension.xsd http://www.garmin.com/xmlschemas/WaypointExtension/v1 http://www8.garmin.com/xmlschemas/WaypointExtensionv1.xsd http://www.garmin.com/xmlschemas/TrackPointExtension/v1 http://www.garmin.com/xmlschemas/TrackPointExtensionv1.xsd"><metadata><link href="http://www.garmin.com"><text>Garmin International</text></link><time>2024-09-24T01:55:44Z</time></metadata><wpt lat="10.341619" lon="123.964845"><ele>9.882713</ele><time>2024-09-24T01:55:44Z</time><name>817</name><sym>Flag, Blue</sym></wpt><wpt lat="10.341589" lon="123.964905"><ele>12.701920</ele><time>2024-09-24T01:56:31Z</time><name>818</name><sym>Flag, Blue</sym></wpt><wpt lat="10.341571" lon="123.964896"><ele>18.594444</ele><time>2024-09-24T01:57:30Z</time><name>819</name><sym>Flag, Blue</sym></wpt><wpt lat="10.341497" lon="123.964863"><ele>18.081886</ele><time>2024-09-24T01:58:40Z</time><name>820</name><sym>Flag, Blue</sym></wpt><wpt lat="10.341447" lon="123.964835"><ele>15.486462</ele><time>2024-09-24T01:59:00Z</time><name>821</name><sym>Flag, Blue</sym></wpt><wpt lat="10.341399" lon="123.964816"><ele>14.803524</ele><time>2024-09-24T01:59:20Z</time><name>822</name><sym>Flag, Blue</sym></wpt><wpt lat="10.341416" lon="123.964724"><ele>13.613468</ele><time>2024-09-24T01:59:42Z</time><name>823</name><sym>Flag, Blue</sym></wpt><wpt lat="10.341322" lon="123.964735"><ele>10.584080</ele><time>2024-09-24T02:00:20Z</time><name>824</name><sym>Flag, Blue</sym></wpt><wpt lat="10.341281" lon="123.964706"><ele>8.821247</ele><time>2024-09-24T02:00:41Z</time><name>825</name><sym>Flag, Blue</sym></wpt><wpt lat="10.341193" lon="123.964692"><ele>11.351295</ele><time>2024-09-24T02:01:04Z</time><name>826</name><sym>Flag, Blue</sym></wpt><wpt lat="10.341224" lon="123.964747"><ele>12.871742</ele><time>2024-09-24T02:01:21Z</time><name>827</name><sym>Flag, Blue</sym></wpt><wpt lat="10.341163" lon="123.964723"><ele>13.832016</ele><time>2024-09-24T02:01:41Z</time><name>828</name><sym>Flag, Blue</sym></wpt><wpt lat="10.341177" lon="123.964720"><ele>17.457157</ele><time>2024-09-24T02:01:55Z</time><name>829</name><sym>Flag, Blue</sym></wpt><wpt lat="10.341136" lon="123.964663"><ele>19.583912</ele><time>2024-09-24T02:02:23Z</time><name>830</name><sym>Flag, Blue</sym></wpt><wpt lat="10.341049" lon="123.964622"><ele>21.238735</ele><time>2024-09-24T02:02:48Z</time><name>831</name><sym>Flag, Blue</sym></wpt><wpt lat="10.341019" lon="123.964640"><ele>22.271969</ele><time>2024-09-24T02:03:22Z</time><name>832</name><sym>Flag, Blue</sym></wpt><wpt lat="10.341036" lon="123.964628"><ele>21.935345</ele><time>2024-09-24T02:03:39Z</time><name>833</name><sym>Flag, Blue</sym></wpt><wpt lat="10.341034" lon="123.964619"><ele>19.978962</ele><time>2024-09-24T02:03:54Z</time><name>834</name><sym>Flag, Blue</sym></wpt><wpt lat="10.341015" lon="123.964599"><ele>19.744167</ele><time>2024-09-24T02:04:16Z</time><name>835</name><sym>Flag, Blue</sym></wpt><wpt lat="10.340993" lon="123.964588"><ele>17.592167</ele><time>2024-09-24T02:04:34Z</time><name>836</name><sym>Flag, Blue</sym></wpt><wpt lat="10.340915" lon="123.964543"><ele>12.768574</ele><time>2024-09-24T02:04:59Z</time><name>837</name><sym>Flag, Blue</sym></wpt><wpt lat="10.340879" lon="123.964526"><ele>12.476246</ele><time>2024-09-24T02:05:27Z</time><name>838</name><sym>Flag, Blue</sym></wpt><wpt lat="10.340829" lon="123.964514"><ele>14.564808</ele><time>2024-09-24T02:05:47Z</time><name>839</name><sym>Flag, Blue</sym></wpt><wpt lat="10.340744" lon="123.964456"><ele>14.953651</ele><time>2024-09-24T02:06:19Z</time><name>840</name><sym>Flag, Blue</sym></wpt><wpt lat="10.340704" lon="123.965223"><ele>11.734276</ele><time>2024-09-24T02:08:25Z</time><name>841</name><sym>Flag, Blue</sym></wpt><wpt lat="10.340688" lon="123.965372"><ele>10.521297</ele><time>2024-09-24T02:09:11Z</time><name>842</name><sym>Flag, Blue</sym></wpt><wpt lat="10.340663" lon="123.965364"><ele>9.646938</ele><time>2024-09-24T02:09:29Z</time><name>843</name><sym>Flag, Blue</sym></wpt><wpt lat="10.340683" lon="123.965491"><ele>14.754864</ele><time>2024-09-24T02:10:04Z</time><name>844</name><sym>Flag, Blue</sym></wpt><wpt lat="10.340661" lon="123.965464"><ele>22.818966</ele><time>2024-09-24T02:10:58Z</time><name>845</name><sym>Flag, Blue</sym></wpt><wpt lat="10.340671" lon="123.965692"><ele>18.664700</ele><time>2024-09-24T02:11:40Z</time><name>846</name><sym>Flag, Blue</sym></wpt><wpt lat="10.340620" lon="123.965773"><ele>16.359245</ele><time>2024-09-24T02:12:11Z</time><name>847</name><sym>Flag, Blue</sym></wpt><wpt lat="10.340626" lon="123.965793"><ele>17.143669</ele><time>2024-09-24T02:12:22Z</time><name>848</name><sym>Flag, Blue</sym></wpt><wpt lat="10.340626" lon="123.965873"><ele>17.460892</ele><time>2024-09-24T02:12:54Z</time><name>849</name><sym>Flag, Blue</sym></wpt><wpt lat="10.340603" lon="123.965970"><ele>16.199043</ele><time>2024-09-24T02:13:19Z</time><name>850</name><sym>Flag, Blue</sym></wpt><wpt lat="10.340595" lon="123.965969"><ele>15.239174</ele><time>2024-09-24T02:13:41Z</time><name>851</name><sym>Flag, Blue</sym></wpt><wpt lat="10.340607" lon="123.966037"><ele>12.986435</ele><time>2024-09-24T02:14:29Z</time><name>852</name><sym>Flag, Blue</sym></wpt><wpt lat="10.340606" lon="123.966120"><ele>11.783024</ele><time>2024-09-24T02:15:03Z</time><name>853</name><sym>Flag, Blue</sym></wpt><wpt lat="10.340627" lon="123.966264"><ele>11.472904</ele><time>2024-09-24T02:15:51Z</time><name>854</name><sym>Flag, Blue</sym></wpt><wpt lat="10.340614" lon="123.966275"><ele>10.323097</ele><time>2024-09-24T02:16:08Z</time><name>855</name><sym>Flag, Blue</sym></wpt><wpt lat="10.340625" lon="123.966311"><ele>11.198303</ele><time>2024-09-24T02:16:50Z</time><name>856</name><sym>Flag, Blue</sym></wpt><wpt lat="10.340537" lon="123.966248"><ele>12.157284</ele><time>2024-09-24T02:17:18Z</time><name>857</name><sym>Flag, Blue</sym></wpt><wpt lat="10.340546" lon="123.966274"><ele>14.655254</ele><time>2024-09-24T02:17:39Z</time><name>858</name><sym>Flag, Blue</sym></wpt><wpt lat="10.340525" lon="123.966282"><ele>13.618073</ele><time>2024-09-24T02:17:54Z</time><name>859</name><sym>Flag, Blue</sym></wpt><wpt lat="10.340592" lon="123.966343"><ele>14.855042</ele><time>2024-09-24T02:19:03Z</time><name>860</name><sym>Flag, Blue</sym></wpt><wpt lat="10.340653" lon="123.966383"><ele>16.833298</ele><time>2024-09-24T02:19:41Z</time><name>861</name><sym>Flag, Blue</sym></wpt><wpt lat="10.340638" lon="123.966432"><ele>16.925686</ele><time>2024-09-24T02:20:18Z</time><name>862</name><sym>Flag, Blue</sym></wpt><wpt lat="10.340709" lon="123.966502"><ele>16.867031</ele><time>2024-09-24T02:20:57Z</time><name>863</name><sym>Flag, Blue</sym></wpt><wpt lat="10.340829" lon="123.966404"><ele>18.358715</ele><time>2024-09-24T02:22:10Z</time><name>864</name><sym>Flag, Blue</sym></wpt><wpt lat="10.340874" lon="123.966402"><ele>17.566532</ele><time>2024-09-24T02:22:37Z</time><name>865</name><sym>Flag, Blue</sym></wpt><wpt lat="10.340892" lon="123.966376"><ele>15.815357</ele><time>2024-09-24T02:22:59Z</time><name>866</name><sym>Flag, Blue</sym></wpt><wpt lat="10.341003" lon="123.966370"><ele>14.885242</ele><time>2024-09-24T02:23:42Z</time><name>867</name><sym>Flag, Blue</sym></wpt><wpt lat="10.341135" lon="123.966326"><ele>14.788994</ele><time>2024-09-24T02:25:01Z</time><name>868</name><sym>Flag, Blue</sym></wpt><wpt lat="10.341400" lon="123.966393"><ele>10.786835</ele><time>2024-09-24T02:26:01Z</time><name>869</name><sym>Flag, Blue</sym></wpt><wpt lat="10.341350" lon="123.966258"><ele>14.883583</ele><time>2024-09-24T02:27:45Z</time><name>870</name><sym>Flag, Blue</sym></wpt><wpt lat="10.341412" lon="123.966234"><ele>16.224251</ele><time>2024-09-24T02:28:11Z</time><name>871</name><sym>Flag, Blue</sym></wpt><wpt lat="10.341398" lon="123.966181"><ele>17.087135</ele><time>2024-09-24T02:28:27Z</time><name>872</name><sym>Flag, Blue</sym></wpt><wpt lat="10.341528" lon="123.966097"><ele>15.349258</ele><time>2024-09-24T02:28:54Z</time><name>873</name><sym>Flag, Blue</sym></wpt><wpt lat="10.341560" lon="123.966095"><ele>15.850777</ele><time>2024-09-24T02:29:09Z</time><name>874</name><sym>Flag, Blue</sym></wpt><wpt lat="10.341605" lon="123.966137"><ele>15.052383</ele><time>2024-09-24T02:29:27Z</time><name>875</name><sym>Flag, Blue</sym></wpt><wpt lat="10.341596" lon="123.966059"><ele>16.248585</ele><time>2024-09-24T02:29:54Z</time><name>876</name><sym>Flag, Blue</sym></wpt><wpt lat="10.341629" lon="123.966069"><ele>15.988605</ele><time>2024-09-24T02:30:13Z</time><name>877</name><sym>Flag, Blue</sym></wpt><wpt lat="10.341692" lon="123.966057"><ele>16.146877</ele><time>2024-09-24T02:30:31Z</time><name>878</name><sym>Flag, Blue</sym></wpt><wpt lat="10.341721" lon="123.966106"><ele>16.032501</ele><time>2024-09-24T02:31:04Z</time><name>879</name><sym>Flag, Blue</sym></wpt><wpt lat="10.341736" lon="123.966011"><ele>15.075607</ele><time>2024-09-24T02:31:48Z</time><name>880</name><sym>Flag, Blue</sym></wpt><wpt lat="10.341901" lon="123.965968"><ele>11.454311</ele><time>2024-09-24T02:32:39Z</time><name>881</name><sym>Flag, Blue</sym></wpt><wpt lat="10.341909" lon="123.965972"><ele>11.907295</ele><time>2024-09-24T02:32:52Z</time><name>882</name><sym>Flag, Blue</sym></wpt><wpt lat="10.341969" lon="123.965869"><ele>11.826439</ele><time>2024-09-24T02:33:25Z</time><name>883</name><sym>Flag, Blue</sym></wpt><wpt lat="10.341982" lon="123.965870"><ele>11.868852</ele><time>2024-09-24T02:33:35Z</time><name>884</name><sym>Flag, Blue</sym></wpt><wpt lat="10.342018" lon="123.965867"><ele>13.249855</ele><time>2024-09-24T02:33:48Z</time><name>885</name><sym>Flag, Blue</sym></wpt><wpt lat="10.342051" lon="123.965891"><ele>10.754524</ele><time>2024-09-24T02:34:08Z</time><name>886</name><sym>Flag, Blue</sym></wpt><wpt lat="10.342084" lon="123.965903"><ele>10.146156</ele><time>2024-09-24T02:34:21Z</time><name>887</name><sym>Flag, Blue</sym></wpt><wpt lat="10.342191" lon="123.965875"><ele>13.066311</ele><time>2024-09-24T02:34:54Z</time><name>888</name><sym>Flag, Blue</sym></wpt><wpt lat="10.342195" lon="123.965853"><ele>12.999493</ele><time>2024-09-24T02:35:14Z</time><name>889</name><sym>Flag, Blue</sym></wpt><wpt lat="10.342283" lon="123.965833"><ele>12.988239</ele><time>2024-09-24T02:35:44Z</time><name>890</name><sym>Flag, Blue</sym></wpt><wpt lat="10.342334" lon="123.965810"><ele>15.719406</ele><time>2024-09-24T02:36:08Z</time><name>891</name><sym>Flag, Blue</sym></wpt><wpt lat="10.342348" lon="123.965807"><ele>16.050285</ele><time>2024-09-24T02:36:24Z</time><name>892</name><sym>Flag, Blue</sym></wpt><wpt lat="10.342395" lon="123.965779"><ele>16.534569</ele><time>2024-09-24T02:36:45Z</time><name>893</name><sym>Flag, Blue</sym></wpt><wpt lat="10.342425" lon="123.965770"><ele>16.840096</ele><time>2024-09-24T02:37:04Z</time><name>894</name><sym>Flag, Blue</sym></wpt><wpt lat="10.342458" lon="123.965766"><ele>15.971107</ele><time>2024-09-24T02:37:30Z</time><name>895</name><sym>Flag, Blue</sym></wpt><wpt lat="10.342456" lon="123.965768"><ele>15.782593</ele><time>2024-09-24T02:37:40Z</time><name>896</name><sym>Flag, Blue</sym></wpt><wpt lat="10.342466" lon="123.965760"><ele>16.083733</ele><time>2024-09-24T02:37:49Z</time><name>897</name><sym>Flag, Blue</sym></wpt><wpt lat="10.342526" lon="123.965731"><ele>16.455780</ele><time>2024-09-24T02:38:07Z</time><name>898</name><sym>Flag, Blue</sym></wpt><wpt lat="10.342690" lon="123.965632"><ele>15.813629</ele><time>2024-09-24T02:38:51Z</time><name>899</name><sym>Flag, Blue</sym></wpt><wpt lat="10.342700" lon="123.965623"><ele>16.004807</ele><time>2024-09-24T02:39:05Z</time><name>900</name><sym>Flag, Blue</sym></wpt><wpt lat="10.342717" lon="123.965617"><ele>15.935617</ele><time>2024-09-24T02:39:15Z</time><name>901</name><sym>Flag, Blue</sym></wpt><wpt lat="10.342729" lon="123.965678"><ele>13.579906</ele><time>2024-09-24T02:39:54Z</time><name>902</name><sym>Flag, Blue</sym></wpt><wpt lat="10.342733" lon="123.965673"><ele>15.470264</ele><time>2024-09-24T02:40:10Z</time><name>903</name><sym>Flag, Blue</sym></wpt><wpt lat="10.342862" lon="123.965640"><ele>14.148983</ele><time>2024-09-24T02:40:42Z</time><name>904</name><sym>Flag, Blue</sym></wpt><wpt lat="10.342859" lon="123.965647"><ele>15.258999</ele><time>2024-09-24T02:41:02Z</time><name>905</name><sym>Flag, Blue</sym></wpt><wpt lat="10.342943" lon="123.965626"><ele>15.747562</ele><time>2024-09-24T02:41:21Z</time><name>906</name><sym>Flag, Blue</sym></wpt><wpt lat="10.342995" lon="123.965615"><ele>15.574718</ele><time>2024-09-24T02:41:44Z</time><name>907</name><sym>Flag, Blue</sym></wpt><wpt lat="10.342900" lon="123.965505"><ele>13.537189</ele><time>2024-09-24T02:42:39Z</time><name>908</name><sym>Flag, Blue</sym></wpt><wpt lat="10.343024" lon="123.965519"><ele>13.563171</ele><time>2024-09-24T02:43:15Z</time><name>909</name><sym>Flag, Blue</sym></wpt><wpt lat="10.343052" lon="123.965539"><ele>12.122536</ele><time>2024-09-24T02:43:34Z</time><name>910</name><sym>Flag, Blue</sym></wpt><wpt lat="10.343102" lon="123.965630"><ele>18.625938</ele><time>2024-09-24T02:45:30Z</time><name>911</name><sym>Flag, Blue</sym></wpt><wpt lat="10.343085" lon="123.965650"><ele>18.565613</ele><time>2024-09-24T02:45:58Z</time><name>912</name><sym>Flag, Blue</sym></wpt><wpt lat="10.343099" lon="123.965646"><ele>18.856544</ele><time>2024-09-24T02:46:14Z</time><name>913</name><sym>Flag, Blue</sym></wpt><wpt lat="10.343092" lon="123.965669"><ele>17.401001</ele><time>2024-09-24T02:46:38Z</time><name>914</name><sym>Flag, Blue</sym></wpt><wpt lat="10.343263" lon="123.965488"><ele>12.706478</ele><time>2024-09-24T03:02:37Z</time><name>915</name><sym>Flag, Blue</sym></wpt><wpt lat="10.343298" lon="123.965457"><ele>15.289394</ele><time>2024-09-24T03:03:23Z</time><name>916</name><sym>Flag, Blue</sym></wpt><wpt lat="10.343254" lon="123.965497"><ele>16.267910</ele><time>2024-09-24T03:03:40Z</time><name>917</name><sym>Flag, Blue</sym></wpt><wpt lat="10.343272" lon="123.965540"><ele>18.890148</ele><time>2024-09-24T03:04:00Z</time><name>918</name><sym>Flag, Blue</sym></wpt><wpt lat="10.343270" lon="123.965521"><ele>18.576435</ele><time>2024-09-24T03:04:18Z</time><name>919</name><sym>Flag, Blue</sym></wpt><wpt lat="10.343305" lon="123.965514"><ele>17.078579</ele><time>2024-09-24T03:04:43Z</time><name>920</name><sym>Flag, Blue</sym></wpt><wpt lat="10.343311" lon="123.965510"><ele>15.917057</ele><time>2024-09-24T03:04:58Z</time><name>921</name><sym>Flag, Blue</sym></wpt><wpt lat="10.343341" lon="123.965497"><ele>15.660931</ele><time>2024-09-24T03:05:22Z</time><name>922</name><sym>Flag, Blue</sym></wpt><wpt lat="10.343378" lon="123.965501"><ele>14.757710</ele><time>2024-09-24T03:05:41Z</time><name>923</name><sym>Flag, Blue</sym></wpt><wpt lat="10.343380" lon="123.965504"><ele>14.568974</ele><time>2024-09-24T03:05:51Z</time><name>924</name><sym>Flag, Blue</sym></wpt><wpt lat="10.343410" lon="123.965499"><ele>13.389072</ele><time>2024-09-24T03:06:14Z</time><name>925</name><sym>Flag, Blue</sym></wpt><wpt lat="10.343428" lon="123.965489"><ele>13.095043</ele><time>2024-09-24T03:06:24Z</time><name>926</name><sym>Flag, Blue</sym></wpt><wpt lat="10.343453" lon="123.965493"><ele>11.823826</ele><time>2024-09-24T03:06:40Z</time><name>927</name><sym>Flag, Blue</sym></wpt><wpt lat="10.343471" lon="123.965439"><ele>12.624157</ele><time>2024-09-24T03:07:10Z</time><name>928</name><sym>Flag, Blue</sym></wpt><wpt lat="10.343510" lon="123.965462"><ele>18.753231</ele><time>2024-09-24T03:07:43Z</time><name>929</name><sym>Flag, Blue</sym></wpt><wpt lat="10.343531" lon="123.965445"><ele>17.237965</ele><time>2024-09-24T03:08:00Z</time><name>930</name><sym>Flag, Blue</sym></wpt><wpt lat="10.343557" lon="123.965475"><ele>16.563145</ele><time>2024-09-24T03:08:13Z</time><name>931</name><sym>Flag, Blue</sym></wpt><wpt lat="10.343560" lon="123.965462"><ele>16.229038</ele><time>2024-09-24T03:08:29Z</time><name>932</name><sym>Flag, Blue</sym></wpt><wpt lat="10.343579" lon="123.965400"><ele>16.371540</ele><time>2024-09-24T03:09:00Z</time><name>933</name><sym>Flag, Blue</sym></wpt><wpt lat="10.343608" lon="123.965365"><ele>18.393330</ele><time>2024-09-24T03:09:11Z</time><name>934</name><sym>Flag, Blue</sym></wpt><wpt lat="10.343643" lon="123.965387"><ele>18.548100</ele><time>2024-09-24T03:09:30Z</time><name>935</name><sym>Flag, Blue</sym></wpt><wpt lat="10.343651" lon="123.965404"><ele>21.043255</ele><time>2024-09-24T03:09:40Z</time><name>936</name><sym>Flag, Blue</sym></wpt><wpt lat="10.343630" lon="123.965469"><ele>18.517475</ele><time>2024-09-24T03:10:01Z</time><name>937</name><sym>Flag, Blue</sym></wpt><wpt lat="10.343636" lon="123.965446"><ele>17.249714</ele><time>2024-09-24T03:10:22Z</time><name>938</name><sym>Flag, Blue</sym></wpt><wpt lat="10.343679" lon="123.965441"><ele>16.836147</ele><time>2024-09-24T03:10:35Z</time><name>939</name><sym>Flag, Blue</sym></wpt><wpt lat="10.343698" lon="123.965443"><ele>16.901142</ele><time>2024-09-24T03:10:45Z</time><name>940</name><sym>Flag, Blue</sym></wpt><wpt lat="10.343821" lon="123.965403"><ele>15.850155</ele><time>2024-09-24T03:11:20Z</time><name>941</name><sym>Flag, Blue</sym></wpt><wpt lat="10.343842" lon="123.965381"><ele>16.736553</ele><time>2024-09-24T03:11:33Z</time><name>942</name><sym>Flag, Blue</sym></wpt><wpt lat="10.343893" lon="123.965374"><ele>16.668194</ele><time>2024-09-24T03:11:47Z</time><name>943</name><sym>Flag, Blue</sym></wpt><wpt lat="10.343732" lon="123.965357"><ele>14.230618</ele><time>2024-09-24T03:12:21Z</time><name>944</name><sym>Flag, Blue</sym></wpt><wpt lat="10.343719" lon="123.965318"><ele>11.044308</ele><time>2024-09-24T03:12:44Z</time><name>945</name><sym>Flag, Blue</sym></wpt><wpt lat="10.343744" lon="123.965328"><ele>9.720737</ele><time>2024-09-24T03:12:57Z</time><name>946</name><sym>Flag, Blue</sym></wpt><wpt lat="10.343747" lon="123.965319"><ele>10.294636</ele><time>2024-09-24T03:13:05Z</time><name>947</name><sym>Flag, Blue</sym></wpt><wpt lat="10.343746" lon="123.965315"><ele>11.434635</ele><time>2024-09-24T03:13:13Z</time><name>948</name><sym>Flag, Blue</sym></wpt><wpt lat="10.343728" lon="123.965314"><ele>13.277699</ele><time>2024-09-24T03:13:27Z</time><name>949</name><sym>Flag, Blue</sym></wpt><wpt lat="10.343710" lon="123.965335"><time>2024-09-24T03:16:45Z</time><name>950</name><sym>Flag, Blue</sym></wpt><wpt lat="10.343710" lon="123.965335"><time>2024-09-24T03:17:26Z</time><name>951</name><sym>Flag, Blue</sym></wpt><wpt lat="10.343710" lon="123.965335"><time>2024-09-24T03:17:47Z</time><name>952</name><sym>Flag, Blue</sym></wpt><wpt lat="10.343710" lon="123.965335"><time>2024-09-24T03:18:07Z</time><name>953</name><sym>Flag, Blue</sym></wpt><wpt lat="10.343710" lon="123.965335"><time>2024-09-24T03:18:52Z</time><name>954</name><sym>Flag, Blue</sym></wpt><wpt lat="10.343710" lon="123.965335"><time>2024-09-24T03:20:00Z</time><name>955</name><sym>Flag, Blue</sym></wpt><wpt lat="10.343710" lon="123.965335"><time>2024-09-24T03:29:19Z</time><name>956</name><sym>Flag, Blue</sym></wpt><wpt lat="10.343710" lon="123.965335"><time>2024-09-24T03:30:00Z</time><name>957</name><sym>Flag, Blue</sym></wpt><wpt lat="10.344557" lon="123.964182"><ele>11.501640</ele><time>2024-09-24T03:32:18Z</time><name>958</name><sym>Flag, Blue</sym></wpt><wpt lat="10.344645" lon="123.963927"><ele>12.892769</ele><time>2024-09-24T03:33:03Z</time><name>959</name><sym>Flag, Blue</sym></wpt><wpt lat="10.344654" lon="123.963922"><ele>11.048206</ele><time>2024-09-24T03:33:13Z</time><name>960</name><sym>Flag, Blue</sym></wpt><wpt lat="10.344742" lon="123.963921"><ele>12.060253</ele><time>2024-09-24T03:33:31Z</time><name>961</name><sym>Flag, Blue</sym></wpt><wpt lat="10.344782" lon="123.963976"><ele>13.602089</ele><time>2024-09-24T03:33:55Z</time><name>962</name><sym>Flag, Blue</sym></wpt><wpt lat="10.344841" lon="123.963914"><ele>14.511929</ele><time>2024-09-24T03:34:14Z</time><name>963</name><sym>Flag, Blue</sym></wpt><wpt lat="10.344897" lon="123.963918"><ele>14.723171</ele><time>2024-09-24T03:34:32Z</time><name>964</name><sym>Flag, Blue</sym></wpt><wpt lat="10.344947" lon="123.963908"><ele>14.255405</ele><time>2024-09-24T03:34:50Z</time><name>965</name><sym>Flag, Blue</sym></wpt><wpt lat="10.345011" lon="123.963897"><ele>13.749958</ele><time>2024-09-24T03:35:06Z</time><name>966</name><sym>Flag, Blue</sym></wpt><wpt lat="10.345003" lon="123.963970"><ele>13.244175</ele><time>2024-09-24T03:35:33Z</time><name>967</name><sym>Flag, Blue</sym></wpt><wpt lat="10.345027" lon="123.963953"><ele>13.582272</ele><time>2024-09-24T03:35:50Z</time><name>968</name><sym>Flag, Blue</sym></wpt><wpt lat="10.345050" lon="123.963933"><ele>14.356419</ele><time>2024-09-24T03:36:05Z</time><name>969</name><sym>Flag, Blue</sym></wpt><wpt lat="10.345123" lon="123.963876"><ele>12.015575</ele><time>2024-09-24T03:36:18Z</time><name>970</name><sym>Flag, Blue</sym></wpt><wpt lat="10.345125" lon="123.963850"><ele>10.882084</ele><time>2024-09-24T03:36:33Z</time><name>971</name><sym>Flag, Blue</sym></wpt><wpt lat="10.345157" lon="123.963795"><ele>12.367588</ele><time>2024-09-24T03:36:52Z</time><name>972</name><sym>Flag, Blue</sym></wpt><wpt lat="10.345156" lon="123.963752"><ele>16.114281</ele><time>2024-09-24T03:37:10Z</time><name>973</name><sym>Flag, Blue</sym></wpt><wpt lat="10.345250" lon="123.963687"><ele>18.205902</ele><time>2024-09-24T03:37:29Z</time><name>974</name><sym>Flag, Blue</sym></wpt><wpt lat="10.345322" lon="123.963581"><ele>15.264259</ele><time>2024-09-24T03:37:52Z</time><name>975</name><sym>Flag, Blue</sym></wpt><wpt lat="10.345356" lon="123.963591"><ele>13.678825</ele><time>2024-09-24T03:38:09Z</time><name>976</name><sym>Flag, Blue</sym></wpt><wpt lat="10.345381" lon="123.963600"><ele>21.057686</ele><time>2024-09-24T03:38:22Z</time><name>977</name><sym>Flag, Blue</sym></wpt><wpt lat="10.345403" lon="123.963580"><ele>24.905945</ele><time>2024-09-24T03:38:35Z</time><name>978</name><sym>Flag, Blue</sym></wpt><wpt lat="10.345428" lon="123.963552"><ele>26.482140</ele><time>2024-09-24T03:38:48Z</time><name>979</name><sym>Flag, Blue</sym></wpt><wpt lat="10.345493" lon="123.963483"><ele>25.661942</ele><time>2024-09-24T03:39:14Z</time><name>980</name><sym>Flag, Blue</sym></wpt><wpt lat="10.345526" lon="123.963474"><ele>24.710922</ele><time>2024-09-24T03:39:34Z</time><name>981</name><sym>Flag, Blue</sym></wpt><wpt lat="10.345578" lon="123.963311"><ele>26.888943</ele><time>2024-09-24T04:10:23Z</time><name>982</name><sym>Flag, Blue</sym></wpt><wpt lat="10.345587" lon="123.963270"><ele>21.286682</ele><time>2024-09-24T04:11:18Z</time><name>983</name><sym>Flag, Blue</sym></wpt><wpt lat="10.345603" lon="123.963164"><ele>22.663696</ele><time>2024-09-24T04:11:45Z</time><name>984</name><sym>Flag, Blue</sym></wpt><wpt lat="10.345661" lon="123.963256"><ele>18.240509</ele><time>2024-09-24T04:12:27Z</time><name>985</name><sym>Flag, Blue</sym></wpt><wpt lat="10.345670" lon="123.963275"><ele>17.873970</ele><time>2024-09-24T04:12:37Z</time><name>986</name><sym>Flag, Blue</sym></wpt><wpt lat="10.345673" lon="123.963303"><ele>20.309380</ele><time>2024-09-24T04:12:49Z</time><name>987</name><sym>Flag, Blue</sym></wpt><wpt lat="10.345704" lon="123.963328"><ele>19.994972</ele><time>2024-09-24T04:13:03Z</time><name>988</name><sym>Flag, Blue</sym></wpt><wpt lat="10.345697" lon="123.963356"><ele>21.573944</ele><time>2024-09-24T04:13:20Z</time><name>989</name><sym>Flag, Blue</sym></wpt><wpt lat="10.345717" lon="123.963380"><ele>21.883560</ele><time>2024-09-24T04:13:52Z</time><name>990</name><sym>Flag, Blue</sym></wpt><wpt lat="10.345727" lon="123.963389"><ele>22.665916</ele><time>2024-09-24T04:14:25Z</time><name>991</name><sym>Flag, Blue</sym></wpt><wpt lat="10.345680" lon="123.963420"><ele>22.660301</ele><time>2024-09-24T04:14:48Z</time><name>992</name><sym>Flag, Blue</sym></wpt><wpt lat="10.345752" lon="123.963424"><ele>22.182236</ele><time>2024-09-24T04:15:11Z</time><name>993</name><sym>Flag, Blue</sym></wpt><wpt lat="10.345785" lon="123.963467"><ele>22.679840</ele><time>2024-09-24T04:15:35Z</time><name>994</name><sym>Flag, Blue</sym></wpt><wpt lat="10.345794" lon="123.963480"><ele>20.827744</ele><time>2024-09-24T04:15:49Z</time><name>995</name><sym>Flag, Blue</sym></wpt><wpt lat="10.345745" lon="123.963482"><ele>21.413132</ele><time>2024-09-24T04:16:06Z</time><name>996</name><sym>Flag, Blue</sym></wpt><wpt lat="10.345770" lon="123.963510"><ele>22.406029</ele><time>2024-09-24T04:16:27Z</time><name>997</name><sym>Flag, Blue</sym></wpt><wpt lat="10.345829" lon="123.963525"><ele>21.193302</ele><time>2024-09-24T04:16:47Z</time><name>998</name><sym>Flag, Blue</sym></wpt><wpt lat="10.345838" lon="123.963592"><ele>17.891781</ele><time>2024-09-24T04:17:11Z</time><name>999</name><sym>Flag, Blue</sym></wpt><wpt lat="10.345902" lon="123.963704"><ele>18.412531</ele><time>2024-09-24T04:17:42Z</time><name>1000</name><sym>Flag, Blue</sym></wpt><wpt lat="10.345930" lon="123.963695"><ele>19.485455</ele><time>2024-09-24T04:18:06Z</time><name>1001</name><sym>Flag, Blue</sym></wpt><wpt lat="10.345971" lon="123.963696"><ele>20.478016</ele><time>2024-09-24T04:18:50Z</time><name>1002</name><sym>Flag, Blue</sym></wpt><wpt lat="10.345970" lon="123.963712"><ele>20.546230</ele><time>2024-09-24T04:19:07Z</time><name>1003</name><sym>Flag, Blue</sym></wpt><wpt lat="10.345991" lon="123.963745"><ele>19.883595</ele><time>2024-09-24T04:19:22Z</time><name>1004</name><sym>Flag, Blue</sym></wpt><wpt lat="10.346015" lon="123.963790"><ele>21.718876</ele><time>2024-09-24T04:19:39Z</time><name>1005</name><sym>Flag, Blue</sym></wpt><wpt lat="10.346048" lon="123.963855"><ele>21.744217</ele><time>2024-09-24T04:20:01Z</time><name>1006</name><sym>Flag, Blue</sym></wpt><wpt lat="10.346084" lon="123.963899"><ele>21.726349</ele><time>2024-09-24T04:20:19Z</time><name>1007</name><sym>Flag, Blue</sym></wpt><wpt lat="10.346117" lon="123.963936"><ele>21.527401</ele><time>2024-09-24T04:20:40Z</time><name>1008</name><sym>Flag, Blue</sym></wpt><wpt lat="10.346105" lon="123.963992"><ele>18.900478</ele><time>2024-09-24T04:21:03Z</time><name>1009</name><sym>Flag, Blue</sym></wpt><wpt lat="10.346164" lon="123.964001"><ele>20.803936</ele><time>2024-09-24T04:21:32Z</time><name>1010</name><sym>Flag, Blue</sym></wpt><wpt lat="10.346193" lon="123.964031"><ele>18.126400</ele><time>2024-09-24T04:21:55Z</time><name>1011</name><sym>Flag, Blue</sym></wpt><wpt lat="10.346230" lon="123.964079"><ele>17.191547</ele><time>2024-09-24T04:22:13Z</time><name>1012</name><sym>Flag, Blue</sym></wpt><wpt lat="10.346278" lon="123.964146"><ele>18.931675</ele><time>2024-09-24T04:22:37Z</time><name>1013</name><sym>Flag, Blue</sym></wpt><wpt lat="10.346218" lon="123.964202"><ele>20.217506</ele><time>2024-09-24T04:22:55Z</time><name>1014</name><sym>Flag, Blue</sym></wpt><wpt lat="10.346260" lon="123.964220"><ele>19.380371</ele><time>2024-09-24T04:23:12Z</time><name>1015</name><sym>Flag, Blue</sym></wpt><wpt lat="10.346278" lon="123.964247"><ele>17.912712</ele><time>2024-09-24T04:23:27Z</time><name>1016</name><sym>Flag, Blue</sym></wpt><wpt lat="10.346292" lon="123.964267"><ele>17.362675</ele><time>2024-09-24T04:23:43Z</time><name>1017</name><sym>Flag, Blue</sym></wpt><wpt lat="10.346383" lon="123.964265"><ele>19.397083</ele><time>2024-09-24T04:24:02Z</time><name>1018</name><sym>Flag, Blue</sym></wpt><wpt lat="10.346384" lon="123.964288"><ele>21.120670</ele><time>2024-09-24T04:24:17Z</time><name>1019</name><sym>Flag, Blue</sym></wpt><wpt lat="10.346411" lon="123.964325"><ele>22.289944</ele><time>2024-09-24T04:24:33Z</time><name>1020</name><sym>Flag, Blue</sym></wpt><wpt lat="10.346443" lon="123.964385"><ele>21.265507</ele><time>2024-09-24T04:24:50Z</time><name>1021</name><sym>Flag, Blue</sym></wpt><wpt lat="10.346455" lon="123.964397"><ele>20.989864</ele><time>2024-09-24T04:25:04Z</time><name>1022</name><sym>Flag, Blue</sym></wpt><wpt lat="10.346423" lon="123.964427"><ele>20.992390</ele><time>2024-09-24T04:25:19Z</time><name>1023</name><sym>Flag, Blue</sym></wpt><wpt lat="10.346450" lon="123.964467"><ele>23.787670</ele><time>2024-09-24T04:25:50Z</time><name>1024</name><sym>Flag, Blue</sym></wpt><wpt lat="10.346489" lon="123.964447"><ele>25.608383</ele><time>2024-09-24T04:28:23Z</time><name>1025</name><sym>Flag, Blue</sym></wpt><wpt lat="10.346530" lon="123.964491"><ele>25.365101</ele><time>2024-09-24T04:28:49Z</time><name>1026</name><sym>Flag, Blue</sym></wpt><wpt lat="10.346539" lon="123.964520"><ele>24.541286</ele><time>2024-09-24T04:29:09Z</time><name>1027</name><sym>Flag, Blue</sym></wpt><wpt lat="10.346570" lon="123.964570"><ele>24.239414</ele><time>2024-09-24T04:29:29Z</time><name>1028</name><sym>Flag, Blue</sym></wpt><wpt lat="10.346573" lon="123.964561"><ele>23.880959</ele><time>2024-09-24T04:29:47Z</time><name>1029</name><sym>Flag, Blue</sym></wpt><wpt lat="10.346604" lon="123.964604"><ele>23.561775</ele><time>2024-09-24T04:30:04Z</time><name>1030</name><sym>Flag, Blue</sym></wpt><wpt lat="10.346697" lon="123.964733"><ele>24.862373</ele><time>2024-09-24T04:30:41Z</time><name>1031</name><sym>Flag, Blue</sym></wpt><wpt lat="10.346735" lon="123.964786"><ele>26.385490</ele><time>2024-09-24T04:30:59Z</time><name>1032</name><sym>Flag, Blue</sym></wpt><wpt lat="10.346741" lon="123.964814"><ele>27.135605</ele><time>2024-09-24T04:31:14Z</time><name>1033</name><sym>Flag, Blue</sym></wpt><wpt lat="10.346727" lon="123.964835"><ele>26.252647</ele><time>2024-09-24T04:31:28Z</time><name>1034</name><sym>Flag, Blue</sym></wpt><wpt lat="10.346771" lon="123.964830"><ele>23.755432</ele><time>2024-09-24T04:31:53Z</time><name>1035</name><sym>Flag, Blue</sym></wpt><wpt lat="10.346760" lon="123.964837"><ele>25.002914</ele><time>2024-09-24T04:32:06Z</time><name>1036</name><sym>Flag, Blue</sym></wpt><wpt lat="10.346784" lon="123.964850"><ele>25.448761</ele><time>2024-09-24T04:32:19Z</time><name>1037</name><sym>Flag, Blue</sym></wpt><wpt lat="10.346796" lon="123.964871"><ele>25.950851</ele><time>2024-09-24T04:32:31Z</time><name>1038</name><sym>Flag, Blue</sym></wpt><wpt lat="10.346942" lon="123.965050"><ele>27.910698</ele><time>2024-09-24T04:33:03Z</time><name>1039</name><sym>Flag, Blue</sym></wpt><wpt lat="10.346937" lon="123.965074"><ele>26.705399</ele><time>2024-09-24T04:33:24Z</time><name>1040</name><sym>Flag, Blue</sym></wpt><wpt lat="10.346962" lon="123.965094"><ele>26.287170</ele><time>2024-09-24T04:33:43Z</time><name>1041</name><sym>Flag, Blue</sym></wpt><wpt lat="10.346968" lon="123.965120"><ele>27.574982</ele><time>2024-09-24T04:33:59Z</time><name>1042</name><sym>Flag, Blue</sym></wpt><wpt lat="10.346985" lon="123.965144"><ele>28.054031</ele><time>2024-09-24T04:34:20Z</time><name>1043</name><sym>Flag, Blue</sym></wpt><wpt lat="10.346999" lon="123.965169"><ele>26.486839</ele><time>2024-09-24T04:34:32Z</time><name>1044</name><sym>Flag, Blue</sym></wpt><wpt lat="10.347040" lon="123.965218"><ele>25.680901</ele><time>2024-09-24T04:34:52Z</time><name>1045</name><sym>Flag, Blue</sym></wpt><wpt lat="10.347050" lon="123.965238"><ele>25.577682</ele><time>2024-09-24T04:35:07Z</time><name>1046</name><sym>Flag, Blue</sym></wpt><wpt lat="10.347067" lon="123.965259"><ele>25.660881</ele><time>2024-09-24T04:35:21Z</time><name>1047</name><sym>Flag, Blue</sym></wpt><wpt lat="10.347094" lon="123.965303"><ele>25.913506</ele><time>2024-09-24T04:35:38Z</time><name>1048</name><sym>Flag, Blue</sym></wpt><wpt lat="10.347112" lon="123.965327"><ele>26.253517</ele><time>2024-09-24T04:35:51Z</time><name>1049</name><sym>Flag, Blue</sym></wpt><wpt lat="10.347150" lon="123.965374"><ele>27.475576</ele><time>2024-09-24T04:36:04Z</time><name>1050</name><sym>Flag, Blue</sym></wpt><wpt lat="10.347159" lon="123.965389"><ele>27.781654</ele><time>2024-09-24T04:36:15Z</time><name>1051</name><sym>Flag, Blue</sym></wpt><wpt lat="10.347172" lon="123.965418"><ele>27.551109</ele><time>2024-09-24T04:36:28Z</time><name>1052</name><sym>Flag, Blue</sym></wpt><wpt lat="10.347184" lon="123.965444"><ele>28.378082</ele><time>2024-09-24T04:36:44Z</time><name>1053</name><sym>Flag, Blue</sym></wpt><wpt lat="10.347200" lon="123.965459"><ele>28.329493</ele><time>2024-09-24T04:36:55Z</time><name>1054</name><sym>Flag, Blue</sym></wpt><wpt lat="10.347209" lon="123.965482"><ele>27.509125</ele><time>2024-09-24T04:37:06Z</time><name>1055</name><sym>Flag, Blue</sym></wpt><wpt lat="10.347243" lon="123.965509"><ele>23.329063</ele><time>2024-09-24T04:37:22Z</time><name>1056</name><sym>Flag, Blue</sym></wpt><wpt lat="10.347263" lon="123.965531"><ele>23.830048</ele><time>2024-09-24T04:37:37Z</time><name>1057</name><sym>Flag, Blue</sym></wpt></gpx>