<?xml version="1.0" encoding="UTF-8" standalone="no" ?><gpx xmlns="http://www.topografix.com/GPX/1/1" xmlns:gpxx="http://www.garmin.com/xmlschemas/GpxExtensions/v3" xmlns:wptx1="http://www.garmin.com/xmlschemas/WaypointExtension/v1" xmlns:gpxtpx="http://www.garmin.com/xmlschemas/TrackPointExtension/v1" creator="eTrex 22x" version="1.1" xmlns:xsi="http://www.w3.org/2001/XMLSchema-instance" xsi:schemaLocation="http://www.topografix.com/GPX/1/1 http://www.topografix.com/GPX/1/1/gpx.xsd http://www.garmin.com/xmlschemas/GpxExtensions/v3 http://www8.garmin.com/xmlschemas/GpxExtensionsv3.xsd http://www.garmin.com/xmlschemas/TrackStatsExtension/v1 http://www8.garmin.com/xmlschemas/TrackStatsExtension.xsd http://www.garmin.com/xmlschemas/WaypointExtension/v1 http://www8.garmin.com/xmlschemas/WaypointExtensionv1.xsd http://www.garmin.com/xmlschemas/TrackPointExtension/v1 http://www.garmin.com/xmlschemas/TrackPointExtensionv1.xsd"><metadata><link href="http://www.garmin.com"><text>Garmin International</text></link><time>2024-09-23T01:37:03Z</time></metadata><wpt lat="10.346325" lon="123.960000"><ele>37.160465</ele><time>2024-09-23T01:37:03Z</time><name>643</name><sym>Flag, Blue</sym></wpt><wpt lat="10.345677" lon="123.959689"><ele>13.215187</ele><time>2024-09-23T01:38:59Z</time><name>644</name><sym>Flag, Blue</sym></wpt><wpt lat="10.345655" lon="123.959660"><ele>10.246338</ele><time>2024-09-23T01:39:13Z</time><name>645</name><sym>Flag, Blue</sym></wpt><wpt lat="10.345649" lon="123.959657"><ele>8.346764</ele><time>2024-09-23T01:39:23Z</time><name>646</name><sym>Flag, Blue</sym></wpt><wpt lat="10.345626" lon="123.959645"><ele>7.311562</ele><time>2024-09-23T01:39:33Z</time><name>647</name><sym>Flag, Blue</sym></wpt><wpt lat="10.345572" lon="123.959637"><ele>5.017315</ele><time>2024-09-23T01:39:48Z</time><name>648</name><sym>Flag, Blue</sym></wpt><wpt lat="10.345564" lon="123.959561"><ele>5.053413</ele><time>2024-09-23T01:40:20Z</time><name>649</name><sym>Flag, Blue</sym></wpt><wpt lat="10.345551" lon="123.959555"><ele>4.961388</ele><time>2024-09-23T01:40:29Z</time><name>650</name><sym>Flag, Blue</sym></wpt><wpt lat="10.345527" lon="123.959525"><ele>5.298134</ele><time>2024-09-23T01:40:39Z</time><name>651</name><sym>Flag, Blue</sym></wpt><wpt lat="10.345392" lon="123.959428"><ele>6.400814</ele><time>2024-09-23T01:41:07Z</time><name>652</name><sym>Flag, Blue</sym></wpt><wpt lat="10.345418" lon="123.959372"><ele>7.894688</ele><time>2024-09-23T01:41:26Z</time><name>653</name><sym>Flag, Blue</sym></wpt><wpt lat="10.345402" lon="123.959361"><ele>7.931446</ele><time>2024-09-23T01:41:37Z</time><name>654</name><sym>Flag, Blue</sym></wpt><wpt lat="10.345259" lon="123.959247"><ele>8.230511</ele><time>2024-09-23T01:42:02Z</time><name>655</name><sym>Flag, Blue</sym></wpt><wpt lat="10.345232" lon="123.959230"><ele>8.762432</ele><time>2024-09-23T01:42:12Z</time><name>656</name><sym>Flag, Blue</sym></wpt><wpt lat="10.345082" lon="123.958884"><ele>2.228466</ele><time>2024-09-23T01:43:37Z</time><name>657</name><sym>Flag, Blue</sym></wpt><wpt lat="10.345193" lon="123.958973"><ele>3.388878</ele><time>2024-09-23T01:44:14Z</time><name>658</name><sym>Flag, Blue</sym></wpt><wpt lat="10.344673" lon="123.958788"><ele>-0.832901</ele><time>2024-09-23T01:45:55Z</time><name>659</name><sym>Flag, Blue</sym></wpt><wpt lat="10.344560" lon="123.958649"><ele>8.141853</ele><time>2024-09-23T01:46:47Z</time><name>660</name><sym>Flag, Blue</sym></wpt><wpt lat="10.344666" lon="123.958578"><ele>17.196812</ele><time>2024-09-23T01:47:57Z</time><name>661</name><sym>Flag, Blue</sym></wpt><wpt lat="10.344852" lon="123.958556"><ele>17.000423</ele><time>2024-09-23T01:50:45Z</time><name>662</name><sym>Flag, Blue</sym></wpt><wpt lat="10.344916" lon="123.958574"><ele>15.157822</ele><time>2024-09-23T01:51:06Z</time><name>663</name><sym>Flag, Blue</sym></wpt><wpt lat="10.344925" lon="123.958596"><ele>15.209198</ele><time>2024-09-23T01:51:18Z</time><name>664</name><sym>Flag, Blue</sym></wpt><wpt lat="10.345047" lon="123.958833"><ele>15.100266</ele><time>2024-09-23T01:52:13Z</time><name>665</name><sym>Flag, Blue</sym></wpt><wpt lat="10.345050" lon="123.958820"><ele>13.832001</ele><time>2024-09-23T01:52:23Z</time><name>666</name><sym>Flag, Blue</sym></wpt><wpt lat="10.345046" lon="123.958834"><ele>13.804718</ele><time>2024-09-23T01:52:33Z</time><name>667</name><sym>Flag, Blue</sym></wpt><wpt lat="10.344990" lon="123.958825"><ele>15.540146</ele><time>2024-09-23T01:52:46Z</time><name>668</name><sym>Flag, Blue</sym></wpt><wpt lat="10.345028" lon="123.958827"><ele>15.559563</ele><time>2024-09-23T01:53:03Z</time><name>669</name><sym>Flag, Blue</sym></wpt><wpt lat="10.345044" lon="123.958836"><ele>15.877724</ele><time>2024-09-23T01:53:11Z</time><name>670</name><sym>Flag, Blue</sym></wpt><wpt lat="10.345087" lon="123.958859"><ele>17.864861</ele><time>2024-09-23T01:53:25Z</time><name>671</name><sym>Flag, Blue</sym></wpt><wpt lat="10.345096" lon="123.958843"><ele>18.939934</ele><time>2024-09-23T01:53:35Z</time><name>672</name><sym>Flag, Blue</sym></wpt><wpt lat="10.345101" lon="123.958834"><ele>19.269646</ele><time>2024-09-23T01:53:46Z</time><name>673</name><sym>Flag, Blue</sym></wpt><wpt lat="10.345110" lon="123.958812"><ele>19.442223</ele><time>2024-09-23T01:53:59Z</time><name>674</name><sym>Flag, Blue</sym></wpt><wpt lat="10.345104" lon="123.958796"><ele>19.815086</ele><time>2024-09-23T01:54:10Z</time><name>675</name><sym>Flag, Blue</sym></wpt><wpt lat="10.345190" lon="123.958772"><ele>24.713001</ele><time>2024-09-23T01:54:51Z</time><name>676</name><sym>Flag, Blue</sym></wpt><wpt lat="10.345199" lon="123.958760"><ele>25.083958</ele><time>2024-09-23T01:55:00Z</time><name>677</name><sym>Flag, Blue</sym></wpt><wpt lat="10.345198" lon="123.958757"><ele>25.581867</ele><time>2024-09-23T01:55:09Z</time><name>678</name><sym>Flag, Blue</sym></wpt><wpt lat="10.345195" lon="123.958745"><ele>25.779118</ele><time>2024-09-23T01:55:19Z</time><name>679</name><sym>Flag, Blue</sym></wpt><wpt lat="10.345195" lon="123.958728"><ele>26.317875</ele><time>2024-09-23T01:55:29Z</time><name>680</name><sym>Flag, Blue</sym></wpt><wpt lat="10.345191" lon="123.958729"><ele>26.212452</ele><time>2024-09-23T01:55:39Z</time><name>681</name><sym>Flag, Blue</sym></wpt><wpt lat="10.345197" lon="123.958719"><ele>26.474865</ele><time>2024-09-23T01:55:51Z</time><name>682</name><sym>Flag, Blue</sym></wpt><wpt lat="10.345549" lon="123.957599"><ele>17.808884</ele><time>2024-09-23T02:06:24Z</time><name>683</name><sym>Flag, Blue</sym></wpt><wpt lat="10.345557" lon="123.957584"><ele>18.756630</ele><time>2024-09-23T02:06:38Z</time><name>684</name><sym>Flag, Blue</sym></wpt><wpt lat="10.345504" lon="123.957553"><ele>16.194183</ele><time>2024-09-23T02:06:58Z</time><name>685</name><sym>Flag, Blue</sym></wpt><wpt lat="10.345471" lon="123.957517"><ele>16.334381</ele><time>2024-09-23T02:07:11Z</time><name>686</name><sym>Flag, Blue</sym></wpt><wpt lat="10.345473" lon="123.957509"><ele>18.838554</ele><time>2024-09-23T02:07:26Z</time><name>687</name><sym>Flag, Blue</sym></wpt><wpt lat="10.345439" lon="123.957489"><ele>18.568863</ele><time>2024-09-23T02:07:35Z</time><name>688</name><sym>Flag, Blue</sym></wpt><wpt lat="10.345436" lon="123.957474"><ele>19.257477</ele><time>2024-09-23T02:07:45Z</time><name>689</name><sym>Flag, Blue</sym></wpt><wpt lat="10.345410" lon="123.957454"><ele>18.907448</ele><time>2024-09-23T02:07:54Z</time><name>690</name><sym>Flag, Blue</sym></wpt><wpt lat="10.345358" lon="123.957420"><ele>18.920486</ele><time>2024-09-23T02:08:08Z</time><name>691</name><sym>Flag, Blue</sym></wpt><wpt lat="10.345338" lon="123.957392"><ele>17.638256</ele><time>2024-09-23T02:08:18Z</time><name>692</name><sym>Flag, Blue</sym></wpt><wpt lat="10.345336" lon="123.957389"><ele>17.076908</ele><time>2024-09-23T02:08:26Z</time><name>693</name><sym>Flag, Blue</sym></wpt><wpt lat="10.345307" lon="123.957370"><ele>17.384663</ele><time>2024-09-23T02:08:36Z</time><name>694</name><sym>Flag, Blue</sym></wpt><wpt lat="10.345278" lon="123.957334"><ele>17.672001</ele><time>2024-09-23T02:08:46Z</time><name>695</name><sym>Flag, Blue</sym></wpt><wpt lat="10.345257" lon="123.957320"><ele>18.425282</ele><time>2024-09-23T02:08:57Z</time><name>696</name><sym>Flag, Blue</sym></wpt><wpt lat="10.345338" lon="123.957286"><ele>17.760929</ele><time>2024-09-23T02:09:14Z</time><name>697</name><sym>Flag, Blue</sym></wpt><wpt lat="10.345307" lon="123.957242"><ele>17.436764</ele><time>2024-09-23T02:09:23Z</time><name>698</name><sym>Flag, Blue</sym></wpt><wpt lat="10.345307" lon="123.957238"><ele>18.105900</ele><time>2024-09-23T02:09:46Z</time><name>699</name><sym>Flag, Blue</sym></wpt><wpt lat="10.345314" lon="123.957256"><ele>17.240025</ele><time>2024-09-23T02:09:54Z</time><name>700</name><sym>Flag, Blue</sym></wpt><wpt lat="10.345306" lon="123.957227"><ele>18.536572</ele><time>2024-09-23T02:10:06Z</time><name>701</name><sym>Flag, Blue</sym></wpt><wpt lat="10.345068" lon="123.956883"><ele>17.058777</ele><time>2024-09-23T02:37:46Z</time><name>702</name><sym>Flag, Blue</sym></wpt><wpt lat="10.345062" lon="123.956904"><ele>10.487968</ele><time>2024-09-23T02:38:23Z</time><name>703</name><sym>Flag, Blue</sym></wpt><wpt lat="10.345064" lon="123.956922"><ele>11.954605</ele><time>2024-09-23T02:38:40Z</time><name>704</name><sym>Flag, Blue</sym></wpt><wpt lat="10.345020" lon="123.956933"><ele>10.209629</ele><time>2024-09-23T02:39:02Z</time><name>705</name><sym>Flag, Blue</sym></wpt><wpt lat="10.344995" lon="123.956942"><ele>14.240086</ele><time>2024-09-23T02:39:16Z</time><name>706</name><sym>Flag, Blue</sym></wpt><wpt lat="10.344988" lon="123.956974"><ele>17.849934</ele><time>2024-09-23T02:39:31Z</time><name>707</name><sym>Flag, Blue</sym></wpt><wpt lat="10.344998" lon="123.957005"><ele>18.273907</ele><time>2024-09-23T02:39:40Z</time><name>708</name><sym>Flag, Blue</sym></wpt><wpt lat="10.345017" lon="123.957046"><ele>18.243229</ele><time>2024-09-23T02:40:07Z</time><name>709</name><sym>Flag, Blue</sym></wpt><wpt lat="10.345057" lon="123.957068"><ele>20.572453</ele><time>2024-09-23T02:40:20Z</time><name>710</name><sym>Flag, Blue</sym></wpt><wpt lat="10.345028" lon="123.957057"><ele>18.401283</ele><time>2024-09-23T02:41:20Z</time><name>711</name><sym>Flag, Blue</sym></wpt><wpt lat="10.344983" lon="123.957069"><ele>19.647720</ele><time>2024-09-23T02:41:47Z</time><name>712</name><sym>Flag, Blue</sym></wpt><wpt lat="10.344856" lon="123.957212"><ele>20.097557</ele><time>2024-09-23T02:42:33Z</time><name>713</name><sym>Flag, Blue</sym></wpt><wpt lat="10.344848" lon="123.957205"><ele>20.735874</ele><time>2024-09-23T02:43:03Z</time><name>714</name><sym>Flag, Blue</sym></wpt><wpt lat="10.344868" lon="123.957215"><ele>21.969852</ele><time>2024-09-23T02:43:14Z</time><name>715</name><sym>Flag, Blue</sym></wpt><wpt lat="10.344892" lon="123.957245"><ele>23.297512</ele><time>2024-09-23T02:43:29Z</time><name>716</name><sym>Flag, Blue</sym></wpt><wpt lat="10.344934" lon="123.957264"><ele>23.036430</ele><time>2024-09-23T02:43:47Z</time><name>717</name><sym>Flag, Blue</sym></wpt><wpt lat="10.345044" lon="123.957169"><ele>17.469086</ele><time>2024-09-23T02:44:23Z</time><name>718</name><sym>Flag, Blue</sym></wpt><wpt lat="10.345081" lon="123.957181"><ele>18.207123</ele><time>2024-09-23T02:44:38Z</time><name>719</name><sym>Flag, Blue</sym></wpt><wpt lat="10.345130" lon="123.957162"><ele>16.828606</ele><time>2024-09-23T02:44:58Z</time><name>720</name><sym>Flag, Blue</sym></wpt><wpt lat="10.345104" lon="123.957407"><ele>17.675842</ele><time>2024-09-23T02:45:38Z</time><name>721</name><sym>Flag, Blue</sym></wpt><wpt lat="10.345103" lon="123.957386"><ele>17.016384</ele><time>2024-09-23T02:45:53Z</time><name>722</name><sym>Flag, Blue</sym></wpt><wpt lat="10.345108" lon="123.957376"><ele>16.705585</ele><time>2024-09-23T02:46:03Z</time><name>723</name><sym>Flag, Blue</sym></wpt><wpt lat="10.345153" lon="123.957341"><ele>17.510967</ele><time>2024-09-23T02:46:26Z</time><name>724</name><sym>Flag, Blue</sym></wpt><wpt lat="10.345186" lon="123.957315"><ele>17.217922</ele><time>2024-09-23T02:46:40Z</time><name>725</name><sym>Flag, Blue</sym></wpt><wpt lat="10.345191" lon="123.957300"><ele>17.703434</ele><time>2024-09-23T02:46:52Z</time><name>726</name><sym>Flag, Blue</sym></wpt><wpt lat="10.345891" lon="123.957307"><ele>11.006805</ele><time>2024-09-23T02:49:50Z</time><name>727</name><sym>Flag, Blue</sym></wpt><wpt lat="10.345918" lon="123.957314"><ele>13.435318</ele><time>2024-09-23T02:50:29Z</time><name>728</name><sym>Flag, Blue</sym></wpt><wpt lat="10.345972" lon="123.957203"><ele>14.845116</ele><time>2024-09-23T02:50:47Z</time><name>729</name><sym>Flag, Blue</sym></wpt><wpt lat="10.345928" lon="123.957324"><ele>17.902275</ele><time>2024-09-23T02:51:19Z</time><name>730</name><sym>Flag, Blue</sym></wpt><wpt lat="10.345955" lon="123.957292"><ele>19.760262</ele><time>2024-09-23T02:51:33Z</time><name>731</name><sym>Flag, Blue</sym></wpt><wpt lat="10.345981" lon="123.957278"><ele>20.776817</ele><time>2024-09-23T02:51:45Z</time><name>732</name><sym>Flag, Blue</sym></wpt><wpt lat="10.345970" lon="123.957250"><ele>20.599167</ele><time>2024-09-23T02:52:02Z</time><name>733</name><sym>Flag, Blue</sym></wpt><wpt lat="10.345998" lon="123.957252"><ele>19.746624</ele><time>2024-09-23T02:52:23Z</time><name>734</name><sym>Flag, Blue</sym></wpt><wpt lat="10.346022" lon="123.957222"><ele>19.615852</ele><time>2024-09-23T02:52:35Z</time><name>735</name><sym>Flag, Blue</sym></wpt><wpt lat="10.346028" lon="123.957194"><ele>20.301506</ele><time>2024-09-23T02:52:51Z</time><name>736</name><sym>Flag, Blue</sym></wpt><wpt lat="10.346039" lon="123.957178"><ele>21.550323</ele><time>2024-09-23T02:53:06Z</time><name>737</name><sym>Flag, Blue</sym></wpt><wpt lat="10.346042" lon="123.957182"><ele>20.865952</ele><time>2024-09-23T02:53:18Z</time><name>738</name><sym>Flag, Blue</sym></wpt><wpt lat="10.346103" lon="123.957057"><ele>20.662544</ele><time>2024-09-23T02:53:44Z</time><name>739</name><sym>Flag, Blue</sym></wpt><wpt lat="10.346097" lon="123.957053"><ele>21.393452</ele><time>2024-09-23T02:53:56Z</time><name>740</name><sym>Flag, Blue</sym></wpt><wpt lat="10.346119" lon="123.957053"><ele>22.486050</ele><time>2024-09-23T02:54:08Z</time><name>741</name><sym>Flag, Blue</sym></wpt><wpt lat="10.346536" lon="123.956622"><ele>21.005272</ele><time>2024-09-23T02:55:09Z</time><name>742</name><sym>Flag, Blue</sym></wpt><wpt lat="10.346561" lon="123.956589"><ele>20.290436</ele><time>2024-09-23T02:55:43Z</time><name>743</name><sym>Flag, Blue</sym></wpt><wpt lat="10.346518" lon="123.956559"><ele>20.570522</ele><time>2024-09-23T02:56:17Z</time><name>744</name><sym>Flag, Blue</sym></wpt><wpt lat="10.346525" lon="123.956547"><ele>21.004772</ele><time>2024-09-23T02:56:26Z</time><name>745</name><sym>Flag, Blue</sym></wpt><wpt lat="10.346528" lon="123.956536"><ele>21.647549</ele><time>2024-09-23T02:56:36Z</time><name>746</name><sym>Flag, Blue</sym></wpt><wpt lat="10.346543" lon="123.956527"><ele>21.337963</ele><time>2024-09-23T02:56:47Z</time><name>747</name><sym>Flag, Blue</sym></wpt><wpt lat="10.346571" lon="123.956513"><ele>21.423786</ele><time>2024-09-23T02:56:57Z</time><name>748</name><sym>Flag, Blue</sym></wpt><wpt lat="10.346604" lon="123.956495"><ele>21.341961</ele><time>2024-09-23T02:57:10Z</time><name>749</name><sym>Flag, Blue</sym></wpt><wpt lat="10.346632" lon="123.956465"><ele>20.522152</ele><time>2024-09-23T02:57:21Z</time><name>750</name><sym>Flag, Blue</sym></wpt><wpt lat="10.346794" lon="123.956316"><ele>19.151588</ele><time>2024-09-23T02:58:02Z</time><name>751</name><sym>Flag, Blue</sym></wpt><wpt lat="10.346988" lon="123.956108"><ele>18.866627</ele><time>2024-09-23T02:58:58Z</time><name>752</name><sym>Flag, Blue</sym></wpt><wpt lat="10.346995" lon="123.956110"><ele>19.110683</ele><time>2024-09-23T02:59:06Z</time><name>753</name><sym>Flag, Blue</sym></wpt><wpt lat="10.347196" lon="123.956004"><ele>15.818115</ele><time>2024-09-23T02:59:46Z</time><name>754</name><sym>Flag, Blue</sym></wpt><wpt lat="10.347059" lon="123.955293"><ele>14.196663</ele><time>2024-09-23T03:01:59Z</time><name>755</name><sym>Flag, Blue</sym></wpt><wpt lat="10.346840" lon="123.955022"><ele>10.412281</ele><time>2024-09-23T03:02:47Z</time><name>756</name><sym>Flag, Blue</sym></wpt><wpt lat="10.346808" lon="123.954977"><ele>9.522083</ele><time>2024-09-23T03:03:04Z</time><name>757</name><sym>Flag, Blue</sym></wpt><wpt lat="10.346803" lon="123.954885"><ele>13.467472</ele><time>2024-09-23T03:03:32Z</time><name>758</name><sym>Flag, Blue</sym></wpt><wpt lat="10.346713" lon="123.954821"><ele>16.630733</ele><time>2024-09-23T03:04:24Z</time><name>759</name><sym>Flag, Blue</sym></wpt><wpt lat="10.346738" lon="123.954750"><ele>12.688828</ele><time>2024-09-23T03:04:46Z</time><name>760</name><sym>Flag, Blue</sym></wpt><wpt lat="10.346782" lon="123.954715"><ele>12.783058</ele><time>2024-09-23T03:04:57Z</time><name>761</name><sym>Flag, Blue</sym></wpt><wpt lat="10.346588" lon="123.954595"><ele>21.521652</ele><time>2024-09-23T03:05:28Z</time><name>762</name><sym>Flag, Blue</sym></wpt><wpt lat="10.346587" lon="123.954575"><ele>25.072823</ele><time>2024-09-23T03:05:41Z</time><name>763</name><sym>Flag, Blue</sym></wpt><wpt lat="10.346589" lon="123.954535"><ele>29.224201</ele><time>2024-09-23T03:05:53Z</time><name>764</name><sym>Flag, Blue</sym></wpt><wpt lat="10.346449" lon="123.954253"><ele>33.486080</ele><time>2024-09-23T03:06:33Z</time><name>765</name><sym>Flag, Blue</sym></wpt><wpt lat="10.346299" lon="123.954184"><ele>23.380684</ele><time>2024-09-23T03:07:14Z</time><name>766</name><sym>Flag, Blue</sym></wpt><wpt lat="10.346285" lon="123.954171"><ele>22.465767</ele><time>2024-09-23T03:07:25Z</time><name>767</name><sym>Flag, Blue</sym></wpt><wpt lat="10.346250" lon="123.954031"><ele>23.459549</ele><time>2024-09-23T03:08:16Z</time><name>768</name><sym>Flag, Blue</sym></wpt><wpt lat="10.346110" lon="123.953779"><ele>19.858459</ele><time>2024-09-23T03:09:03Z</time><name>769</name><sym>Flag, Blue</sym></wpt><wpt lat="10.345813" lon="123.953332"><ele>11.993153</ele><time>2024-09-23T03:10:08Z</time><name>770</name><sym>Flag, Blue</sym></wpt><wpt lat="10.345764" lon="123.953315"><ele>17.504406</ele><time>2024-09-23T03:10:23Z</time><name>771</name><sym>Flag, Blue</sym></wpt><wpt lat="10.345736" lon="123.953272"><ele>17.470081</ele><time>2024-09-23T03:10:35Z</time><name>772</name><sym>Flag, Blue</sym></wpt><wpt lat="10.345703" lon="123.953218"><ele>16.855343</ele><time>2024-09-23T03:10:54Z</time><name>773</name><sym>Flag, Blue</sym></wpt><wpt lat="10.345675" lon="123.953269"><ele>16.233639</ele><time>2024-09-23T03:11:17Z</time><name>774</name><sym>Flag, Blue</sym></wpt><wpt lat="10.345664" lon="123.953269"><ele>15.908436</ele><time>2024-09-23T03:11:28Z</time><name>775</name><sym>Flag, Blue</sym></wpt><wpt lat="10.345642" lon="123.953263"><ele>15.804638</ele><time>2024-09-23T03:11:39Z</time><name>776</name><sym>Flag, Blue</sym></wpt><wpt lat="10.345640" lon="123.953211"><ele>17.415920</ele><time>2024-09-23T03:11:53Z</time><name>777</name><sym>Flag, Blue</sym></wpt><wpt lat="10.345621" lon="123.953195"><ele>19.204266</ele><time>2024-09-23T03:12:02Z</time><name>778</name><sym>Flag, Blue</sym></wpt><wpt lat="10.345512" lon="123.953068"><ele>21.491627</ele><time>2024-09-23T03:12:22Z</time><name>779</name><sym>Flag, Blue</sym></wpt><wpt lat="10.345503" lon="123.953056"><ele>24.195194</ele><time>2024-09-23T03:12:38Z</time><name>780</name><sym>Flag, Blue</sym></wpt><wpt lat="10.345505" lon="123.953009"><ele>29.424923</ele><time>2024-09-23T03:12:51Z</time><name>781</name><sym>Flag, Blue</sym></wpt><wpt lat="10.345489" lon="123.952964"><ele>33.682095</ele><time>2024-09-23T03:13:03Z</time><name>782</name><sym>Flag, Blue</sym></wpt><wpt lat="10.345469" lon="123.952938"><ele>32.689808</ele><time>2024-09-23T03:13:13Z</time><name>783</name><sym>Flag, Blue</sym></wpt><wpt lat="10.345443" lon="123.952907"><ele>31.312534</ele><time>2024-09-23T03:13:22Z</time><name>784</name><sym>Flag, Blue</sym></wpt><wpt lat="10.345234" lon="123.952691"><ele>29.059643</ele><time>2024-09-23T03:13:57Z</time><name>785</name><sym>Flag, Blue</sym></wpt><wpt lat="10.345101" lon="123.952615"><ele>27.242596</ele><time>2024-09-23T03:14:28Z</time><name>786</name><sym>Flag, Blue</sym></wpt><wpt lat="10.345117" lon="123.952520"><ele>25.225010</ele><time>2024-09-23T03:14:52Z</time><name>787</name><sym>Flag, Blue</sym></wpt><wpt lat="10.344915" lon="123.952581"><ele>23.441128</ele><time>2024-09-23T03:15:38Z</time><name>788</name><sym>Flag, Blue</sym></wpt><wpt lat="10.344887" lon="123.952540"><ele>22.660069</ele><time>2024-09-23T03:15:51Z</time><name>789</name><sym>Flag, Blue</sym></wpt><wpt lat="10.344817" lon="123.952520"><ele>21.211475</ele><time>2024-09-23T03:16:12Z</time><name>790</name><sym>Flag, Blue</sym></wpt><wpt lat="10.344784" lon="123.952513"><ele>20.658627</ele><time>2024-09-23T03:16:24Z</time><name>791</name><sym>Flag, Blue</sym></wpt><wpt lat="10.344756" lon="123.952521"><ele>22.105907</ele><time>2024-09-23T03:16:40Z</time><name>792</name><sym>Flag, Blue</sym></wpt><wpt lat="10.344533" lon="123.952108"><ele>17.479725</ele><time>2024-09-23T03:29:34Z</time><name>793</name><sym>Flag, Blue</sym></wpt><wpt lat="10.344358" lon="123.951829"><ele>25.142612</ele><time>2024-09-23T04:55:25Z</time><name>794</name><sym>Flag, Blue</sym></wpt><wpt lat="10.344319" lon="123.951737"><ele>27.634846</ele><time>2024-09-23T04:56:05Z</time><name>795</name><sym>Flag, Blue</sym></wpt><wpt lat="10.343903" lon="123.951132"><ele>27.332901</ele><time>2024-09-23T04:57:40Z</time><name>796</name><sym>Flag, Blue</sym></wpt><wpt lat="10.343904" lon="123.951076"><ele>25.069740</ele><time>2024-09-23T04:58:08Z</time><name>797</name><sym>Flag, Blue</sym></wpt><wpt lat="10.343891" lon="123.951067"><ele>24.294662</ele><time>2024-09-23T04:58:18Z</time><name>798</name><sym>Flag, Blue</sym></wpt><wpt lat="10.343720" lon="123.950858"><ele>30.360271</ele><time>2024-09-23T05:00:04Z</time><name>799</name><sym>Flag, Blue</sym></wpt><wpt lat="10.343678" lon="123.950835"><ele>28.840992</ele><time>2024-09-23T05:00:25Z</time><name>800</name><sym>Flag, Blue</sym></wpt><wpt lat="10.343572" lon="123.950293"><ele>24.418083</ele><time>2024-09-23T05:02:20Z</time><name>801</name><sym>Flag, Blue</sym></wpt><wpt lat="10.343325" lon="123.949991"><ele>23.421547</ele><time>2024-09-23T05:03:12Z</time><name>802</name><sym>Flag, Blue</sym></wpt><wpt lat="10.343183" lon="123.949782"><ele>20.984528</ele><time>2024-09-23T05:04:08Z</time><name>803</name><sym>Flag, Blue</sym></wpt><wpt lat="10.343151" lon="123.949695"><ele>22.314384</ele><time>2024-09-23T05:04:24Z</time><name>804</name><sym>Flag, Blue</sym></wpt><wpt lat="10.343169" lon="123.949636"><ele>22.198074</ele><time>2024-09-23T05:04:36Z</time><name>805</name><sym>Flag, Blue</sym></wpt><wpt lat="10.343188" lon="123.949615"><ele>22.535446</ele><time>2024-09-23T05:04:45Z</time><name>806</name><sym>Flag, Blue</sym></wpt><wpt lat="10.343263" lon="123.949456"><ele>26.347664</ele><time>2024-09-23T05:05:10Z</time><name>807</name><sym>Flag, Blue</sym></wpt><wpt lat="10.343275" lon="123.949414"><ele>28.617287</ele><time>2024-09-23T05:05:29Z</time><name>808</name><sym>Flag, Blue</sym></wpt><wpt lat="10.343245" lon="123.949376"><ele>29.729851</ele><time>2024-09-23T05:05:44Z</time><name>809</name><sym>Flag, Blue</sym></wpt><wpt lat="10.343330" lon="123.948436"><ele>22.709454</ele><time>2024-09-23T05:07:54Z</time><name>810</name><sym>Flag, Blue</sym></wpt><wpt lat="10.343322" lon="123.948365"><ele>24.308937</ele><time>2024-09-23T05:08:39Z</time><name>811</name><sym>Flag, Blue</sym></wpt><wpt lat="10.343328" lon="123.948294"><ele>29.332150</ele><time>2024-09-23T05:09:02Z</time><name>812</name><sym>Flag, Blue</sym></wpt><wpt lat="10.343336" lon="123.948298"><ele>30.436253</ele><time>2024-09-23T05:09:09Z</time><name>813</name><sym>Flag, Blue</sym></wpt><wpt lat="10.343381" lon="123.948312"><ele>31.733990</ele><time>2024-09-23T05:09:17Z</time><name>814</name><sym>Flag, Blue</sym></wpt><wpt lat="10.343431" lon="123.948262"><ele>32.552662</ele><time>2024-09-23T05:09:31Z</time><name>815</name><sym>Flag, Blue</sym></wpt><wpt lat="10.343448" lon="123.948237"><ele>31.613361</ele><time>2024-09-23T05:09:41Z</time><name>816</name><sym>Flag, Blue</sym></wpt></gpx>