<?xml version="1.0" encoding="UTF-8" standalone="no" ?><gpx xmlns="http://www.topografix.com/GPX/1/1" xmlns:gpxx="http://www.garmin.com/xmlschemas/GpxExtensions/v3" xmlns:wptx1="http://www.garmin.com/xmlschemas/WaypointExtension/v1" xmlns:gpxtpx="http://www.garmin.com/xmlschemas/TrackPointExtension/v1" creator="eTrex 22x" version="1.1" xmlns:xsi="http://www.w3.org/2001/XMLSchema-instance" xsi:schemaLocation="http://www.topografix.com/GPX/1/1 http://www.topografix.com/GPX/1/1/gpx.xsd http://www.garmin.com/xmlschemas/GpxExtensions/v3 http://www8.garmin.com/xmlschemas/GpxExtensionsv3.xsd http://www.garmin.com/xmlschemas/TrackStatsExtension/v1 http://www8.garmin.com/xmlschemas/TrackStatsExtension.xsd http://www.garmin.com/xmlschemas/WaypointExtension/v1 http://www8.garmin.com/xmlschemas/WaypointExtensionv1.xsd http://www.garmin.com/xmlschemas/TrackPointExtension/v1 http://www.garmin.com/xmlschemas/TrackPointExtensionv1.xsd"><metadata><link href="http://www.garmin.com"><text>Garmin International</text></link><time>2024-08-21T01:33:12Z</time></metadata><wpt lat="10.354484" lon="123.949961"><ele>29.009583</ele><time>2024-08-21T01:33:12Z</time><name>550</name><sym>Flag, Blue</sym></wpt><wpt lat="10.354614" lon="123.950015"><ele>25.823387</ele><time>2024-08-21T01:35:38Z</time><name>551</name><sym>Flag, Blue</sym></wpt><wpt lat="10.359825" lon="123.954672"><ele>17.436794</ele><time>2024-08-21T01:46:16Z</time><name>552</name><sym>Flag, Blue</sym></wpt><wpt lat="10.359720" lon="123.954743"><ele>18.431419</ele><time>2024-08-21T01:47:37Z</time><name>553</name><sym>Flag, Blue</sym></wpt><wpt lat="10.359728" lon="123.954677"><ele>16.840370</ele><time>2024-08-21T01:48:15Z</time><name>554</name><sym>Flag, Blue</sym></wpt><wpt lat="10.359741" lon="123.954626"><ele>15.347942</ele><time>2024-08-21T01:49:11Z</time><name>555</name><sym>Flag, Blue</sym></wpt><wpt lat="10.359634" lon="123.954661"><ele>16.349724</ele><time>2024-08-21T01:50:22Z</time><name>556</name><sym>Flag, Blue</sym></wpt><wpt lat="10.359562" lon="123.954617"><ele>16.231182</ele><time>2024-08-21T01:51:12Z</time><name>557</name><sym>Flag, Blue</sym></wpt><wpt lat="10.359555" lon="123.954654"><ele>17.280010</ele><time>2024-08-21T01:51:38Z</time><name>558</name><sym>Flag, Blue</sym></wpt><wpt lat="10.359885" lon="123.954829"><ele>17.708000</ele><time>2024-08-21T01:53:12Z</time><name>559</name><sym>Flag, Blue</sym></wpt><wpt lat="10.360213" lon="123.954716"><ele>20.612236</ele><time>2024-08-21T01:55:37Z</time><name>560</name><sym>Flag, Blue</sym></wpt><wpt lat="10.360457" lon="123.954727"><ele>17.265339</ele><time>2024-08-21T01:56:42Z</time><name>561</name><sym>Flag, Blue</sym></wpt><wpt lat="10.361051" lon="123.954826"><ele>17.295881</ele><time>2024-08-21T01:57:46Z</time><name>562</name><sym>Flag, Blue</sym></wpt><wpt lat="10.361060" lon="123.954790"><ele>19.615711</ele><time>2024-08-21T01:57:57Z</time><name>563</name><sym>Flag, Blue</sym></wpt><wpt lat="10.361059" lon="123.954729"><ele>20.446842</ele><time>2024-08-21T01:58:09Z</time><name>564</name><sym>Flag, Blue</sym></wpt><wpt lat="10.361058" lon="123.954632"><ele>20.123074</ele><time>2024-08-21T01:58:35Z</time><name>565</name><sym>Flag, Blue</sym></wpt><wpt lat="10.361062" lon="123.954673"><ele>17.446373</ele><time>2024-08-21T01:58:57Z</time><name>566</name><sym>Flag, Blue</sym></wpt><wpt lat="10.360195" lon="123.952596"><ele>25.088139</ele><time>2024-08-21T02:01:02Z</time><name>567</name><sym>Flag, Blue</sym></wpt><wpt lat="10.360181" lon="123.952592"><ele>25.393835</ele><time>2024-08-21T02:01:09Z</time><name>568</name><sym>Flag, Blue</sym></wpt><wpt lat="10.360124" lon="123.952287"><ele>27.419842</ele><time>2024-08-21T02:01:55Z</time><name>569</name><sym>Flag, Blue</sym></wpt><wpt lat="10.360170" lon="123.952272"><ele>26.626892</ele><time>2024-08-21T02:02:08Z</time><name>570</name><sym>Flag, Blue</sym></wpt><wpt lat="10.360176" lon="123.952274"><ele>26.661400</ele><time>2024-08-21T02:02:15Z</time><name>571</name><sym>Flag, Blue</sym></wpt><wpt lat="10.360213" lon="123.952250"><ele>26.090143</ele><time>2024-08-21T02:02:31Z</time><name>572</name><sym>Flag, Blue</sym></wpt><wpt lat="10.360235" lon="123.952232"><ele>26.427650</ele><time>2024-08-21T02:02:47Z</time><name>573</name><sym>Flag, Blue</sym></wpt><wpt lat="10.360278" lon="123.952243"><ele>30.433363</ele><time>2024-08-21T02:03:08Z</time><name>574</name><sym>Flag, Blue</sym></wpt><wpt lat="10.361365" lon="123.950908"><ele>32.395554</ele><time>2024-08-21T02:04:43Z</time><name>575</name><sym>Flag, Blue</sym></wpt><wpt lat="10.361413" lon="123.950836"><ele>34.331898</ele><time>2024-08-21T02:05:01Z</time><name>576</name><sym>Flag, Blue</sym></wpt><wpt lat="10.362360" lon="123.950016"><ele>33.207928</ele><time>2024-08-21T02:12:13Z</time><name>577</name><sym>Flag, Blue</sym></wpt><wpt lat="10.362504" lon="123.949844"><ele>35.174507</ele><time>2024-08-21T02:15:08Z</time><name>578</name><sym>Flag, Blue</sym></wpt><wpt lat="10.363242" lon="123.947548"><ele>26.955261</ele><time>2024-08-21T02:20:08Z</time><name>579</name><sym>Flag, Blue</sym></wpt><wpt lat="10.363220" lon="123.947572"><ele>27.523310</ele><time>2024-08-21T02:20:35Z</time><name>580</name><sym>Flag, Blue</sym></wpt><wpt lat="10.363246" lon="123.947568"><ele>27.856138</ele><time>2024-08-21T02:20:55Z</time><name>581</name><sym>Flag, Blue</sym></wpt><wpt lat="10.363851" lon="123.946865"><ele>23.985140</ele><time>2024-08-21T02:23:04Z</time><name>582</name><sym>Flag, Blue</sym></wpt><wpt lat="10.363914" lon="123.946791"><ele>29.018837</ele><time>2024-08-21T02:24:12Z</time><name>583</name><sym>Flag, Blue</sym></wpt><wpt lat="10.363401" lon="123.946432"><ele>16.512989</ele><time>2024-08-21T02:26:25Z</time><name>584</name><sym>Flag, Blue</sym></wpt><wpt lat="10.361897" lon="123.947853"><ele>24.513481</ele><time>2024-08-21T02:32:00Z</time><name>585</name><sym>Flag, Blue</sym></wpt><wpt lat="10.361907" lon="123.947856"><ele>24.621223</ele><time>2024-08-21T02:32:11Z</time><name>586</name><sym>Flag, Blue</sym></wpt><wpt lat="10.361959" lon="123.947948"><ele>24.378708</ele><time>2024-08-21T02:32:46Z</time><name>587</name><sym>Flag, Blue</sym></wpt><wpt lat="10.361959" lon="123.947944"><ele>24.756340</ele><time>2024-08-21T02:32:55Z</time><name>588</name><sym>Flag, Blue</sym></wpt><wpt lat="10.362153" lon="123.948119"><ele>27.373257</ele><time>2024-08-21T02:33:44Z</time><name>589</name><sym>Flag, Blue</sym></wpt><wpt lat="10.362183" lon="123.948179"><ele>26.582783</ele><time>2024-08-21T02:34:10Z</time><name>590</name><sym>Flag, Blue</sym></wpt><wpt lat="10.362183" lon="123.948176"><ele>27.983761</ele><time>2024-08-21T02:34:21Z</time><name>591</name><sym>Flag, Blue</sym></wpt><wpt lat="10.362201" lon="123.948185"><ele>28.776051</ele><time>2024-08-21T02:34:34Z</time><name>592</name><sym>Flag, Blue</sym></wpt><wpt lat="10.362196" lon="123.948193"><ele>29.403194</ele><time>2024-08-21T02:34:44Z</time><name>593</name><sym>Flag, Blue</sym></wpt><wpt lat="10.359050" lon="123.949629"><time>2024-08-21T02:48:10Z</time><name>594</name><sym>Flag, Blue</sym></wpt><wpt lat="10.355298" lon="123.950146"><ele>23.711044</ele><time>2024-08-21T02:56:08Z</time><name>595</name><sym>Flag, Blue</sym></wpt><wpt lat="10.355329" lon="123.950111"><ele>23.621727</ele><time>2024-08-21T02:56:16Z</time><name>596</name><sym>Flag, Blue</sym></wpt><wpt lat="10.355301" lon="123.950203"><ele>23.455101</ele><time>2024-08-21T02:56:45Z</time><name>597</name><sym>Flag, Blue</sym></wpt><wpt lat="10.355281" lon="123.950279"><ele>24.426067</ele><time>2024-08-21T02:56:58Z</time><name>598</name><sym>Flag, Blue</sym></wpt><wpt lat="10.355285" lon="123.950295"><ele>25.881882</ele><time>2024-08-21T02:57:08Z</time><name>599</name><sym>Flag, Blue</sym></wpt><wpt lat="10.355281" lon="123.950351"><ele>26.460342</ele><time>2024-08-21T02:57:32Z</time><name>600</name><sym>Flag, Blue</sym></wpt><wpt lat="10.355221" lon="123.950351"><ele>24.380009</ele><time>2024-08-21T02:57:50Z</time><name>601</name><sym>Flag, Blue</sym></wpt><wpt lat="10.355237" lon="123.950322"><ele>26.471710</ele><time>2024-08-21T02:58:03Z</time><name>602</name><sym>Flag, Blue</sym></wpt><wpt lat="10.355249" lon="123.950255"><ele>25.891403</ele><time>2024-08-21T02:58:17Z</time><name>603</name><sym>Flag, Blue</sym></wpt><wpt lat="10.355280" lon="123.950189"><ele>25.980507</ele><time>2024-08-21T02:58:32Z</time><name>604</name><sym>Flag, Blue</sym></wpt><wpt lat="10.355290" lon="123.950136"><ele>25.721504</ele><time>2024-08-21T02:58:44Z</time><name>605</name><sym>Flag, Blue</sym></wpt><wpt lat="10.355289" lon="123.950420"><ele>20.096783</ele><time>2024-08-21T02:59:38Z</time><name>606</name><sym>Flag, Blue</sym></wpt><wpt lat="10.355310" lon="123.950431"><ele>19.774624</ele><time>2024-08-21T02:59:51Z</time><name>607</name><sym>Flag, Blue</sym></wpt><wpt lat="10.355331" lon="123.950445"><ele>20.009453</ele><time>2024-08-21T03:00:03Z</time><name>608</name><sym>Flag, Blue</sym></wpt><wpt lat="10.355378" lon="123.950500"><ele>22.075226</ele><time>2024-08-21T03:00:24Z</time><name>609</name><sym>Flag, Blue</sym></wpt><wpt lat="10.355418" lon="123.950530"><ele>23.815048</ele><time>2024-08-21T03:00:35Z</time><name>610</name><sym>Flag, Blue</sym></wpt><wpt lat="10.355487" lon="123.950569"><ele>28.150108</ele><time>2024-08-21T03:00:53Z</time><name>611</name><sym>Flag, Blue</sym></wpt><wpt lat="10.355566" lon="123.950552"><ele>24.538300</ele><time>2024-08-21T03:01:34Z</time><name>612</name><sym>Flag, Blue</sym></wpt><wpt lat="10.355580" lon="123.950569"><ele>23.749657</ele><time>2024-08-21T03:01:52Z</time><name>613</name><sym>Flag, Blue</sym></wpt><wpt lat="10.355580" lon="123.950568"><ele>23.832237</ele><time>2024-08-21T03:01:58Z</time><name>614</name><sym>Flag, Blue</sym></wpt><wpt lat="10.355592" lon="123.950580"><ele>23.605425</ele><time>2024-08-21T03:02:22Z</time><name>615</name><sym>Flag, Blue</sym></wpt><wpt lat="10.355603" lon="123.950595"><ele>23.703262</ele><time>2024-08-21T03:02:37Z</time><name>616</name><sym>Flag, Blue</sym></wpt><wpt lat="10.355602" lon="123.950600"><ele>24.610138</ele><time>2024-08-21T03:02:47Z</time><name>617</name><sym>Flag, Blue</sym></wpt><wpt lat="10.355652" lon="123.950601"><ele>22.733780</ele><time>2024-08-21T03:03:09Z</time><name>618</name><sym>Flag, Blue</sym></wpt><wpt lat="10.355655" lon="123.950616"><ele>22.771751</ele><time>2024-08-21T03:03:15Z</time><name>619</name><sym>Flag, Blue</sym></wpt><wpt lat="10.355683" lon="123.950630"><ele>25.365570</ele><time>2024-08-21T03:03:26Z</time><name>620</name><sym>Flag, Blue</sym></wpt><wpt lat="10.355689" lon="123.950632"><ele>25.947945</ele><time>2024-08-21T03:03:35Z</time><name>621</name><sym>Flag, Blue</sym></wpt><wpt lat="10.355704" lon="123.950630"><ele>25.875511</ele><time>2024-08-21T03:03:45Z</time><name>622</name><sym>Flag, Blue</sym></wpt><wpt lat="10.355715" lon="123.950627"><ele>26.657784</ele><time>2024-08-21T03:03:50Z</time><name>623</name><sym>Flag, Blue</sym></wpt><wpt lat="10.355717" lon="123.950626"><ele>27.223003</ele><time>2024-08-21T03:03:56Z</time><name>624</name><sym>Flag, Blue</sym></wpt><wpt lat="10.355761" lon="123.950679"><ele>29.219181</ele><time>2024-08-21T03:04:38Z</time><name>625</name><sym>Flag, Blue</sym></wpt><wpt lat="10.355754" lon="123.950671"><ele>31.050770</ele><time>2024-08-21T03:04:45Z</time><name>626</name><sym>Flag, Blue</sym></wpt><wpt lat="10.355748" lon="123.950665"><ele>32.250698</ele><time>2024-08-21T03:04:50Z</time><name>627</name><sym>Flag, Blue</sym></wpt><wpt lat="10.355769" lon="123.950659"><ele>32.810143</ele><time>2024-08-21T03:05:07Z</time><name>628</name><sym>Flag, Blue</sym></wpt><wpt lat="10.355788" lon="123.950661"><ele>31.369164</ele><time>2024-08-21T03:05:17Z</time><name>629</name><sym>Flag, Blue</sym></wpt><wpt lat="10.355808" lon="123.950654"><ele>31.214157</ele><time>2024-08-21T03:05:25Z</time><name>630</name><sym>Flag, Blue</sym></wpt><wpt lat="10.355763" lon="123.950759"><ele>28.751005</ele><time>2024-08-21T03:05:48Z</time><name>631</name><sym>Flag, Blue</sym></wpt><wpt lat="10.355751" lon="123.950825"><ele>28.025150</ele><time>2024-08-21T03:06:03Z</time><name>632</name><sym>Flag, Blue</sym></wpt><wpt lat="10.355741" lon="123.950815"><ele>28.195042</ele><time>2024-08-21T03:06:14Z</time><name>633</name><sym>Flag, Blue</sym></wpt><wpt lat="10.355736" lon="123.950807"><ele>27.116543</ele><time>2024-08-21T03:06:30Z</time><name>634</name><sym>Flag, Blue</sym></wpt><wpt lat="10.355761" lon="123.950794"><ele>29.363850</ele><time>2024-08-21T03:06:51Z</time><name>635</name><sym>Flag, Blue</sym></wpt><wpt lat="10.355664" lon="123.950747"><ele>26.797337</ele><time>2024-08-21T03:07:17Z</time><name>636</name><sym>Flag, Blue</sym></wpt><wpt lat="10.355608" lon="123.950739"><ele>22.465397</ele><time>2024-08-21T03:07:30Z</time><name>637</name><sym>Flag, Blue</sym></wpt><wpt lat="10.355572" lon="123.950728"><ele>18.601780</ele><time>2024-08-21T03:07:51Z</time><name>638</name><sym>Flag, Blue</sym></wpt><wpt lat="10.355566" lon="123.950718"><ele>18.762096</ele><time>2024-08-21T03:08:00Z</time><name>639</name><sym>Flag, Blue</sym></wpt><wpt lat="10.355555" lon="123.950721"><ele>18.976864</ele><time>2024-08-21T03:08:07Z</time><name>640</name><sym>Flag, Blue</sym></wpt><wpt lat="10.355534" lon="123.950709"><ele>19.544224</ele><time>2024-08-21T03:08:17Z</time><name>641</name><sym>Flag, Blue</sym></wpt><wpt lat="10.355467" lon="123.950728"><ele>20.114811</ele><time>2024-08-21T03:08:43Z</time><name>642</name><sym>Flag, Blue</sym></wpt><wpt lat="10.355449" lon="123.950762"><ele>19.987595</ele><time>2024-08-21T03:08:59Z</time><name>643</name><sym>Flag, Blue</sym></wpt><wpt lat="10.355426" lon="123.950781"><ele>20.961975</ele><time>2024-08-21T03:09:11Z</time><name>644</name><sym>Flag, Blue</sym></wpt><wpt lat="10.355394" lon="123.950706"><ele>25.245293</ele><time>2024-08-21T03:09:51Z</time><name>645</name><sym>Flag, Blue</sym></wpt><wpt lat="10.355378" lon="123.950718"><ele>25.453926</ele><time>2024-08-21T03:10:07Z</time><name>646</name><sym>Flag, Blue</sym></wpt><wpt lat="10.355373" lon="123.950778"><ele>26.005280</ele><time>2024-08-21T03:10:34Z</time><name>647</name><sym>Flag, Blue</sym></wpt><wpt lat="10.355333" lon="123.950832"><ele>26.440880</ele><time>2024-08-21T03:10:56Z</time><name>648</name><sym>Flag, Blue</sym></wpt><wpt lat="10.355198" lon="123.950560"><ele>29.674364</ele><time>2024-08-21T03:13:51Z</time><name>649</name><sym>Flag, Blue</sym></wpt><wpt lat="10.355173" lon="123.950585"><ele>29.421303</ele><time>2024-08-21T03:13:58Z</time><name>650</name><sym>Flag, Blue</sym></wpt><wpt lat="10.355086" lon="123.950616"><ele>26.780506</ele><time>2024-08-21T03:14:56Z</time><name>651</name><sym>Flag, Blue</sym></wpt><wpt lat="10.355065" lon="123.950645"><ele>26.935680</ele><time>2024-08-21T03:15:08Z</time><name>652</name><sym>Flag, Blue</sym></wpt><wpt lat="10.355034" lon="123.950731"><ele>29.099079</ele><time>2024-08-21T03:15:22Z</time><name>653</name><sym>Flag, Blue</sym></wpt><wpt lat="10.354991" lon="123.950801"><ele>26.707279</ele><time>2024-08-21T03:15:46Z</time><name>654</name><sym>Flag, Blue</sym></wpt><wpt lat="10.355050" lon="123.950656"><ele>29.412434</ele><time>2024-08-21T03:18:16Z</time><name>655</name><sym>Flag, Blue</sym></wpt><wpt lat="10.355097" lon="123.950424"><ele>23.386837</ele><time>2024-08-21T03:18:57Z</time><name>656</name><sym>Flag, Blue</sym></wpt><wpt lat="10.355100" lon="123.950383"><ele>22.287563</ele><time>2024-08-21T03:19:15Z</time><name>657</name><sym>Flag, Blue</sym></wpt></gpx>