<?xml version="1.0" encoding="UTF-8" standalone="no" ?><gpx xmlns="http://www.topografix.com/GPX/1/1" xmlns:gpxx="http://www.garmin.com/xmlschemas/GpxExtensions/v3" xmlns:wptx1="http://www.garmin.com/xmlschemas/WaypointExtension/v1" xmlns:gpxtpx="http://www.garmin.com/xmlschemas/TrackPointExtension/v1" creator="eTrex 22x" version="1.1" xmlns:xsi="http://www.w3.org/2001/XMLSchema-instance" xsi:schemaLocation="http://www.topografix.com/GPX/1/1 http://www.topografix.com/GPX/1/1/gpx.xsd http://www.garmin.com/xmlschemas/GpxExtensions/v3 http://www8.garmin.com/xmlschemas/GpxExtensionsv3.xsd http://www.garmin.com/xmlschemas/TrackStatsExtension/v1 http://www8.garmin.com/xmlschemas/TrackStatsExtension.xsd http://www.garmin.com/xmlschemas/WaypointExtension/v1 http://www8.garmin.com/xmlschemas/WaypointExtensionv1.xsd http://www.garmin.com/xmlschemas/TrackPointExtension/v1 http://www.garmin.com/xmlschemas/TrackPointExtensionv1.xsd"><metadata><link href="http://www.garmin.com"><text>Garmin International</text></link><time>2024-07-26T01:50:36Z</time></metadata><wpt lat="10.322635" lon="123.954699"><ele>16.177979</ele><time>2024-07-26T01:50:36Z</time><name>730</name><sym>Flag, Blue</sym></wpt><wpt lat="10.322629" lon="123.954692"><ele>19.447945</ele><time>2024-07-26T01:51:01Z</time><name>731</name><sym>Flag, Blue</sym></wpt><wpt lat="10.322630" lon="123.954678"><ele>21.721481</ele><time>2024-07-26T01:51:15Z</time><name>732</name><sym>Flag, Blue</sym></wpt><wpt lat="10.322604" lon="123.954671"><ele>22.504581</ele><time>2024-07-26T01:51:26Z</time><name>733</name><sym>Flag, Blue</sym></wpt><wpt lat="10.322663" lon="123.954491"><ele>27.739187</ele><time>2024-07-26T01:52:28Z</time><name>734</name><sym>Flag, Blue</sym></wpt><wpt lat="10.322718" lon="123.954403"><ele>29.260593</ele><time>2024-07-26T01:53:16Z</time><name>735</name><sym>Flag, Blue</sym></wpt><wpt lat="10.322690" lon="123.954409"><ele>28.346874</ele><time>2024-07-26T01:53:33Z</time><name>736</name><sym>Flag, Blue</sym></wpt><wpt lat="10.322692" lon="123.954306"><ele>25.786177</ele><time>2024-07-26T01:53:55Z</time><name>737</name><sym>Flag, Blue</sym></wpt><wpt lat="10.322731" lon="123.954298"><ele>23.830023</ele><time>2024-07-26T01:54:13Z</time><name>738</name><sym>Flag, Blue</sym></wpt><wpt lat="10.322741" lon="123.954285"><ele>23.614855</ele><time>2024-07-26T01:54:23Z</time><name>739</name><sym>Flag, Blue</sym></wpt><wpt lat="10.322756" lon="123.954307"><ele>21.662415</ele><time>2024-07-26T01:54:33Z</time><name>740</name><sym>Flag, Blue</sym></wpt><wpt lat="10.322753" lon="123.954216"><ele>18.301056</ele><time>2024-07-26T01:54:59Z</time><name>741</name><sym>Flag, Blue</sym></wpt><wpt lat="10.322824" lon="123.954166"><ele>15.322092</ele><time>2024-07-26T01:55:18Z</time><name>742</name><sym>Flag, Blue</sym></wpt><wpt lat="10.322823" lon="123.954163"><ele>15.312077</ele><time>2024-07-26T01:55:32Z</time><name>743</name><sym>Flag, Blue</sym></wpt><wpt lat="10.322837" lon="123.954118"><ele>16.816242</ele><time>2024-07-26T01:55:50Z</time><name>744</name><sym>Flag, Blue</sym></wpt><wpt lat="10.322908" lon="123.954080"><ele>17.771870</ele><time>2024-07-26T01:56:14Z</time><name>745</name><sym>Flag, Blue</sym></wpt><wpt lat="10.322946" lon="123.954081"><ele>17.443008</ele><time>2024-07-26T01:56:23Z</time><name>746</name><sym>Flag, Blue</sym></wpt><wpt lat="10.322948" lon="123.953935"><ele>16.840794</ele><time>2024-07-26T01:57:08Z</time><name>747</name><sym>Flag, Blue</sym></wpt><wpt lat="10.322948" lon="123.953920"><ele>15.564125</ele><time>2024-07-26T01:57:16Z</time><name>748</name><sym>Flag, Blue</sym></wpt><wpt lat="10.322786" lon="123.953919"><ele>19.359535</ele><time>2024-07-26T01:58:46Z</time><name>749</name><sym>Flag, Blue</sym></wpt><wpt lat="10.322979" lon="123.953788"><ele>15.700840</ele><time>2024-07-26T02:01:40Z</time><name>750</name><sym>Flag, Blue</sym></wpt><wpt lat="10.323149" lon="123.952790"><ele>6.773717</ele><time>2024-07-26T02:05:09Z</time><name>751</name><sym>Flag, Blue</sym></wpt><wpt lat="10.323122" lon="123.952781"><ele>8.427229</ele><time>2024-07-26T02:05:29Z</time><name>752</name><sym>Flag, Blue</sym></wpt><wpt lat="10.323325" lon="123.952729"><ele>1.324783</ele><time>2024-07-26T02:06:53Z</time><name>753</name><sym>Flag, Blue</sym></wpt><wpt lat="10.323320" lon="123.952714"><ele>3.288471</ele><time>2024-07-26T02:07:13Z</time><name>754</name><sym>Flag, Blue</sym></wpt><wpt lat="10.323321" lon="123.952711"><ele>4.622414</ele><time>2024-07-26T02:07:27Z</time><name>755</name><sym>Flag, Blue</sym></wpt><wpt lat="10.323352" lon="123.952693"><ele>6.969299</ele><time>2024-07-26T02:07:49Z</time><name>756</name><sym>Flag, Blue</sym></wpt><wpt lat="10.323383" lon="123.952630"><ele>6.710429</ele><time>2024-07-26T02:08:07Z</time><name>757</name><sym>Flag, Blue</sym></wpt><wpt lat="10.323437" lon="123.952514"><ele>5.876374</ele><time>2024-07-26T02:08:50Z</time><name>758</name><sym>Flag, Blue</sym></wpt><wpt lat="10.323478" lon="123.952455"><ele>8.220563</ele><time>2024-07-26T02:09:05Z</time><name>759</name><sym>Flag, Blue</sym></wpt><wpt lat="10.323475" lon="123.952434"><ele>10.308212</ele><time>2024-07-26T02:09:16Z</time><name>760</name><sym>Flag, Blue</sym></wpt><wpt lat="10.323559" lon="123.952463"><ele>12.467216</ele><time>2024-07-26T02:09:46Z</time><name>761</name><sym>Flag, Blue</sym></wpt><wpt lat="10.323635" lon="123.952498"><ele>12.616997</ele><time>2024-07-26T02:10:14Z</time><name>762</name><sym>Flag, Blue</sym></wpt><wpt lat="10.323704" lon="123.952503"><ele>11.842529</ele><time>2024-07-26T02:11:15Z</time><name>763</name><sym>Flag, Blue</sym></wpt><wpt lat="10.323783" lon="123.952576"><ele>13.666099</ele><time>2024-07-26T02:12:08Z</time><name>764</name><sym>Flag, Blue</sym></wpt><wpt lat="10.323807" lon="123.952594"><ele>11.795471</ele><time>2024-07-26T02:12:28Z</time><name>765</name><sym>Flag, Blue</sym></wpt><wpt lat="10.323942" lon="123.952652"><ele>10.030621</ele><time>2024-07-26T02:12:51Z</time><name>766</name><sym>Flag, Blue</sym></wpt><wpt lat="10.324151" lon="123.952730"><ele>11.424831</ele><time>2024-07-26T02:13:35Z</time><name>767</name><sym>Flag, Blue</sym></wpt><wpt lat="10.324169" lon="123.952718"><ele>12.961462</ele><time>2024-07-26T02:13:48Z</time><name>768</name><sym>Flag, Blue</sym></wpt><wpt lat="10.324189" lon="123.952699"><ele>12.827343</ele><time>2024-07-26T02:14:17Z</time><name>769</name><sym>Flag, Blue</sym></wpt><wpt lat="10.324129" lon="123.952919"><ele>18.100288</ele><time>2024-07-26T02:15:19Z</time><name>770</name><sym>Flag, Blue</sym></wpt><wpt lat="10.324030" lon="123.952986"><ele>13.899002</ele><time>2024-07-26T02:15:58Z</time><name>771</name><sym>Flag, Blue</sym></wpt><wpt lat="10.324314" lon="123.952755"><ele>12.794285</ele><time>2024-07-26T02:23:00Z</time><name>772</name><sym>Flag, Blue</sym></wpt><wpt lat="10.324317" lon="123.952802"><ele>14.285406</ele><time>2024-07-26T02:23:29Z</time><name>773</name><sym>Flag, Blue</sym></wpt><wpt lat="10.324344" lon="123.952780"><ele>13.523449</ele><time>2024-07-26T02:24:13Z</time><name>774</name><sym>Flag, Blue</sym></wpt><wpt lat="10.324307" lon="123.952786"><ele>13.833700</ele><time>2024-07-26T02:24:37Z</time><name>775</name><sym>Flag, Blue</sym></wpt><wpt lat="10.324302" lon="123.952803"><ele>15.110703</ele><time>2024-07-26T02:24:58Z</time><name>776</name><sym>Flag, Blue</sym></wpt><wpt lat="10.324478" lon="123.952824"><ele>12.029690</ele><time>2024-07-26T02:26:17Z</time><name>777</name><sym>Flag, Blue</sym></wpt><wpt lat="10.324474" lon="123.952826"><ele>12.261662</ele><time>2024-07-26T02:26:30Z</time><name>778</name><sym>Flag, Blue</sym></wpt><wpt lat="10.324472" lon="123.952818"><ele>13.646420</ele><time>2024-07-26T02:26:38Z</time><name>779</name><sym>Flag, Blue</sym></wpt><wpt lat="10.324482" lon="123.952804"><ele>16.445827</ele><time>2024-07-26T02:27:11Z</time><name>780</name><sym>Flag, Blue</sym></wpt><wpt lat="10.324523" lon="123.952788"><ele>17.594650</ele><time>2024-07-26T02:27:38Z</time><name>781</name><sym>Flag, Blue</sym></wpt><wpt lat="10.324503" lon="123.952816"><ele>18.879036</ele><time>2024-07-26T02:27:48Z</time><name>782</name><sym>Flag, Blue</sym></wpt><wpt lat="10.324494" lon="123.952813"><ele>18.419998</ele><time>2024-07-26T02:28:06Z</time><name>783</name><sym>Flag, Blue</sym></wpt><wpt lat="10.324490" lon="123.952816"><ele>20.508812</ele><time>2024-07-26T02:28:18Z</time><name>784</name><sym>Flag, Blue</sym></wpt><wpt lat="10.324375" lon="123.952994"><ele>16.867712</ele><time>2024-07-26T02:29:31Z</time><name>785</name><sym>Flag, Blue</sym></wpt><wpt lat="10.324269" lon="123.952773"><time>2024-07-26T02:51:07Z</time><name>786</name><sym>Flag, Blue</sym></wpt><wpt lat="10.324103" lon="123.953317"><ele>27.224335</ele><time>2024-07-26T02:51:34Z</time><name>787</name><sym>Flag, Blue</sym></wpt><wpt lat="10.323996" lon="123.953346"><ele>23.376293</ele><time>2024-07-26T02:51:57Z</time><name>788</name><sym>Flag, Blue</sym></wpt><wpt lat="10.323968" lon="123.953339"><ele>22.383862</ele><time>2024-07-26T02:52:12Z</time><name>789</name><sym>Flag, Blue</sym></wpt><wpt lat="10.323958" lon="123.953318"><ele>22.701603</ele><time>2024-07-26T02:52:23Z</time><name>790</name><sym>Flag, Blue</sym></wpt><wpt lat="10.323956" lon="123.953372"><ele>21.120228</ele><time>2024-07-26T02:52:42Z</time><name>791</name><sym>Flag, Blue</sym></wpt><wpt lat="10.323897" lon="123.953381"><ele>20.084770</ele><time>2024-07-26T02:53:01Z</time><name>792</name><sym>Flag, Blue</sym></wpt><wpt lat="10.323872" lon="123.953382"><ele>21.119316</ele><time>2024-07-26T02:53:12Z</time><name>793</name><sym>Flag, Blue</sym></wpt><wpt lat="10.323865" lon="123.953385"><ele>22.661102</ele><time>2024-07-26T02:53:19Z</time><name>794</name><sym>Flag, Blue</sym></wpt><wpt lat="10.323708" lon="123.953486"><ele>27.502361</ele><time>2024-07-26T02:53:56Z</time><name>795</name><sym>Flag, Blue</sym></wpt><wpt lat="10.323683" lon="123.953446"><ele>28.922543</ele><time>2024-07-26T02:54:29Z</time><name>796</name><sym>Flag, Blue</sym></wpt><wpt lat="10.323506" lon="123.953524"><ele>26.565681</ele><time>2024-07-26T02:55:04Z</time><name>797</name><sym>Flag, Blue</sym></wpt><wpt lat="10.323470" lon="123.953556"><ele>26.157726</ele><time>2024-07-26T02:55:14Z</time><name>798</name><sym>Flag, Blue</sym></wpt><wpt lat="10.323332" lon="123.953603"><ele>29.062162</ele><time>2024-07-26T02:55:35Z</time><name>799</name><sym>Flag, Blue</sym></wpt><wpt lat="10.323125" lon="123.953840"><ele>26.525253</ele><time>2024-07-26T02:56:32Z</time><name>800</name><sym>Flag, Blue</sym></wpt><wpt lat="10.323068" lon="123.953868"><ele>26.786011</ele><time>2024-07-26T02:56:54Z</time><name>801</name><sym>Flag, Blue</sym></wpt><wpt lat="10.326732" lon="123.952049"><ele>21.304703</ele><time>2024-07-26T05:53:54Z</time><name>802</name><sym>Flag, Blue</sym></wpt><wpt lat="10.326724" lon="123.952076"><ele>21.933540</ele><time>2024-07-26T05:55:16Z</time><name>803</name><sym>Flag, Blue</sym></wpt><wpt lat="10.326716" lon="123.952091"><ele>23.778873</ele><time>2024-07-26T05:56:02Z</time><name>804</name><sym>Flag, Blue</sym></wpt><wpt lat="10.326710" lon="123.952087"><ele>22.173740</ele><time>2024-07-26T05:56:26Z</time><name>805</name><sym>Flag, Blue</sym></wpt><wpt lat="10.326631" lon="123.952116"><ele>25.240646</ele><time>2024-07-26T05:57:25Z</time><name>806</name><sym>Flag, Blue</sym></wpt><wpt lat="10.326550" lon="123.952105"><ele>32.654331</ele><time>2024-07-26T05:59:00Z</time><name>807</name><sym>Flag, Blue</sym></wpt><wpt lat="10.326541" lon="123.952107"><ele>32.626186</ele><time>2024-07-26T05:59:16Z</time><name>808</name><sym>Flag, Blue</sym></wpt><wpt lat="10.326537" lon="123.952112"><ele>33.083416</ele><time>2024-07-26T05:59:24Z</time><name>809</name><sym>Flag, Blue</sym></wpt><wpt lat="10.326444" lon="123.952148"><ele>33.870003</ele><time>2024-07-26T05:59:48Z</time><name>810</name><sym>Flag, Blue</sym></wpt><wpt lat="10.326397" lon="123.952174"><ele>31.202042</ele><time>2024-07-26T06:00:16Z</time><name>811</name><sym>Flag, Blue</sym></wpt><wpt lat="10.326303" lon="123.952253"><ele>34.934494</ele><time>2024-07-26T06:00:43Z</time><name>812</name><sym>Flag, Blue</sym></wpt><wpt lat="10.326325" lon="123.952340"><ele>33.813843</ele><time>2024-07-26T06:01:20Z</time><name>813</name><sym>Flag, Blue</sym></wpt><wpt lat="10.326189" lon="123.952355"><ele>34.593769</ele><time>2024-07-26T06:01:56Z</time><name>814</name><sym>Flag, Blue</sym></wpt><wpt lat="10.326061" lon="123.952304"><ele>38.862736</ele><time>2024-07-26T06:02:27Z</time><name>815</name><sym>Flag, Blue</sym></wpt><wpt lat="10.325994" lon="123.952359"><ele>30.775475</ele><time>2024-07-26T06:02:46Z</time><name>816</name><sym>Flag, Blue</sym></wpt><wpt lat="10.325979" lon="123.952508"><ele>26.702560</ele><time>2024-07-26T06:03:10Z</time><name>817</name><sym>Flag, Blue</sym></wpt><wpt lat="10.325944" lon="123.952515"><ele>25.021301</ele><time>2024-07-26T06:03:33Z</time><name>818</name><sym>Flag, Blue</sym></wpt><wpt lat="10.325909" lon="123.952545"><ele>23.592236</ele><time>2024-07-26T06:03:57Z</time><name>819</name><sym>Flag, Blue</sym></wpt><wpt lat="10.325392" lon="123.952948"><ele>24.498230</ele><time>2024-07-26T06:05:43Z</time><name>820</name><sym>Flag, Blue</sym></wpt><wpt lat="10.325386" lon="123.952989"><ele>24.762009</ele><time>2024-07-26T06:06:20Z</time><name>821</name><sym>Flag, Blue</sym></wpt><wpt lat="10.325363" lon="123.952843"><ele>21.291805</ele><time>2024-07-26T06:07:01Z</time><name>822</name><sym>Flag, Blue</sym></wpt><wpt lat="10.325326" lon="123.952842"><ele>20.953518</ele><time>2024-07-26T06:07:34Z</time><name>823</name><sym>Flag, Blue</sym></wpt><wpt lat="10.325294" lon="123.952849"><ele>22.012211</ele><time>2024-07-26T06:07:50Z</time><name>824</name><sym>Flag, Blue</sym></wpt><wpt lat="10.325205" lon="123.952848"><ele>24.860790</ele><time>2024-07-26T06:08:23Z</time><name>825</name><sym>Flag, Blue</sym></wpt><wpt lat="10.325163" lon="123.952834"><ele>27.564575</ele><time>2024-07-26T06:08:49Z</time><name>826</name><sym>Flag, Blue</sym></wpt><wpt lat="10.324982" lon="123.952950"><ele>27.063469</ele><time>2024-07-26T06:09:30Z</time><name>827</name><sym>Flag, Blue</sym></wpt><wpt lat="10.324926" lon="123.953017"><ele>23.836273</ele><time>2024-07-26T06:09:50Z</time><name>828</name><sym>Flag, Blue</sym></wpt><wpt lat="10.324869" lon="123.953024"><ele>25.208069</ele><time>2024-07-26T06:10:15Z</time><name>829</name><sym>Flag, Blue</sym></wpt><wpt lat="10.324766" lon="123.953073"><ele>24.776756</ele><time>2024-07-26T06:10:55Z</time><name>830</name><sym>Flag, Blue</sym></wpt><wpt lat="10.324711" lon="123.953088"><ele>23.606308</ele><time>2024-07-26T06:11:16Z</time><name>831</name><sym>Flag, Blue</sym></wpt><wpt lat="10.324518" lon="123.953336"><ele>23.504932</ele><time>2024-07-26T06:12:21Z</time><name>832</name><sym>Flag, Blue</sym></wpt><wpt lat="10.324549" lon="123.953369"><ele>26.870747</ele><time>2024-07-26T06:12:44Z</time><name>833</name><sym>Flag, Blue</sym></wpt><wpt lat="10.324649" lon="123.953589"><ele>24.552280</ele><time>2024-07-26T06:13:24Z</time><name>834</name><sym>Flag, Blue</sym></wpt><wpt lat="10.324727" lon="123.953640"><ele>30.142029</ele><time>2024-07-26T06:14:22Z</time><name>835</name><sym>Flag, Blue</sym></wpt><wpt lat="10.325194" lon="123.954227"><ele>23.912212</ele><time>2024-07-26T06:16:56Z</time><name>836</name><sym>Flag, Blue</sym></wpt><wpt lat="10.325296" lon="123.954383"><ele>26.768307</ele><time>2024-07-26T06:17:46Z</time><name>837</name><sym>Flag, Blue</sym></wpt><wpt lat="10.325217" lon="123.954253"><ele>32.417797</ele><time>2024-07-26T06:18:22Z</time><name>838</name><sym>Flag, Blue</sym></wpt><wpt lat="10.325202" lon="123.954224"><ele>35.674877</ele><time>2024-07-26T06:18:49Z</time><name>839</name><sym>Flag, Blue</sym></wpt><wpt lat="10.324296" lon="123.953357"><ele>24.606728</ele><time>2024-07-26T06:25:54Z</time><name>840</name><sym>Flag, Blue</sym></wpt><wpt lat="10.324205" lon="123.953453"><ele>26.367966</ele><time>2024-07-26T06:27:23Z</time><name>841</name><sym>Flag, Blue</sym></wpt><wpt lat="10.324196" lon="123.953484"><ele>25.527016</ele><time>2024-07-26T06:28:55Z</time><name>842</name><sym>Flag, Blue</sym></wpt><wpt lat="10.324113" lon="123.953477"><ele>27.024334</ele><time>2024-07-26T06:29:49Z</time><name>843</name><sym>Flag, Blue</sym></wpt><wpt lat="10.324100" lon="123.953480"><ele>26.142384</ele><time>2024-07-26T06:30:08Z</time><name>844</name><sym>Flag, Blue</sym></wpt><wpt lat="10.324018" lon="123.953526"><ele>23.593945</ele><time>2024-07-26T06:30:40Z</time><name>845</name><sym>Flag, Blue</sym></wpt><wpt lat="10.324014" lon="123.953523"><ele>23.834366</ele><time>2024-07-26T06:30:51Z</time><name>846</name><sym>Flag, Blue</sym></wpt><wpt lat="10.324003" lon="123.953540"><ele>22.338173</ele><time>2024-07-26T06:31:08Z</time><name>847</name><sym>Flag, Blue</sym></wpt><wpt lat="10.323888" lon="123.953611"><ele>20.869263</ele><time>2024-07-26T06:31:40Z</time><name>848</name><sym>Flag, Blue</sym></wpt><wpt lat="10.323884" lon="123.953619"><ele>20.763039</ele><time>2024-07-26T06:31:53Z</time><name>849</name><sym>Flag, Blue</sym></wpt><wpt lat="10.323870" lon="123.953616"><ele>19.818024</ele><time>2024-07-26T06:32:05Z</time><name>850</name><sym>Flag, Blue</sym></wpt><wpt lat="10.323862" lon="123.953621"><ele>18.988380</ele><time>2024-07-26T06:32:18Z</time><name>851</name><sym>Flag, Blue</sym></wpt><wpt lat="10.323858" lon="123.953629"><ele>18.947464</ele><time>2024-07-26T06:32:28Z</time><name>852</name><sym>Flag, Blue</sym></wpt><wpt lat="10.323846" lon="123.953636"><ele>19.031979</ele><time>2024-07-26T06:32:47Z</time><name>853</name><sym>Flag, Blue</sym></wpt><wpt lat="10.323817" lon="123.953651"><ele>19.124830</ele><time>2024-07-26T06:33:05Z</time><name>854</name><sym>Flag, Blue</sym></wpt><wpt lat="10.323794" lon="123.953662"><ele>17.810429</ele><time>2024-07-26T06:33:24Z</time><name>855</name><sym>Flag, Blue</sym></wpt><wpt lat="10.323775" lon="123.953687"><ele>19.115665</ele><time>2024-07-26T06:34:00Z</time><name>856</name><sym>Flag, Blue</sym></wpt><wpt lat="10.323776" lon="123.953692"><ele>17.453152</ele><time>2024-07-26T06:34:11Z</time><name>857</name><sym>Flag, Blue</sym></wpt><wpt lat="10.323770" lon="123.953719"><ele>21.475208</ele><time>2024-07-26T06:34:35Z</time><name>858</name><sym>Flag, Blue</sym></wpt><wpt lat="10.323708" lon="123.953728"><ele>23.174408</ele><time>2024-07-26T06:35:07Z</time><name>859</name><sym>Flag, Blue</sym></wpt><wpt lat="10.323715" lon="123.953739"><ele>23.182465</ele><time>2024-07-26T06:35:24Z</time><name>860</name><sym>Flag, Blue</sym></wpt><wpt lat="10.323590" lon="123.953794"><ele>22.520287</ele><time>2024-07-26T06:35:49Z</time><name>861</name><sym>Flag, Blue</sym></wpt><wpt lat="10.323376" lon="123.953932"><ele>18.265083</ele><time>2024-07-26T06:36:41Z</time><name>862</name><sym>Flag, Blue</sym></wpt><wpt lat="10.323376" lon="123.953927"><ele>16.726498</ele><time>2024-07-26T06:36:54Z</time><name>863</name><sym>Flag, Blue</sym></wpt><wpt lat="10.323356" lon="123.953926"><ele>18.332180</ele><time>2024-07-26T06:37:23Z</time><name>864</name><sym>Flag, Blue</sym></wpt><wpt lat="10.323366" lon="123.953909"><ele>19.321529</ele><time>2024-07-26T06:37:43Z</time><name>865</name><sym>Flag, Blue</sym></wpt><wpt lat="10.323357" lon="123.953916"><ele>18.969818</ele><time>2024-07-26T06:38:05Z</time><name>866</name><sym>Flag, Blue</sym></wpt><wpt lat="10.323316" lon="123.953901"><ele>22.863731</ele><time>2024-07-26T06:38:37Z</time><name>867</name><sym>Flag, Blue</sym></wpt><wpt lat="10.323310" lon="123.953901"><ele>28.875587</ele><time>2024-07-26T06:39:02Z</time><name>868</name><sym>Flag, Blue</sym></wpt><wpt lat="10.323361" lon="123.953894"><ele>24.217072</ele><time>2024-07-26T06:39:42Z</time><name>869</name><sym>Flag, Blue</sym></wpt><wpt lat="10.323315" lon="123.953906"><ele>26.546883</ele><time>2024-07-26T06:40:36Z</time><name>870</name><sym>Flag, Blue</sym></wpt><wpt lat="10.323294" lon="123.953833"><ele>15.000000</ele><time>2024-07-26T06:45:36Z</time><name>871</name><sym>Flag, Blue</sym></wpt><wpt lat="10.322888" lon="123.954054"><ele>12.069466</ele><time>2024-07-26T06:45:37Z</time><name>872</name><sym>Flag, Blue</sym></wpt><wpt lat="10.322863" lon="123.954082"><ele>11.528343</ele><time>2024-07-26T06:45:41Z</time><name>873</name><sym>Flag, Blue</sym></wpt><wpt lat="10.322841" lon="123.954099"><ele>10.987610</ele><time>2024-07-26T06:45:43Z</time><name>874</name><sym>Flag, Blue</sym></wpt><wpt lat="10.322828" lon="123.954111"><ele>10.570393</ele><time>2024-07-26T06:45:45Z</time><name>875</name><sym>Flag, Blue</sym></wpt><wpt lat="10.322766" lon="123.954171"><ele>11.748447</ele><time>2024-07-26T06:45:56Z</time><name>876</name><sym>Flag, Blue</sym></wpt><wpt lat="10.322762" lon="123.954186"><ele>11.147144</ele><time>2024-07-26T06:46:00Z</time><name>877</name><sym>Flag, Blue</sym></wpt><wpt lat="10.322759" lon="123.954210"><ele>10.175716</ele><time>2024-07-26T06:46:04Z</time><name>878</name><sym>Flag, Blue</sym></wpt><wpt lat="10.322757" lon="123.954218"><ele>9.757076</ele><time>2024-07-26T06:46:06Z</time><name>879</name><sym>Flag, Blue</sym></wpt><wpt lat="10.322768" lon="123.954255"><ele>8.467670</ele><time>2024-07-26T06:46:10Z</time><name>880</name><sym>Flag, Blue</sym></wpt><wpt lat="10.322775" lon="123.954261"><ele>8.009701</ele><time>2024-07-26T06:46:11Z</time><name>881</name><sym>Flag, Blue</sym></wpt><wpt lat="10.322778" lon="123.954265"><ele>7.606800</ele><time>2024-07-26T06:46:11Z</time><name>882</name><sym>Flag, Blue</sym></wpt><wpt lat="10.322776" lon="123.954268"><ele>7.273335</ele><time>2024-07-26T06:46:12Z</time><name>883</name><sym>Flag, Blue</sym></wpt><wpt lat="10.322765" lon="123.954267"><ele>6.629513</ele><time>2024-07-26T06:46:15Z</time><name>884</name><sym>Flag, Blue</sym></wpt><wpt lat="10.322752" lon="123.954267"><ele>6.006763</ele><time>2024-07-26T06:46:16Z</time><name>885</name><sym>Flag, Blue</sym></wpt><wpt lat="10.322748" lon="123.954270"><ele>5.676235</ele><time>2024-07-26T06:46:18Z</time><name>886</name><sym>Flag, Blue</sym></wpt><wpt lat="10.322732" lon="123.954377"><ele>2.616595</ele><time>2024-07-26T06:46:26Z</time><name>887</name><sym>Flag, Blue</sym></wpt></gpx>