<?xml version="1.0" encoding="UTF-8" standalone="no" ?><gpx xmlns="http://www.topografix.com/GPX/1/1" xmlns:gpxx="http://www.garmin.com/xmlschemas/GpxExtensions/v3" xmlns:wptx1="http://www.garmin.com/xmlschemas/WaypointExtension/v1" xmlns:gpxtpx="http://www.garmin.com/xmlschemas/TrackPointExtension/v1" creator="eTrex 22x" version="1.1" xmlns:xsi="http://www.w3.org/2001/XMLSchema-instance" xsi:schemaLocation="http://www.topografix.com/GPX/1/1 http://www.topografix.com/GPX/1/1/gpx.xsd http://www.garmin.com/xmlschemas/GpxExtensions/v3 http://www8.garmin.com/xmlschemas/GpxExtensionsv3.xsd http://www.garmin.com/xmlschemas/TrackStatsExtension/v1 http://www8.garmin.com/xmlschemas/TrackStatsExtension.xsd http://www.garmin.com/xmlschemas/WaypointExtension/v1 http://www8.garmin.com/xmlschemas/WaypointExtensionv1.xsd http://www.garmin.com/xmlschemas/TrackPointExtension/v1 http://www.garmin.com/xmlschemas/TrackPointExtensionv1.xsd"><metadata><link href="http://www.garmin.com"><text>Garmin International</text></link><time>2024-08-07T01:50:16Z</time></metadata><wpt lat="10.332522" lon="123.944715"><ele>29.988483</ele><time>2024-08-07T01:50:16Z</time><name>1762</name><sym>Flag, Blue</sym></wpt><wpt lat="10.332890" lon="123.944357"><ele>24.426651</ele><time>2024-08-07T01:52:03Z</time><name>1763</name><sym>Flag, Blue</sym></wpt><wpt lat="10.332958" lon="123.944364"><ele>26.704887</ele><time>2024-08-07T01:52:28Z</time><name>1764</name><sym>Flag, Blue</sym></wpt><wpt lat="10.333069" lon="123.944373"><ele>33.072105</ele><time>2024-08-07T01:53:01Z</time><name>1765</name><sym>Flag, Blue</sym></wpt><wpt lat="10.333020" lon="123.943970"><ele>25.099457</ele><time>2024-08-07T01:56:09Z</time><name>1766</name><sym>Flag, Blue</sym></wpt><wpt lat="10.333070" lon="123.943879"><ele>26.134699</ele><time>2024-08-07T01:56:54Z</time><name>1767</name><sym>Flag, Blue</sym></wpt><wpt lat="10.333179" lon="123.943728"><ele>23.599899</ele><time>2024-08-07T01:57:26Z</time><name>1768</name><sym>Flag, Blue</sym></wpt><wpt lat="10.333331" lon="123.943382"><ele>20.470623</ele><time>2024-08-07T01:58:33Z</time><name>1769</name><sym>Flag, Blue</sym></wpt><wpt lat="10.333371" lon="123.943338"><ele>22.658245</ele><time>2024-08-07T01:58:54Z</time><name>1770</name><sym>Flag, Blue</sym></wpt><wpt lat="10.334129" lon="123.942107"><ele>21.588104</ele><time>2024-08-07T02:00:33Z</time><name>1771</name><sym>Flag, Blue</sym></wpt><wpt lat="10.334170" lon="123.942008"><ele>24.572369</ele><time>2024-08-07T02:01:09Z</time><name>1772</name><sym>Flag, Blue</sym></wpt><wpt lat="10.334423" lon="123.941605"><ele>24.942123</ele><time>2024-08-07T02:02:34Z</time><name>1773</name><sym>Flag, Blue</sym></wpt><wpt lat="10.334442" lon="123.941602"><ele>23.845932</ele><time>2024-08-07T02:02:47Z</time><name>1774</name><sym>Flag, Blue</sym></wpt><wpt lat="10.335028" lon="123.940380"><ele>23.020901</ele><time>2024-08-07T02:04:30Z</time><name>1775</name><sym>Flag, Blue</sym></wpt><wpt lat="10.335128" lon="123.939945"><ele>26.178093</ele><time>2024-08-07T02:05:44Z</time><name>1776</name><sym>Flag, Blue</sym></wpt><wpt lat="10.335170" lon="123.940007"><ele>30.436569</ele><time>2024-08-07T02:06:23Z</time><name>1777</name><sym>Flag, Blue</sym></wpt><wpt lat="10.335144" lon="123.940006"><ele>31.783890</ele><time>2024-08-07T02:06:36Z</time><name>1778</name><sym>Flag, Blue</sym></wpt><wpt lat="10.335104" lon="123.940069"><ele>32.261627</ele><time>2024-08-07T02:06:55Z</time><name>1779</name><sym>Flag, Blue</sym></wpt><wpt lat="10.335191" lon="123.940052"><ele>31.181717</ele><time>2024-08-07T02:07:17Z</time><name>1780</name><sym>Flag, Blue</sym></wpt><wpt lat="10.336209" lon="123.941440"><ele>26.878712</ele><time>2024-08-07T02:09:07Z</time><name>1781</name><sym>Flag, Blue</sym></wpt><wpt lat="10.335758" lon="123.943391"><ele>23.739964</ele><time>2024-08-07T02:12:40Z</time><name>1782</name><sym>Flag, Blue</sym></wpt><wpt lat="10.335807" lon="123.943327"><ele>24.768867</ele><time>2024-08-07T02:13:06Z</time><name>1783</name><sym>Flag, Blue</sym></wpt><wpt lat="10.335374" lon="123.945117"><ele>26.125420</ele><time>2024-08-07T02:16:06Z</time><name>1784</name><sym>Flag, Blue</sym></wpt><wpt lat="10.335635" lon="123.945177"><ele>30.189285</ele><time>2024-08-07T02:16:42Z</time><name>1785</name><sym>Flag, Blue</sym></wpt><wpt lat="10.335691" lon="123.945069"><ele>27.064407</ele><time>2024-08-07T02:17:34Z</time><name>1786</name><sym>Flag, Blue</sym></wpt><wpt lat="10.337500" lon="123.945784"><ele>28.721046</ele><time>2024-08-07T02:19:23Z</time><name>1787</name><sym>Flag, Blue</sym></wpt><wpt lat="10.330005" lon="123.943086"><ele>20.622669</ele><time>2024-08-07T02:27:46Z</time><name>1788</name><sym>Flag, Blue</sym></wpt><wpt lat="10.329976" lon="123.943078"><ele>19.606117</ele><time>2024-08-07T02:28:15Z</time><name>1789</name><sym>Flag, Blue</sym></wpt><wpt lat="10.330599" lon="123.941172"><ele>10.380188</ele><time>2024-08-07T02:30:09Z</time><name>1790</name><sym>Flag, Blue</sym></wpt><wpt lat="10.330608" lon="123.941084"><ele>15.330734</ele><time>2024-08-07T02:30:46Z</time><name>1791</name><sym>Flag, Blue</sym></wpt><wpt lat="10.333941" lon="123.942025"><ele>34.027443</ele><time>2024-08-07T02:36:22Z</time><name>1792</name><sym>Flag, Blue</sym></wpt><wpt lat="10.332892" lon="123.943671"><ele>30.043362</ele><time>2024-08-07T02:37:58Z</time><name>1793</name><sym>Flag, Blue</sym></wpt><wpt lat="10.332559" lon="123.944295"><ele>22.634453</ele><time>2024-08-07T02:38:58Z</time><name>1794</name><sym>Flag, Blue</sym></wpt></gpx>