<?xml version="1.0" encoding="UTF-8" standalone="no" ?><gpx xmlns="http://www.topografix.com/GPX/1/1" xmlns:gpxx="http://www.garmin.com/xmlschemas/GpxExtensions/v3" xmlns:wptx1="http://www.garmin.com/xmlschemas/WaypointExtension/v1" xmlns:gpxtpx="http://www.garmin.com/xmlschemas/TrackPointExtension/v1" creator="eTrex 22x" version="1.1" xmlns:xsi="http://www.w3.org/2001/XMLSchema-instance" xsi:schemaLocation="http://www.topografix.com/GPX/1/1 http://www.topografix.com/GPX/1/1/gpx.xsd http://www.garmin.com/xmlschemas/GpxExtensions/v3 http://www8.garmin.com/xmlschemas/GpxExtensionsv3.xsd http://www.garmin.com/xmlschemas/TrackStatsExtension/v1 http://www8.garmin.com/xmlschemas/TrackStatsExtension.xsd http://www.garmin.com/xmlschemas/WaypointExtension/v1 http://www8.garmin.com/xmlschemas/WaypointExtensionv1.xsd http://www.garmin.com/xmlschemas/TrackPointExtension/v1 http://www.garmin.com/xmlschemas/TrackPointExtensionv1.xsd"><metadata><link href="http://www.garmin.com"><text>Garmin International</text></link><time>2024-08-02T01:50:30Z</time></metadata><wpt lat="10.341537" lon="123.947556"><ele>49.167133</ele><time>2024-08-02T01:50:30Z</time><name>1501</name><sym>Flag, Blue</sym></wpt><wpt lat="10.341561" lon="123.947635"><ele>32.975677</ele><time>2024-08-02T01:53:33Z</time><name>1502</name><sym>Flag, Blue</sym></wpt><wpt lat="10.341604" lon="123.947618"><ele>33.031288</ele><time>2024-08-02T01:54:40Z</time><name>1503</name><sym>Flag, Blue</sym></wpt><wpt lat="10.341586" lon="123.947618"><ele>33.952888</ele><time>2024-08-02T01:55:17Z</time><name>1504</name><sym>Flag, Blue</sym></wpt><wpt lat="10.341641" lon="123.947652"><ele>33.210918</ele><time>2024-08-02T01:55:41Z</time><name>1505</name><sym>Flag, Blue</sym></wpt><wpt lat="10.341563" lon="123.947666"><ele>29.703716</ele><time>2024-08-02T01:56:08Z</time><name>1506</name><sym>Flag, Blue</sym></wpt><wpt lat="10.341606" lon="123.947692"><ele>29.591633</ele><time>2024-08-02T01:56:36Z</time><name>1507</name><sym>Flag, Blue</sym></wpt><wpt lat="10.341610" lon="123.947702"><ele>29.993069</ele><time>2024-08-02T01:56:55Z</time><name>1508</name><sym>Flag, Blue</sym></wpt><wpt lat="10.341644" lon="123.947733"><ele>29.081821</ele><time>2024-08-02T01:58:01Z</time><name>1509</name><sym>Flag, Blue</sym></wpt><wpt lat="10.341666" lon="123.947693"><ele>26.814190</ele><time>2024-08-02T01:58:49Z</time><name>1510</name><sym>Flag, Blue</sym></wpt><wpt lat="10.341656" lon="123.947711"><ele>25.293873</ele><time>2024-08-02T01:59:03Z</time><name>1511</name><sym>Flag, Blue</sym></wpt><wpt lat="10.341662" lon="123.947720"><ele>24.019810</ele><time>2024-08-02T01:59:13Z</time><name>1512</name><sym>Flag, Blue</sym></wpt><wpt lat="10.341659" lon="123.947747"><ele>23.695934</ele><time>2024-08-02T01:59:25Z</time><name>1513</name><sym>Flag, Blue</sym></wpt><wpt lat="10.341658" lon="123.947752"><ele>23.835720</ele><time>2024-08-02T01:59:39Z</time><name>1514</name><sym>Flag, Blue</sym></wpt><wpt lat="10.341656" lon="123.947743"><ele>23.788555</ele><time>2024-08-02T01:59:52Z</time><name>1515</name><sym>Flag, Blue</sym></wpt><wpt lat="10.341661" lon="123.947738"><ele>23.733379</ele><time>2024-08-02T02:00:05Z</time><name>1516</name><sym>Flag, Blue</sym></wpt><wpt lat="10.341669" lon="123.947745"><ele>23.454815</ele><time>2024-08-02T02:00:15Z</time><name>1517</name><sym>Flag, Blue</sym></wpt><wpt lat="10.341701" lon="123.947732"><ele>22.986904</ele><time>2024-08-02T02:00:28Z</time><name>1518</name><sym>Flag, Blue</sym></wpt><wpt lat="10.341698" lon="123.947744"><ele>21.929592</ele><time>2024-08-02T02:00:41Z</time><name>1519</name><sym>Flag, Blue</sym></wpt><wpt lat="10.341696" lon="123.947745"><ele>22.189335</ele><time>2024-08-02T02:00:55Z</time><name>1520</name><sym>Flag, Blue</sym></wpt><wpt lat="10.341715" lon="123.947780"><ele>23.600300</ele><time>2024-08-02T02:01:25Z</time><name>1521</name><sym>Flag, Blue</sym></wpt><wpt lat="10.341706" lon="123.947740"><ele>24.555653</ele><time>2024-08-02T02:01:42Z</time><name>1522</name><sym>Flag, Blue</sym></wpt><wpt lat="10.341752" lon="123.947745"><ele>23.320400</ele><time>2024-08-02T02:02:10Z</time><name>1523</name><sym>Flag, Blue</sym></wpt><wpt lat="10.341751" lon="123.947742"><ele>22.598461</ele><time>2024-08-02T02:02:28Z</time><name>1524</name><sym>Flag, Blue</sym></wpt><wpt lat="10.341754" lon="123.947762"><ele>23.355629</ele><time>2024-08-02T02:02:49Z</time><name>1525</name><sym>Flag, Blue</sym></wpt><wpt lat="10.341760" lon="123.947767"><ele>25.375854</ele><time>2024-08-02T02:03:12Z</time><name>1526</name><sym>Flag, Blue</sym></wpt><wpt lat="10.341772" lon="123.947779"><ele>24.134926</ele><time>2024-08-02T02:03:29Z</time><name>1527</name><sym>Flag, Blue</sym></wpt><wpt lat="10.341775" lon="123.947784"><ele>23.801521</ele><time>2024-08-02T02:03:45Z</time><name>1528</name><sym>Flag, Blue</sym></wpt><wpt lat="10.341772" lon="123.947766"><ele>23.898613</ele><time>2024-08-02T02:04:00Z</time><name>1529</name><sym>Flag, Blue</sym></wpt><wpt lat="10.341759" lon="123.947796"><ele>23.527596</ele><time>2024-08-02T02:04:26Z</time><name>1530</name><sym>Flag, Blue</sym></wpt><wpt lat="10.341774" lon="123.947824"><ele>22.810181</ele><time>2024-08-02T02:04:41Z</time><name>1531</name><sym>Flag, Blue</sym></wpt><wpt lat="10.341756" lon="123.947836"><ele>23.184677</ele><time>2024-08-02T02:05:02Z</time><name>1532</name><sym>Flag, Blue</sym></wpt><wpt lat="10.341771" lon="123.947860"><ele>22.713158</ele><time>2024-08-02T02:05:19Z</time><name>1533</name><sym>Flag, Blue</sym></wpt><wpt lat="10.341759" lon="123.947845"><ele>21.904694</ele><time>2024-08-02T02:05:32Z</time><name>1534</name><sym>Flag, Blue</sym></wpt><wpt lat="10.341736" lon="123.947845"><ele>22.897831</ele><time>2024-08-02T02:05:48Z</time><name>1535</name><sym>Flag, Blue</sym></wpt><wpt lat="10.341740" lon="123.947802"><ele>22.268154</ele><time>2024-08-02T02:06:03Z</time><name>1536</name><sym>Flag, Blue</sym></wpt><wpt lat="10.341717" lon="123.947793"><ele>22.478352</ele><time>2024-08-02T02:06:16Z</time><name>1537</name><sym>Flag, Blue</sym></wpt><wpt lat="10.341708" lon="123.947818"><ele>22.980556</ele><time>2024-08-02T02:06:29Z</time><name>1538</name><sym>Flag, Blue</sym></wpt><wpt lat="10.341703" lon="123.947845"><ele>24.597946</ele><time>2024-08-02T02:06:44Z</time><name>1539</name><sym>Flag, Blue</sym></wpt><wpt lat="10.341693" lon="123.947822"><ele>24.766518</ele><time>2024-08-02T02:07:06Z</time><name>1540</name><sym>Flag, Blue</sym></wpt><wpt lat="10.341679" lon="123.947783"><ele>25.985321</ele><time>2024-08-02T02:07:29Z</time><name>1541</name><sym>Flag, Blue</sym></wpt><wpt lat="10.341617" lon="123.947793"><ele>28.457561</ele><time>2024-08-02T02:08:11Z</time><name>1542</name><sym>Flag, Blue</sym></wpt><wpt lat="10.341602" lon="123.947771"><ele>30.557529</ele><time>2024-08-02T02:08:29Z</time><name>1543</name><sym>Flag, Blue</sym></wpt><wpt lat="10.341586" lon="123.947765"><ele>29.513538</ele><time>2024-08-02T02:08:43Z</time><name>1544</name><sym>Flag, Blue</sym></wpt><wpt lat="10.341575" lon="123.947756"><ele>30.603802</ele><time>2024-08-02T02:08:55Z</time><name>1545</name><sym>Flag, Blue</sym></wpt><wpt lat="10.341579" lon="123.947738"><ele>32.175457</ele><time>2024-08-02T02:09:12Z</time><name>1546</name><sym>Flag, Blue</sym></wpt><wpt lat="10.341582" lon="123.947752"><ele>31.289028</ele><time>2024-08-02T02:09:24Z</time><name>1547</name><sym>Flag, Blue</sym></wpt><wpt lat="10.341573" lon="123.947729"><ele>30.555527</ele><time>2024-08-02T02:09:51Z</time><name>1548</name><sym>Flag, Blue</sym></wpt><wpt lat="10.341543" lon="123.947738"><ele>29.958527</ele><time>2024-08-02T02:10:08Z</time><name>1549</name><sym>Flag, Blue</sym></wpt><wpt lat="10.341539" lon="123.947807"><ele>27.973156</ele><time>2024-08-02T02:10:40Z</time><name>1550</name><sym>Flag, Blue</sym></wpt><wpt lat="10.341533" lon="123.947794"><ele>26.501598</ele><time>2024-08-02T02:10:53Z</time><name>1551</name><sym>Flag, Blue</sym></wpt><wpt lat="10.341560" lon="123.947779"><ele>27.508663</ele><time>2024-08-02T02:11:09Z</time><name>1552</name><sym>Flag, Blue</sym></wpt><wpt lat="10.341576" lon="123.947786"><ele>25.850979</ele><time>2024-08-02T02:11:22Z</time><name>1553</name><sym>Flag, Blue</sym></wpt><wpt lat="10.341591" lon="123.947814"><ele>24.352123</ele><time>2024-08-02T02:11:36Z</time><name>1554</name><sym>Flag, Blue</sym></wpt><wpt lat="10.341579" lon="123.947836"><ele>22.667927</ele><time>2024-08-02T02:11:49Z</time><name>1555</name><sym>Flag, Blue</sym></wpt><wpt lat="10.341580" lon="123.947848"><ele>22.154118</ele><time>2024-08-02T02:12:01Z</time><name>1556</name><sym>Flag, Blue</sym></wpt><wpt lat="10.341608" lon="123.947879"><ele>19.059429</ele><time>2024-08-02T02:12:23Z</time><name>1557</name><sym>Flag, Blue</sym></wpt><wpt lat="10.341600" lon="123.947883"><ele>18.675507</ele><time>2024-08-02T02:12:38Z</time><name>1558</name><sym>Flag, Blue</sym></wpt><wpt lat="10.341610" lon="123.947862"><ele>17.579865</ele><time>2024-08-02T02:12:48Z</time><name>1559</name><sym>Flag, Blue</sym></wpt><wpt lat="10.341620" lon="123.947821"><ele>18.199303</ele><time>2024-08-02T02:13:00Z</time><name>1560</name><sym>Flag, Blue</sym></wpt><wpt lat="10.341645" lon="123.947807"><ele>19.721230</ele><time>2024-08-02T02:13:12Z</time><name>1561</name><sym>Flag, Blue</sym></wpt><wpt lat="10.341636" lon="123.947819"><ele>19.912949</ele><time>2024-08-02T02:13:24Z</time><name>1562</name><sym>Flag, Blue</sym></wpt><wpt lat="10.341636" lon="123.947848"><ele>20.719055</ele><time>2024-08-02T02:13:33Z</time><name>1563</name><sym>Flag, Blue</sym></wpt><wpt lat="10.341638" lon="123.947864"><ele>21.256626</ele><time>2024-08-02T02:13:44Z</time><name>1564</name><sym>Flag, Blue</sym></wpt><wpt lat="10.341641" lon="123.947887"><ele>20.455753</ele><time>2024-08-02T02:14:02Z</time><name>1565</name><sym>Flag, Blue</sym></wpt><wpt lat="10.341639" lon="123.947870"><ele>20.094524</ele><time>2024-08-02T02:14:17Z</time><name>1566</name><sym>Flag, Blue</sym></wpt><wpt lat="10.341636" lon="123.947856"><ele>19.281254</ele><time>2024-08-02T02:14:30Z</time><name>1567</name><sym>Flag, Blue</sym></wpt><wpt lat="10.341647" lon="123.947844"><ele>19.352787</ele><time>2024-08-02T02:14:40Z</time><name>1568</name><sym>Flag, Blue</sym></wpt><wpt lat="10.341664" lon="123.947868"><ele>18.295887</ele><time>2024-08-02T02:14:57Z</time><name>1569</name><sym>Flag, Blue</sym></wpt><wpt lat="10.341686" lon="123.947907"><ele>17.124126</ele><time>2024-08-02T02:15:32Z</time><name>1570</name><sym>Flag, Blue</sym></wpt><wpt lat="10.341688" lon="123.947885"><ele>17.490032</ele><time>2024-08-02T02:15:49Z</time><name>1571</name><sym>Flag, Blue</sym></wpt><wpt lat="10.341721" lon="123.947893"><ele>17.171268</ele><time>2024-08-02T02:16:01Z</time><name>1572</name><sym>Flag, Blue</sym></wpt><wpt lat="10.341716" lon="123.947922"><ele>17.330753</ele><time>2024-08-02T02:16:15Z</time><name>1573</name><sym>Flag, Blue</sym></wpt><wpt lat="10.341692" lon="123.947938"><ele>18.918007</ele><time>2024-08-02T02:16:28Z</time><name>1574</name><sym>Flag, Blue</sym></wpt><wpt lat="10.341701" lon="123.947988"><ele>18.901291</ele><time>2024-08-02T02:16:40Z</time><name>1575</name><sym>Flag, Blue</sym></wpt><wpt lat="10.341700" lon="123.947986"><ele>16.903183</ele><time>2024-08-02T02:16:56Z</time><name>1576</name><sym>Flag, Blue</sym></wpt><wpt lat="10.341691" lon="123.947986"><ele>16.364189</ele><time>2024-08-02T02:17:07Z</time><name>1577</name><sym>Flag, Blue</sym></wpt><wpt lat="10.341642" lon="123.947982"><ele>15.331200</ele><time>2024-08-02T02:17:33Z</time><name>1578</name><sym>Flag, Blue</sym></wpt><wpt lat="10.341689" lon="123.947955"><ele>18.610153</ele><time>2024-08-02T02:19:45Z</time><name>1579</name><sym>Flag, Blue</sym></wpt><wpt lat="10.341643" lon="123.947938"><ele>19.592812</ele><time>2024-08-02T02:20:02Z</time><name>1580</name><sym>Flag, Blue</sym></wpt><wpt lat="10.341620" lon="123.947951"><ele>19.112572</ele><time>2024-08-02T02:20:15Z</time><name>1581</name><sym>Flag, Blue</sym></wpt><wpt lat="10.341629" lon="123.947952"><ele>19.205849</ele><time>2024-08-02T02:20:32Z</time><name>1582</name><sym>Flag, Blue</sym></wpt><wpt lat="10.341616" lon="123.947921"><ele>20.463753</ele><time>2024-08-02T02:20:43Z</time><name>1583</name><sym>Flag, Blue</sym></wpt><wpt lat="10.341600" lon="123.947925"><ele>20.054916</ele><time>2024-08-02T02:20:53Z</time><name>1584</name><sym>Flag, Blue</sym></wpt><wpt lat="10.341593" lon="123.947934"><ele>21.671013</ele><time>2024-08-02T02:21:04Z</time><name>1585</name><sym>Flag, Blue</sym></wpt><wpt lat="10.341592" lon="123.947955"><ele>18.777885</ele><time>2024-08-02T02:21:19Z</time><name>1586</name><sym>Flag, Blue</sym></wpt><wpt lat="10.341586" lon="123.947937"><ele>19.003250</ele><time>2024-08-02T02:21:28Z</time><name>1587</name><sym>Flag, Blue</sym></wpt><wpt lat="10.341580" lon="123.947929"><ele>19.537144</ele><time>2024-08-02T02:21:39Z</time><name>1588</name><sym>Flag, Blue</sym></wpt><wpt lat="10.341585" lon="123.947919"><ele>18.003025</ele><time>2024-08-02T02:21:52Z</time><name>1589</name><sym>Flag, Blue</sym></wpt><wpt lat="10.341583" lon="123.947905"><ele>18.197712</ele><time>2024-08-02T02:22:05Z</time><name>1590</name><sym>Flag, Blue</sym></wpt><wpt lat="10.341562" lon="123.947912"><ele>20.588032</ele><time>2024-08-02T02:22:18Z</time><name>1591</name><sym>Flag, Blue</sym></wpt><wpt lat="10.341557" lon="123.947928"><ele>21.167942</ele><time>2024-08-02T02:22:29Z</time><name>1592</name><sym>Flag, Blue</sym></wpt><wpt lat="10.341558" lon="123.947940"><ele>20.585857</ele><time>2024-08-02T02:22:40Z</time><name>1593</name><sym>Flag, Blue</sym></wpt><wpt lat="10.341531" lon="123.947946"><ele>20.813976</ele><time>2024-08-02T02:23:06Z</time><name>1594</name><sym>Flag, Blue</sym></wpt><wpt lat="10.341530" lon="123.947916"><ele>20.862324</ele><time>2024-08-02T02:23:17Z</time><name>1595</name><sym>Flag, Blue</sym></wpt><wpt lat="10.341539" lon="123.947887"><ele>22.286724</ele><time>2024-08-02T02:23:30Z</time><name>1596</name><sym>Flag, Blue</sym></wpt><wpt lat="10.341555" lon="123.947851"><ele>24.922451</ele><time>2024-08-02T02:23:41Z</time><name>1597</name><sym>Flag, Blue</sym></wpt><wpt lat="10.341539" lon="123.947817"><ele>27.023077</ele><time>2024-08-02T02:23:55Z</time><name>1598</name><sym>Flag, Blue</sym></wpt><wpt lat="10.341530" lon="123.947822"><ele>27.859917</ele><time>2024-08-02T02:24:09Z</time><name>1599</name><sym>Flag, Blue</sym></wpt><wpt lat="10.341529" lon="123.947848"><ele>28.182930</ele><time>2024-08-02T02:24:22Z</time><name>1600</name><sym>Flag, Blue</sym></wpt><wpt lat="10.341520" lon="123.947869"><ele>29.300545</ele><time>2024-08-02T02:24:36Z</time><name>1601</name><sym>Flag, Blue</sym></wpt><wpt lat="10.341520" lon="123.947899"><ele>32.328842</ele><time>2024-08-02T02:24:57Z</time><name>1602</name><sym>Flag, Blue</sym></wpt><wpt lat="10.341508" lon="123.947909"><ele>30.814194</ele><time>2024-08-02T02:25:11Z</time><name>1603</name><sym>Flag, Blue</sym></wpt><wpt lat="10.341461" lon="123.947838"><ele>30.149117</ele><time>2024-08-02T02:25:36Z</time><name>1604</name><sym>Flag, Blue</sym></wpt><wpt lat="10.341489" lon="123.947829"><ele>29.862633</ele><time>2024-08-02T02:25:49Z</time><name>1605</name><sym>Flag, Blue</sym></wpt><wpt lat="10.341503" lon="123.947843"><ele>28.477715</ele><time>2024-08-02T02:26:04Z</time><name>1606</name><sym>Flag, Blue</sym></wpt><wpt lat="10.341445" lon="123.947934"><ele>26.323063</ele><time>2024-08-02T02:26:39Z</time><name>1607</name><sym>Flag, Blue</sym></wpt><wpt lat="10.341435" lon="123.947938"><ele>28.113445</ele><time>2024-08-02T02:26:56Z</time><name>1608</name><sym>Flag, Blue</sym></wpt><wpt lat="10.341456" lon="123.947981"><ele>26.228397</ele><time>2024-08-02T02:27:21Z</time><name>1609</name><sym>Flag, Blue</sym></wpt><wpt lat="10.341461" lon="123.947964"><ele>25.785568</ele><time>2024-08-02T02:27:34Z</time><name>1610</name><sym>Flag, Blue</sym></wpt><wpt lat="10.341479" lon="123.947957"><ele>23.968941</ele><time>2024-08-02T02:27:51Z</time><name>1611</name><sym>Flag, Blue</sym></wpt><wpt lat="10.341487" lon="123.947949"><ele>23.263138</ele><time>2024-08-02T02:28:03Z</time><name>1612</name><sym>Flag, Blue</sym></wpt><wpt lat="10.341492" lon="123.947937"><ele>23.348206</ele><time>2024-08-02T02:28:12Z</time><name>1613</name><sym>Flag, Blue</sym></wpt><wpt lat="10.341504" lon="123.947954"><ele>23.219505</ele><time>2024-08-02T02:28:25Z</time><name>1614</name><sym>Flag, Blue</sym></wpt><wpt lat="10.341521" lon="123.947990"><ele>22.190475</ele><time>2024-08-02T02:28:41Z</time><name>1615</name><sym>Flag, Blue</sym></wpt><wpt lat="10.341532" lon="123.947994"><ele>21.919411</ele><time>2024-08-02T02:28:54Z</time><name>1616</name><sym>Flag, Blue</sym></wpt><wpt lat="10.341536" lon="123.947965"><ele>22.856775</ele><time>2024-08-02T02:29:07Z</time><name>1617</name><sym>Flag, Blue</sym></wpt><wpt lat="10.341542" lon="123.947978"><ele>24.502609</ele><time>2024-08-02T02:29:23Z</time><name>1618</name><sym>Flag, Blue</sym></wpt><wpt lat="10.341530" lon="123.947988"><ele>24.931564</ele><time>2024-08-02T02:29:35Z</time><name>1619</name><sym>Flag, Blue</sym></wpt><wpt lat="10.341543" lon="123.948002"><ele>26.837807</ele><time>2024-08-02T02:29:54Z</time><name>1620</name><sym>Flag, Blue</sym></wpt><wpt lat="10.341551" lon="123.947998"><ele>25.754196</ele><time>2024-08-02T02:30:08Z</time><name>1621</name><sym>Flag, Blue</sym></wpt><wpt lat="10.341562" lon="123.947970"><ele>26.018822</ele><time>2024-08-02T02:30:22Z</time><name>1622</name><sym>Flag, Blue</sym></wpt><wpt lat="10.341577" lon="123.947973"><ele>24.339264</ele><time>2024-08-02T02:30:36Z</time><name>1623</name><sym>Flag, Blue</sym></wpt><wpt lat="10.341585" lon="123.947989"><ele>24.214905</ele><time>2024-08-02T02:30:48Z</time><name>1624</name><sym>Flag, Blue</sym></wpt><wpt lat="10.341594" lon="123.948016"><ele>23.765450</ele><time>2024-08-02T02:31:00Z</time><name>1625</name><sym>Flag, Blue</sym></wpt><wpt lat="10.341604" lon="123.948008"><ele>24.912369</ele><time>2024-08-02T02:31:11Z</time><name>1626</name><sym>Flag, Blue</sym></wpt><wpt lat="10.341611" lon="123.948006"><ele>25.383148</ele><time>2024-08-02T02:31:24Z</time><name>1627</name><sym>Flag, Blue</sym></wpt><wpt lat="10.341652" lon="123.948001"><ele>26.135262</ele><time>2024-08-02T02:31:38Z</time><name>1628</name><sym>Flag, Blue</sym></wpt><wpt lat="10.341655" lon="123.948012"><ele>27.683228</ele><time>2024-08-02T02:31:53Z</time><name>1629</name><sym>Flag, Blue</sym></wpt><wpt lat="10.341638" lon="123.948044"><ele>28.655396</ele><time>2024-08-02T02:32:13Z</time><name>1630</name><sym>Flag, Blue</sym></wpt><wpt lat="10.341655" lon="123.948033"><ele>27.773598</ele><time>2024-08-02T02:32:23Z</time><name>1631</name><sym>Flag, Blue</sym></wpt><wpt lat="10.341598" lon="123.948041"><ele>21.737480</ele><time>2024-08-02T02:33:07Z</time><name>1632</name><sym>Flag, Blue</sym></wpt><wpt lat="10.341602" lon="123.948043"><ele>22.371269</ele><time>2024-08-02T02:33:18Z</time><name>1633</name><sym>Flag, Blue</sym></wpt><wpt lat="10.341586" lon="123.948080"><ele>23.381973</ele><time>2024-08-02T02:33:32Z</time><name>1634</name><sym>Flag, Blue</sym></wpt><wpt lat="10.341584" lon="123.948072"><ele>24.537514</ele><time>2024-08-02T02:33:47Z</time><name>1635</name><sym>Flag, Blue</sym></wpt><wpt lat="10.341578" lon="123.948086"><ele>25.355522</ele><time>2024-08-02T02:33:58Z</time><name>1636</name><sym>Flag, Blue</sym></wpt><wpt lat="10.341579" lon="123.948096"><ele>26.367882</ele><time>2024-08-02T02:34:13Z</time><name>1637</name><sym>Flag, Blue</sym></wpt><wpt lat="10.341572" lon="123.948049"><ele>27.548340</ele><time>2024-08-02T02:34:38Z</time><name>1638</name><sym>Flag, Blue</sym></wpt><wpt lat="10.341558" lon="123.948064"><ele>27.193115</ele><time>2024-08-02T02:34:55Z</time><name>1639</name><sym>Flag, Blue</sym></wpt><wpt lat="10.341538" lon="123.948071"><ele>25.854568</ele><time>2024-08-02T02:35:12Z</time><name>1640</name><sym>Flag, Blue</sym></wpt><wpt lat="10.341504" lon="123.948066"><ele>23.298538</ele><time>2024-08-02T02:35:26Z</time><name>1641</name><sym>Flag, Blue</sym></wpt><wpt lat="10.341492" lon="123.948065"><ele>22.675110</ele><time>2024-08-02T02:35:38Z</time><name>1642</name><sym>Flag, Blue</sym></wpt><wpt lat="10.341491" lon="123.948053"><ele>22.753616</ele><time>2024-08-02T02:35:49Z</time><name>1643</name><sym>Flag, Blue</sym></wpt><wpt lat="10.341499" lon="123.948035"><ele>22.032578</ele><time>2024-08-02T02:36:01Z</time><name>1644</name><sym>Flag, Blue</sym></wpt><wpt lat="10.341485" lon="123.948007"><ele>21.891220</ele><time>2024-08-02T02:36:16Z</time><name>1645</name><sym>Flag, Blue</sym></wpt><wpt lat="10.341487" lon="123.948021"><ele>24.575699</ele><time>2024-08-02T02:36:31Z</time><name>1646</name><sym>Flag, Blue</sym></wpt><wpt lat="10.341495" lon="123.948040"><ele>26.174603</ele><time>2024-08-02T02:36:42Z</time><name>1647</name><sym>Flag, Blue</sym></wpt><wpt lat="10.341482" lon="123.948050"><ele>27.008389</ele><time>2024-08-02T02:36:57Z</time><name>1648</name><sym>Flag, Blue</sym></wpt><wpt lat="10.341473" lon="123.948025"><ele>26.107754</ele><time>2024-08-02T02:37:11Z</time><name>1649</name><sym>Flag, Blue</sym></wpt><wpt lat="10.341474" lon="123.948017"><ele>26.352993</ele><time>2024-08-02T02:37:22Z</time><name>1650</name><sym>Flag, Blue</sym></wpt><wpt lat="10.341475" lon="123.947998"><ele>25.098824</ele><time>2024-08-02T02:37:42Z</time><name>1651</name><sym>Flag, Blue</sym></wpt><wpt lat="10.341410" lon="123.948059"><ele>22.868492</ele><time>2024-08-02T02:38:17Z</time><name>1652</name><sym>Flag, Blue</sym></wpt><wpt lat="10.341466" lon="123.948046"><ele>22.748756</ele><time>2024-08-02T02:38:59Z</time><name>1653</name><sym>Flag, Blue</sym></wpt><wpt lat="10.341475" lon="123.948065"><ele>25.330688</ele><time>2024-08-02T02:39:18Z</time><name>1654</name><sym>Flag, Blue</sym></wpt><wpt lat="10.341444" lon="123.948075"><ele>26.943474</ele><time>2024-08-02T02:39:41Z</time><name>1655</name><sym>Flag, Blue</sym></wpt><wpt lat="10.341445" lon="123.948089"><ele>26.467064</ele><time>2024-08-02T02:40:00Z</time><name>1656</name><sym>Flag, Blue</sym></wpt><wpt lat="10.341472" lon="123.948087"><ele>25.614464</ele><time>2024-08-02T02:40:15Z</time><name>1657</name><sym>Flag, Blue</sym></wpt><wpt lat="10.341469" lon="123.948070"><ele>23.726990</ele><time>2024-08-02T02:40:31Z</time><name>1658</name><sym>Flag, Blue</sym></wpt><wpt lat="10.341469" lon="123.948087"><ele>23.368641</ele><time>2024-08-02T02:40:43Z</time><name>1659</name><sym>Flag, Blue</sym></wpt><wpt lat="10.341473" lon="123.948099"><ele>21.793736</ele><time>2024-08-02T02:40:55Z</time><name>1660</name><sym>Flag, Blue</sym></wpt><wpt lat="10.341492" lon="123.948108"><ele>21.701633</ele><time>2024-08-02T02:41:12Z</time><name>1661</name><sym>Flag, Blue</sym></wpt><wpt lat="10.341474" lon="123.948106"><ele>23.902256</ele><time>2024-08-02T02:41:25Z</time><name>1662</name><sym>Flag, Blue</sym></wpt><wpt lat="10.341462" lon="123.948121"><ele>24.956490</ele><time>2024-08-02T02:41:38Z</time><name>1663</name><sym>Flag, Blue</sym></wpt><wpt lat="10.341455" lon="123.948142"><ele>25.464386</ele><time>2024-08-02T02:41:49Z</time><name>1664</name><sym>Flag, Blue</sym></wpt><wpt lat="10.341434" lon="123.948182"><ele>24.856041</ele><time>2024-08-02T02:42:06Z</time><name>1665</name><sym>Flag, Blue</sym></wpt><wpt lat="10.341430" lon="123.948162"><ele>27.574234</ele><time>2024-08-02T02:42:26Z</time><name>1666</name><sym>Flag, Blue</sym></wpt><wpt lat="10.341418" lon="123.948169"><ele>28.204430</ele><time>2024-08-02T02:42:38Z</time><name>1667</name><sym>Flag, Blue</sym></wpt><wpt lat="10.341419" lon="123.948150"><ele>28.590523</ele><time>2024-08-02T02:42:48Z</time><name>1668</name><sym>Flag, Blue</sym></wpt><wpt lat="10.341406" lon="123.948120"><ele>30.654652</ele><time>2024-08-02T02:43:05Z</time><name>1669</name><sym>Flag, Blue</sym></wpt><wpt lat="10.341399" lon="123.948108"><ele>31.852425</ele><time>2024-08-02T02:43:15Z</time><name>1670</name><sym>Flag, Blue</sym></wpt><wpt lat="10.341405" lon="123.948101"><ele>30.927193</ele><time>2024-08-02T02:43:25Z</time><name>1671</name><sym>Flag, Blue</sym></wpt><wpt lat="10.341409" lon="123.948121"><ele>29.864063</ele><time>2024-08-02T02:43:39Z</time><name>1672</name><sym>Flag, Blue</sym></wpt><wpt lat="10.341387" lon="123.948137"><ele>29.588177</ele><time>2024-08-02T02:43:51Z</time><name>1673</name><sym>Flag, Blue</sym></wpt><wpt lat="10.341380" lon="123.948164"><ele>28.117054</ele><time>2024-08-02T02:44:08Z</time><name>1674</name><sym>Flag, Blue</sym></wpt><wpt lat="10.341380" lon="123.948153"><ele>28.759647</ele><time>2024-08-02T02:44:27Z</time><name>1675</name><sym>Flag, Blue</sym></wpt><wpt lat="10.341335" lon="123.948211"><time>2024-08-02T02:54:29Z</time><name>1676</name><sym>Flag, Blue</sym></wpt><wpt lat="10.341528" lon="123.948113"><ele>22.495617</ele><time>2024-08-02T02:54:49Z</time><name>1677</name><sym>Flag, Blue</sym></wpt><wpt lat="10.341521" lon="123.948112"><ele>25.749493</ele><time>2024-08-02T02:55:14Z</time><name>1678</name><sym>Flag, Blue</sym></wpt><wpt lat="10.341545" lon="123.948108"><ele>27.021374</ele><time>2024-08-02T02:55:31Z</time><name>1679</name><sym>Flag, Blue</sym></wpt><wpt lat="10.341559" lon="123.948115"><ele>28.718441</ele><time>2024-08-02T02:55:47Z</time><name>1680</name><sym>Flag, Blue</sym></wpt><wpt lat="10.341536" lon="123.948102"><ele>29.357296</ele><time>2024-08-02T02:56:05Z</time><name>1681</name><sym>Flag, Blue</sym></wpt><wpt lat="10.341538" lon="123.948110"><ele>29.540855</ele><time>2024-08-02T02:56:19Z</time><name>1682</name><sym>Flag, Blue</sym></wpt><wpt lat="10.341542" lon="123.948122"><ele>29.325043</ele><time>2024-08-02T02:56:29Z</time><name>1683</name><sym>Flag, Blue</sym></wpt><wpt lat="10.341535" lon="123.948122"><ele>28.280342</ele><time>2024-08-02T02:56:42Z</time><name>1684</name><sym>Flag, Blue</sym></wpt><wpt lat="10.341532" lon="123.948135"><ele>26.770798</ele><time>2024-08-02T02:56:59Z</time><name>1685</name><sym>Flag, Blue</sym></wpt><wpt lat="10.341503" lon="123.948130"><ele>28.739765</ele><time>2024-08-02T02:57:19Z</time><name>1686</name><sym>Flag, Blue</sym></wpt><wpt lat="10.341513" lon="123.948130"><ele>30.454784</ele><time>2024-08-02T02:57:33Z</time><name>1687</name><sym>Flag, Blue</sym></wpt><wpt lat="10.341492" lon="123.948133"><ele>31.498806</ele><time>2024-08-02T02:57:45Z</time><name>1688</name><sym>Flag, Blue</sym></wpt><wpt lat="10.341498" lon="123.948140"><ele>32.702160</ele><time>2024-08-02T02:57:56Z</time><name>1689</name><sym>Flag, Blue</sym></wpt><wpt lat="10.341517" lon="123.948171"><ele>33.358425</ele><time>2024-08-02T02:58:09Z</time><name>1690</name><sym>Flag, Blue</sym></wpt><wpt lat="10.341510" lon="123.948175"><ele>30.511417</ele><time>2024-08-02T02:58:18Z</time><name>1691</name><sym>Flag, Blue</sym></wpt><wpt lat="10.341498" lon="123.948184"><ele>30.710110</ele><time>2024-08-02T02:58:34Z</time><name>1692</name><sym>Flag, Blue</sym></wpt><wpt lat="10.341504" lon="123.948168"><ele>30.186565</ele><time>2024-08-02T02:58:48Z</time><name>1693</name><sym>Flag, Blue</sym></wpt><wpt lat="10.341492" lon="123.948193"><ele>30.377895</ele><time>2024-08-02T02:59:01Z</time><name>1694</name><sym>Flag, Blue</sym></wpt><wpt lat="10.341504" lon="123.948208"><ele>32.004364</ele><time>2024-08-02T02:59:15Z</time><name>1695</name><sym>Flag, Blue</sym></wpt><wpt lat="10.341487" lon="123.948196"><ele>29.410889</ele><time>2024-08-02T02:59:28Z</time><name>1696</name><sym>Flag, Blue</sym></wpt><wpt lat="10.341469" lon="123.948212"><ele>32.196899</ele><time>2024-08-02T02:59:47Z</time><name>1697</name><sym>Flag, Blue</sym></wpt><wpt lat="10.341472" lon="123.948203"><ele>32.230957</ele><time>2024-08-02T03:00:01Z</time><name>1698</name><sym>Flag, Blue</sym></wpt><wpt lat="10.341456" lon="123.948233"><ele>32.509663</ele><time>2024-08-02T03:00:20Z</time><name>1699</name><sym>Flag, Blue</sym></wpt><wpt lat="10.341462" lon="123.948225"><ele>35.855198</ele><time>2024-08-02T03:00:35Z</time><name>1700</name><sym>Flag, Blue</sym></wpt><wpt lat="10.341478" lon="123.948243"><ele>35.039433</ele><time>2024-08-02T03:00:57Z</time><name>1701</name><sym>Flag, Blue</sym></wpt><wpt lat="10.341444" lon="123.948263"><ele>32.478191</ele><time>2024-08-02T03:01:16Z</time><name>1702</name><sym>Flag, Blue</sym></wpt><wpt lat="10.341459" lon="123.948253"><ele>32.139423</ele><time>2024-08-02T03:01:29Z</time><name>1703</name><sym>Flag, Blue</sym></wpt><wpt lat="10.341466" lon="123.948257"><ele>31.723423</ele><time>2024-08-02T03:01:44Z</time><name>1704</name><sym>Flag, Blue</sym></wpt><wpt lat="10.341470" lon="123.948263"><ele>32.408092</ele><time>2024-08-02T03:01:54Z</time><name>1705</name><sym>Flag, Blue</sym></wpt><wpt lat="10.341470" lon="123.948252"><ele>34.207096</ele><time>2024-08-02T03:02:07Z</time><name>1706</name><sym>Flag, Blue</sym></wpt><wpt lat="10.341447" lon="123.948256"><ele>32.088940</ele><time>2024-08-02T03:02:27Z</time><name>1707</name><sym>Flag, Blue</sym></wpt><wpt lat="10.341404" lon="123.948243"><ele>30.807644</ele><time>2024-08-02T03:02:42Z</time><name>1708</name><sym>Flag, Blue</sym></wpt><wpt lat="10.341386" lon="123.948236"><ele>32.883160</ele><time>2024-08-02T03:03:03Z</time><name>1709</name><sym>Flag, Blue</sym></wpt><wpt lat="10.341381" lon="123.948209"><ele>33.022606</ele><time>2024-08-02T03:03:14Z</time><name>1710</name><sym>Flag, Blue</sym></wpt><wpt lat="10.341377" lon="123.948203"><ele>31.727486</ele><time>2024-08-02T03:03:27Z</time><name>1711</name><sym>Flag, Blue</sym></wpt><wpt lat="10.341375" lon="123.948196"><ele>32.314156</ele><time>2024-08-02T03:03:41Z</time><name>1712</name><sym>Flag, Blue</sym></wpt><wpt lat="10.341395" lon="123.948231"><ele>31.153107</ele><time>2024-08-02T03:04:26Z</time><name>1713</name><sym>Flag, Blue</sym></wpt><wpt lat="10.341438" lon="123.948293"><ele>27.615517</ele><time>2024-08-02T03:05:02Z</time><name>1714</name><sym>Flag, Blue</sym></wpt><wpt lat="10.341424" lon="123.948283"><ele>27.661503</ele><time>2024-08-02T03:05:17Z</time><name>1715</name><sym>Flag, Blue</sym></wpt><wpt lat="10.341425" lon="123.948296"><ele>28.744274</ele><time>2024-08-02T03:05:34Z</time><name>1716</name><sym>Flag, Blue</sym></wpt><wpt lat="10.341428" lon="123.948311"><ele>26.897259</ele><time>2024-08-02T03:05:49Z</time><name>1717</name><sym>Flag, Blue</sym></wpt><wpt lat="10.341421" lon="123.948310"><ele>25.099834</ele><time>2024-08-02T03:06:04Z</time><name>1718</name><sym>Flag, Blue</sym></wpt><wpt lat="10.341417" lon="123.948296"><ele>24.349075</ele><time>2024-08-02T03:06:17Z</time><name>1719</name><sym>Flag, Blue</sym></wpt><wpt lat="10.341395" lon="123.948289"><ele>25.472816</ele><time>2024-08-02T03:06:29Z</time><name>1720</name><sym>Flag, Blue</sym></wpt><wpt lat="10.341399" lon="123.948310"><ele>25.137764</ele><time>2024-08-02T03:06:45Z</time><name>1721</name><sym>Flag, Blue</sym></wpt><wpt lat="10.341389" lon="123.948315"><ele>25.835068</ele><time>2024-08-02T03:06:59Z</time><name>1722</name><sym>Flag, Blue</sym></wpt><wpt lat="10.341371" lon="123.948293"><ele>24.296474</ele><time>2024-08-02T03:07:18Z</time><name>1723</name><sym>Flag, Blue</sym></wpt><wpt lat="10.341291" lon="123.948243"><ele>26.106945</ele><time>2024-08-02T03:07:57Z</time><name>1724</name><sym>Flag, Blue</sym></wpt><wpt lat="10.341320" lon="123.948180"><ele>24.892315</ele><time>2024-08-02T03:08:16Z</time><name>1725</name><sym>Flag, Blue</sym></wpt></gpx>