<?xml version="1.0" encoding="UTF-8" standalone="no" ?><gpx xmlns="http://www.topografix.com/GPX/1/1" xmlns:gpxx="http://www.garmin.com/xmlschemas/GpxExtensions/v3" xmlns:wptx1="http://www.garmin.com/xmlschemas/WaypointExtension/v1" xmlns:gpxtpx="http://www.garmin.com/xmlschemas/TrackPointExtension/v1" creator="eTrex 22x" version="1.1" xmlns:xsi="http://www.w3.org/2001/XMLSchema-instance" xsi:schemaLocation="http://www.topografix.com/GPX/1/1 http://www.topografix.com/GPX/1/1/gpx.xsd http://www.garmin.com/xmlschemas/GpxExtensions/v3 http://www8.garmin.com/xmlschemas/GpxExtensionsv3.xsd http://www.garmin.com/xmlschemas/TrackStatsExtension/v1 http://www8.garmin.com/xmlschemas/TrackStatsExtension.xsd http://www.garmin.com/xmlschemas/WaypointExtension/v1 http://www8.garmin.com/xmlschemas/WaypointExtensionv1.xsd http://www.garmin.com/xmlschemas/TrackPointExtension/v1 http://www.garmin.com/xmlschemas/TrackPointExtensionv1.xsd"><metadata><link href="http://www.garmin.com"><text>Garmin International</text></link><time>2024-08-01T02:18:17Z</time></metadata><wpt lat="10.338982" lon="123.946100"><ele>48.334995</ele><time>2024-08-01T02:18:16Z</time><name>1423</name><sym>Flag, Blue</sym></wpt><wpt lat="10.339134" lon="123.946119"><ele>25.520546</ele><time>2024-08-01T02:19:42Z</time><name>1424</name><sym>Flag, Blue</sym></wpt><wpt lat="10.339186" lon="123.946090"><ele>28.611984</ele><time>2024-08-01T02:20:06Z</time><name>1425</name><sym>Flag, Blue</sym></wpt><wpt lat="10.339194" lon="123.946122"><time>2024-08-01T02:22:48Z</time><name>1426</name><sym>Flag, Blue</sym></wpt><wpt lat="10.339246" lon="123.946174"><ele>21.280724</ele><time>2024-08-01T02:23:14Z</time><name>1427</name><sym>Flag, Blue</sym></wpt><wpt lat="10.339265" lon="123.946230"><ele>23.178757</ele><time>2024-08-01T02:23:59Z</time><name>1428</name><sym>Flag, Blue</sym></wpt><wpt lat="10.339364" lon="123.946227"><ele>24.085720</ele><time>2024-08-01T02:24:49Z</time><name>1429</name><sym>Flag, Blue</sym></wpt><wpt lat="10.339442" lon="123.946268"><ele>25.456562</ele><time>2024-08-01T02:25:27Z</time><name>1430</name><sym>Flag, Blue</sym></wpt><wpt lat="10.339537" lon="123.946276"><ele>23.844044</ele><time>2024-08-01T02:26:11Z</time><name>1431</name><sym>Flag, Blue</sym></wpt><wpt lat="10.339571" lon="123.946293"><ele>21.421223</ele><time>2024-08-01T02:26:36Z</time><name>1432</name><sym>Flag, Blue</sym></wpt><wpt lat="10.339693" lon="123.946323"><ele>21.752632</ele><time>2024-08-01T02:27:08Z</time><name>1433</name><sym>Flag, Blue</sym></wpt><wpt lat="10.339727" lon="123.946334"><ele>23.078346</ele><time>2024-08-01T02:27:38Z</time><name>1434</name><sym>Flag, Blue</sym></wpt><wpt lat="10.339462" lon="123.946137"><ele>23.262230</ele><time>2024-08-01T02:29:03Z</time><name>1435</name><sym>Flag, Blue</sym></wpt><wpt lat="10.339305" lon="123.946065"><ele>26.434910</ele><time>2024-08-01T02:30:18Z</time><name>1436</name><sym>Flag, Blue</sym></wpt><wpt lat="10.339380" lon="123.945949"><ele>24.807953</ele><time>2024-08-01T02:31:10Z</time><name>1437</name><sym>Flag, Blue</sym></wpt><wpt lat="10.339378" lon="123.945941"><ele>25.054329</ele><time>2024-08-01T02:32:16Z</time><name>1438</name><sym>Flag, Blue</sym></wpt><wpt lat="10.339362" lon="123.945914"><ele>25.869923</ele><time>2024-08-01T02:32:36Z</time><name>1439</name><sym>Flag, Blue</sym></wpt><wpt lat="10.339311" lon="123.945857"><ele>28.603291</ele><time>2024-08-01T02:32:57Z</time><name>1440</name><sym>Flag, Blue</sym></wpt><wpt lat="10.339275" lon="123.945814"><ele>28.565083</ele><time>2024-08-01T02:33:19Z</time><name>1441</name><sym>Flag, Blue</sym></wpt><wpt lat="10.339199" lon="123.945818"><ele>25.342693</ele><time>2024-08-01T02:33:54Z</time><name>1442</name><sym>Flag, Blue</sym></wpt><wpt lat="10.339197" lon="123.945744"><ele>23.363464</ele><time>2024-08-01T02:34:36Z</time><name>1443</name><sym>Flag, Blue</sym></wpt><wpt lat="10.339201" lon="123.945720"><ele>22.823364</ele><time>2024-08-01T02:35:04Z</time><name>1444</name><sym>Flag, Blue</sym></wpt><wpt lat="10.339141" lon="123.945620"><ele>22.673027</ele><time>2024-08-01T02:36:04Z</time><name>1445</name><sym>Flag, Blue</sym></wpt><wpt lat="10.339009" lon="123.945507"><ele>24.502247</ele><time>2024-08-01T02:36:49Z</time><name>1446</name><sym>Flag, Blue</sym></wpt><wpt lat="10.338961" lon="123.945438"><ele>28.368382</ele><time>2024-08-01T02:39:37Z</time><name>1447</name><sym>Flag, Blue</sym></wpt><wpt lat="10.338971" lon="123.945420"><ele>30.726566</ele><time>2024-08-01T02:40:08Z</time><name>1448</name><sym>Flag, Blue</sym></wpt><wpt lat="10.338947" lon="123.945476"><ele>28.891857</ele><time>2024-08-01T02:41:02Z</time><name>1449</name><sym>Flag, Blue</sym></wpt><wpt lat="10.338984" lon="123.945515"><ele>31.344048</ele><time>2024-08-01T02:41:51Z</time><name>1450</name><sym>Flag, Blue</sym></wpt><wpt lat="10.338963" lon="123.945535"><ele>32.035328</ele><time>2024-08-01T02:42:43Z</time><name>1451</name><sym>Flag, Blue</sym></wpt><wpt lat="10.338986" lon="123.945533"><ele>33.476612</ele><time>2024-08-01T02:43:21Z</time><name>1452</name><sym>Flag, Blue</sym></wpt><wpt lat="10.338995" lon="123.945528"><ele>30.543583</ele><time>2024-08-01T02:43:42Z</time><name>1453</name><sym>Flag, Blue</sym></wpt><wpt lat="10.338964" lon="123.945580"><ele>28.898407</ele><time>2024-08-01T02:44:42Z</time><name>1454</name><sym>Flag, Blue</sym></wpt><wpt lat="10.338954" lon="123.945587"><ele>29.563297</ele><time>2024-08-01T02:45:37Z</time><name>1455</name><sym>Flag, Blue</sym></wpt><wpt lat="10.338953" lon="123.945591"><ele>28.065220</ele><time>2024-08-01T02:46:05Z</time><name>1456</name><sym>Flag, Blue</sym></wpt><wpt lat="10.338945" lon="123.945621"><ele>26.899029</ele><time>2024-08-01T02:46:27Z</time><name>1457</name><sym>Flag, Blue</sym></wpt><wpt lat="10.338938" lon="123.945686"><ele>25.496586</ele><time>2024-08-01T02:46:58Z</time><name>1458</name><sym>Flag, Blue</sym></wpt><wpt lat="10.338936" lon="123.945706"><ele>23.784954</ele><time>2024-08-01T02:47:21Z</time><name>1459</name><sym>Flag, Blue</sym></wpt><wpt lat="10.338908" lon="123.945799"><ele>24.022915</ele><time>2024-08-01T02:47:54Z</time><name>1460</name><sym>Flag, Blue</sym></wpt><wpt lat="10.338897" lon="123.945819"><ele>22.173481</ele><time>2024-08-01T02:48:21Z</time><name>1461</name><sym>Flag, Blue</sym></wpt><wpt lat="10.338882" lon="123.945830"><ele>24.169727</ele><time>2024-08-01T02:49:02Z</time><name>1462</name><sym>Flag, Blue</sym></wpt><wpt lat="10.338884" lon="123.945827"><ele>25.402729</ele><time>2024-08-01T02:49:21Z</time><name>1463</name><sym>Flag, Blue</sym></wpt><wpt lat="10.338877" lon="123.945829"><ele>25.767021</ele><time>2024-08-01T02:49:38Z</time><name>1464</name><sym>Flag, Blue</sym></wpt><wpt lat="10.338846" lon="123.945829"><ele>23.236656</ele><time>2024-08-01T02:49:54Z</time><name>1465</name><sym>Flag, Blue</sym></wpt><wpt lat="10.338875" lon="123.945875"><ele>23.108864</ele><time>2024-08-01T02:50:11Z</time><name>1466</name><sym>Flag, Blue</sym></wpt><wpt lat="10.338876" lon="123.945910"><ele>28.307598</ele><time>2024-08-01T02:51:02Z</time><name>1467</name><sym>Flag, Blue</sym></wpt><wpt lat="10.338863" lon="123.945954"><ele>31.200974</ele><time>2024-08-01T02:51:41Z</time><name>1468</name><sym>Flag, Blue</sym></wpt><wpt lat="10.338900" lon="123.945879"><ele>33.923927</ele><time>2024-08-01T02:52:26Z</time><name>1469</name><sym>Flag, Blue</sym></wpt><wpt lat="10.338856" lon="123.945956"><ele>29.591770</ele><time>2024-08-01T02:53:06Z</time><name>1470</name><sym>Flag, Blue</sym></wpt><wpt lat="10.338862" lon="123.946027"><ele>28.911530</ele><time>2024-08-01T02:53:32Z</time><name>1471</name><sym>Flag, Blue</sym></wpt><wpt lat="10.338866" lon="123.946054"><ele>26.449409</ele><time>2024-08-01T02:54:07Z</time><name>1472</name><sym>Flag, Blue</sym></wpt><wpt lat="10.338813" lon="123.946289"><ele>25.547791</ele><time>2024-08-01T02:55:03Z</time><name>1473</name><sym>Flag, Blue</sym></wpt><wpt lat="10.338812" lon="123.946319"><ele>24.671158</ele><time>2024-08-01T02:55:23Z</time><name>1474</name><sym>Flag, Blue</sym></wpt><wpt lat="10.338789" lon="123.946396"><ele>25.713070</ele><time>2024-08-01T02:55:44Z</time><name>1475</name><sym>Flag, Blue</sym></wpt><wpt lat="10.338690" lon="123.946602"><ele>29.722996</ele><time>2024-08-01T02:56:34Z</time><name>1476</name><sym>Flag, Blue</sym></wpt><wpt lat="10.338681" lon="123.946660"><ele>29.542789</ele><time>2024-08-01T02:57:59Z</time><name>1477</name><sym>Flag, Blue</sym></wpt><wpt lat="10.338735" lon="123.946722"><ele>28.541031</ele><time>2024-08-01T02:58:35Z</time><name>1478</name><sym>Flag, Blue</sym></wpt><wpt lat="10.338656" lon="123.946794"><ele>29.650955</ele><time>2024-08-01T02:59:12Z</time><name>1479</name><sym>Flag, Blue</sym></wpt><wpt lat="10.341770" lon="123.947540"><ele>29.063385</ele><time>2024-08-01T03:05:59Z</time><name>1480</name><sym>Flag, Blue</sym></wpt><wpt lat="10.341763" lon="123.947537"><ele>27.153137</ele><time>2024-08-01T03:06:47Z</time><name>1481</name><sym>Flag, Blue</sym></wpt><wpt lat="10.341771" lon="123.947533"><ele>25.835659</ele><time>2024-08-01T03:07:21Z</time><name>1482</name><sym>Flag, Blue</sym></wpt><wpt lat="10.341767" lon="123.947533"><ele>25.340656</ele><time>2024-08-01T03:07:43Z</time><name>1483</name><sym>Flag, Blue</sym></wpt><wpt lat="10.341720" lon="123.947540"><ele>26.453869</ele><time>2024-08-01T03:08:12Z</time><name>1484</name><sym>Flag, Blue</sym></wpt><wpt lat="10.341677" lon="123.947563"><ele>26.749008</ele><time>2024-08-01T03:08:59Z</time><name>1485</name><sym>Flag, Blue</sym></wpt><wpt lat="10.341676" lon="123.947609"><ele>26.630436</ele><time>2024-08-01T03:09:24Z</time><name>1486</name><sym>Flag, Blue</sym></wpt><wpt lat="10.341695" lon="123.947634"><ele>28.465206</ele><time>2024-08-01T03:09:45Z</time><name>1487</name><sym>Flag, Blue</sym></wpt><wpt lat="10.341753" lon="123.947641"><ele>26.250248</ele><time>2024-08-01T03:10:11Z</time><name>1488</name><sym>Flag, Blue</sym></wpt><wpt lat="10.341756" lon="123.947648"><ele>25.780544</ele><time>2024-08-01T03:10:21Z</time><name>1489</name><sym>Flag, Blue</sym></wpt><wpt lat="10.341776" lon="123.947675"><ele>25.822437</ele><time>2024-08-01T03:10:37Z</time><name>1490</name><sym>Flag, Blue</sym></wpt><wpt lat="10.341775" lon="123.947680"><ele>26.422192</ele><time>2024-08-01T03:10:51Z</time><name>1491</name><sym>Flag, Blue</sym></wpt><wpt lat="10.341780" lon="123.947692"><ele>27.790714</ele><time>2024-08-01T03:11:48Z</time><name>1492</name><sym>Flag, Blue</sym></wpt><wpt lat="10.341783" lon="123.947725"><ele>27.527622</ele><time>2024-08-01T03:12:05Z</time><name>1493</name><sym>Flag, Blue</sym></wpt><wpt lat="10.341783" lon="123.947722"><time>2024-08-01T03:13:33Z</time><name>1494</name><sym>Flag, Blue</sym></wpt><wpt lat="10.341756" lon="123.947740"><ele>28.708729</ele><time>2024-08-01T03:14:08Z</time><name>1495</name><sym>Flag, Blue</sym></wpt><wpt lat="10.341748" lon="123.947730"><ele>29.888107</ele><time>2024-08-01T03:14:24Z</time><name>1496</name><sym>Flag, Blue</sym></wpt><wpt lat="10.341717" lon="123.947716"><ele>28.618286</ele><time>2024-08-01T03:14:38Z</time><name>1497</name><sym>Flag, Blue</sym></wpt><wpt lat="10.341698" lon="123.947685"><ele>26.849701</ele><time>2024-08-01T03:14:55Z</time><name>1498</name><sym>Flag, Blue</sym></wpt><wpt lat="10.341675" lon="123.947686"><ele>24.927544</ele><time>2024-08-01T03:15:14Z</time><name>1499</name><sym>Flag, Blue</sym></wpt><wpt lat="10.341599" lon="123.947675"><ele>26.468834</ele><time>2024-08-01T03:16:04Z</time><name>1500</name><sym>Flag, Blue</sym></wpt></gpx>