<?xml version="1.0" encoding="UTF-8"?>
<kml xmlns="http://www.opengis.net/kml/2.2" xmlns:gx="http://www.google.com/kml/ext/2.2" xmlns:kml="http://www.opengis.net/kml/2.2" xmlns:atom="http://www.w3.org/2005/Atom">
<Document>
	<name>GPS device</name>
	<open>1</open>
	<snippet>Created Thu Oct 10 09:24:48 2024</snippet>
	<LookAt>
		<gx:TimeSpan>
			<begin>2024-10-09T01:07:37Z</begin>
			<end>2024-10-09T05:58:15Z</end>
		</gx:TimeSpan>
		<longitude>123.940945</longitude>
		<latitude>10.33645</latitude>
		<altitude>0</altitude>
		<heading>0</heading>
		<tilt>0</tilt>
		<range>7236.065394</range>
	</LookAt>
	<StyleMap id="waypoint">
		<Pair>
			<key>normal</key>
			<styleUrl>#waypoint_n</styleUrl>
		</Pair>
		<Pair>
			<key>highlight</key>
			<styleUrl>#waypoint_h</styleUrl>
		</Pair>
	</StyleMap>
	<Style id="waypoint_h">
		<IconStyle>
			<scale>1.2</scale>
			<Icon>
				<href>https://maps.google.com/mapfiles/kml/pal4/icon61.png</href>
			</Icon>
		</IconStyle>
	</Style>
	<Style id="waypoint_n">
		<IconStyle>
			<Icon>
				<href>https://maps.google.com/mapfiles/kml/pal4/icon61.png</href>
			</Icon>
		</IconStyle>
	</Style>
	<Folder>
		<name>Waypoints</name>
		<open>1</open>
		<Placemark>
			<name>621</name>
			<TimeStamp><when>2024-10-09T01:47:53Z</when>
</TimeStamp>
			<styleUrl>#waypoint</styleUrl>
			<Point>
				<coordinates>123.925421,10.319928,21.98</coordinates>
			</Point>
		</Placemark>
		<Placemark>
			<name>622</name>
			<TimeStamp><when>2024-10-09T01:48:33Z</when>
</TimeStamp>
			<styleUrl>#waypoint</styleUrl>
			<Point>
				<coordinates>123.925382,10.320005,20.67</coordinates>
			</Point>
		</Placemark>
		<Placemark>
			<name>623</name>
			<TimeStamp><when>2024-10-09T01:50:05Z</when>
</TimeStamp>
			<styleUrl>#waypoint</styleUrl>
			<Point>
				<coordinates>123.924972,10.320456,22.36</coordinates>
			</Point>
		</Placemark>
		<Placemark>
			<name>624</name>
			<TimeStamp><when>2024-10-09T01:50:34Z</when>
</TimeStamp>
			<styleUrl>#waypoint</styleUrl>
			<Point>
				<coordinates>123.924898,10.320547,22.39</coordinates>
			</Point>
		</Placemark>
		<Placemark>
			<name>625</name>
			<TimeStamp><when>2024-10-09T01:52:13Z</when>
</TimeStamp>
			<styleUrl>#waypoint</styleUrl>
			<Point>
				<coordinates>123.924518,10.320963,23</coordinates>
			</Point>
		</Placemark>
		<Placemark>
			<name>626</name>
			<TimeStamp><when>2024-10-09T01:52:18Z</when>
</TimeStamp>
			<styleUrl>#waypoint</styleUrl>
			<Point>
				<coordinates>123.92452,10.320966,22.98</coordinates>
			</Point>
		</Placemark>
		<Placemark>
			<name>627</name>
			<TimeStamp><when>2024-10-09T01:53:23Z</when>
</TimeStamp>
			<styleUrl>#waypoint</styleUrl>
			<Point>
				<coordinates>123.924231,10.321342,23.28</coordinates>
			</Point>
		</Placemark>
		<Placemark>
			<name>628</name>
			<TimeStamp><when>2024-10-09T01:55:40Z</when>
</TimeStamp>
			<styleUrl>#waypoint</styleUrl>
			<Point>
				<coordinates>123.92452,10.320967,25.83</coordinates>
			</Point>
		</Placemark>
		<Placemark>
			<name>629</name>
			<TimeStamp><when>2024-10-09T01:56:07Z</when>
</TimeStamp>
			<styleUrl>#waypoint</styleUrl>
			<Point>
				<coordinates>123.924208,10.321382,23.68</coordinates>
			</Point>
		</Placemark>
		<Placemark>
			<name>630</name>
			<TimeStamp><when>2024-10-09T01:56:34Z</when>
</TimeStamp>
			<styleUrl>#waypoint</styleUrl>
			<Point>
				<coordinates>123.924169,10.321421,20.89</coordinates>
			</Point>
		</Placemark>
		<Placemark>
			<name>631</name>
			<TimeStamp><when>2024-10-09T01:57:06Z</when>
</TimeStamp>
			<styleUrl>#waypoint</styleUrl>
			<Point>
				<coordinates>123.924121,10.321512,19.73</coordinates>
			</Point>
		</Placemark>
		<Placemark>
			<name>632</name>
			<TimeStamp><when>2024-10-09T01:57:23Z</when>
</TimeStamp>
			<styleUrl>#waypoint</styleUrl>
			<Point>
				<coordinates>123.924102,10.321523,18.66</coordinates>
			</Point>
		</Placemark>
		<Placemark>
			<name>633</name>
			<TimeStamp><when>2024-10-09T01:58:02Z</when>
</TimeStamp>
			<styleUrl>#waypoint</styleUrl>
			<Point>
				<coordinates>123.92394,10.321737,18.38</coordinates>
			</Point>
		</Placemark>
		<Placemark>
			<name>634</name>
			<TimeStamp><when>2024-10-09T01:58:49Z</when>
</TimeStamp>
			<styleUrl>#waypoint</styleUrl>
			<Point>
				<coordinates>123.923855,10.321755,18.62</coordinates>
			</Point>
		</Placemark>
		<Placemark>
			<name>635</name>
			<TimeStamp><when>2024-10-09T02:01:39Z</when>
</TimeStamp>
			<styleUrl>#waypoint</styleUrl>
			<Point>
				<coordinates>123.923721,10.322205,18.62</coordinates>
			</Point>
		</Placemark>
		<Placemark>
			<name>636</name>
			<TimeStamp><when>2024-10-09T02:01:59Z</when>
</TimeStamp>
			<styleUrl>#waypoint</styleUrl>
			<Point>
				<coordinates>123.923725,10.322196,18.71</coordinates>
			</Point>
		</Placemark>
		<Placemark>
			<name>637</name>
			<TimeStamp><when>2024-10-09T02:02:26Z</when>
</TimeStamp>
			<styleUrl>#waypoint</styleUrl>
			<Point>
				<coordinates>123.923771,10.322148,18.5</coordinates>
			</Point>
		</Placemark>
		<Placemark>
			<name>638</name>
			<TimeStamp><when>2024-10-09T02:02:40Z</when>
</TimeStamp>
			<styleUrl>#waypoint</styleUrl>
			<Point>
				<coordinates>123.923786,10.322146,19.12</coordinates>
			</Point>
		</Placemark>
		<Placemark>
			<name>639</name>
			<TimeStamp><when>2024-10-09T02:02:56Z</when>
</TimeStamp>
			<styleUrl>#waypoint</styleUrl>
			<Point>
				<coordinates>123.923806,10.322133,19.3</coordinates>
			</Point>
		</Placemark>
		<Placemark>
			<name>640</name>
			<TimeStamp><when>2024-10-09T02:03:18Z</when>
</TimeStamp>
			<styleUrl>#waypoint</styleUrl>
			<Point>
				<coordinates>123.923835,10.322107,18.59</coordinates>
			</Point>
		</Placemark>
		<Placemark>
			<name>641</name>
			<TimeStamp><when>2024-10-09T02:03:39Z</when>
</TimeStamp>
			<styleUrl>#waypoint</styleUrl>
			<Point>
				<coordinates>123.923894,10.322075,18.7</coordinates>
			</Point>
		</Placemark>
		<Placemark>
			<name>642</name>
			<TimeStamp><when>2024-10-09T02:03:57Z</when>
</TimeStamp>
			<styleUrl>#waypoint</styleUrl>
			<Point>
				<coordinates>123.923826,10.322134,18.1</coordinates>
			</Point>
		</Placemark>
		<Placemark>
			<name>643</name>
			<TimeStamp><when>2024-10-09T02:04:09Z</when>
</TimeStamp>
			<styleUrl>#waypoint</styleUrl>
			<Point>
				<coordinates>123.923867,10.322141,18.24</coordinates>
			</Point>
		</Placemark>
		<Placemark>
			<name>644</name>
			<TimeStamp><when>2024-10-09T02:04:34Z</when>
</TimeStamp>
			<styleUrl>#waypoint</styleUrl>
			<Point>
				<coordinates>123.923936,10.322078,18.41</coordinates>
			</Point>
		</Placemark>
		<Placemark>
			<name>645</name>
			<TimeStamp><when>2024-10-09T02:05:14Z</when>
</TimeStamp>
			<styleUrl>#waypoint</styleUrl>
			<Point>
				<coordinates>123.923939,10.322206,18.74</coordinates>
			</Point>
		</Placemark>
		<Placemark>
			<name>646</name>
			<TimeStamp><when>2024-10-09T02:05:24Z</when>
</TimeStamp>
			<styleUrl>#waypoint</styleUrl>
			<Point>
				<coordinates>123.923945,10.322208,18.87</coordinates>
			</Point>
		</Placemark>
		<Placemark>
			<name>647</name>
			<TimeStamp><when>2024-10-09T02:06:13Z</when>
</TimeStamp>
			<styleUrl>#waypoint</styleUrl>
			<Point>
				<coordinates>123.923947,10.322129,18.73</coordinates>
			</Point>
		</Placemark>
		<Placemark>
			<name>648</name>
			<TimeStamp><when>2024-10-09T02:06:20Z</when>
</TimeStamp>
			<styleUrl>#waypoint</styleUrl>
			<Point>
				<coordinates>123.923943,10.322123,18.73</coordinates>
			</Point>
		</Placemark>
		<Placemark>
			<name>649</name>
			<TimeStamp><when>2024-10-09T02:06:53Z</when>
</TimeStamp>
			<styleUrl>#waypoint</styleUrl>
			<Point>
				<coordinates>123.92393,10.322071,18.16</coordinates>
			</Point>
		</Placemark>
		<Placemark>
			<name>650</name>
			<TimeStamp><when>2024-10-09T02:07:03Z</when>
</TimeStamp>
			<styleUrl>#waypoint</styleUrl>
			<Point>
				<coordinates>123.923977,10.322071,18.53</coordinates>
			</Point>
		</Placemark>
		<Placemark>
			<name>651</name>
			<TimeStamp><when>2024-10-09T02:07:15Z</when>
</TimeStamp>
			<styleUrl>#waypoint</styleUrl>
			<Point>
				<coordinates>123.923996,10.32206,18.26</coordinates>
			</Point>
		</Placemark>
		<Placemark>
			<name>652</name>
			<TimeStamp><when>2024-10-09T02:07:32Z</when>
</TimeStamp>
			<styleUrl>#waypoint</styleUrl>
			<Point>
				<coordinates>123.923981,10.322052,18.86</coordinates>
			</Point>
		</Placemark>
		<Placemark>
			<name>653</name>
			<TimeStamp><when>2024-10-09T02:07:42Z</when>
</TimeStamp>
			<styleUrl>#waypoint</styleUrl>
			<Point>
				<coordinates>123.923996,10.322041,18.45</coordinates>
			</Point>
		</Placemark>
		<Placemark>
			<name>654</name>
			<TimeStamp><when>2024-10-09T02:08:04Z</when>
</TimeStamp>
			<styleUrl>#waypoint</styleUrl>
			<Point>
				<coordinates>123.924007,10.322038,18.16</coordinates>
			</Point>
		</Placemark>
		<Placemark>
			<name>655</name>
			<TimeStamp><when>2024-10-09T02:08:18Z</when>
</TimeStamp>
			<styleUrl>#waypoint</styleUrl>
			<Point>
				<coordinates>123.924035,10.322067,18.05</coordinates>
			</Point>
		</Placemark>
		<Placemark>
			<name>656</name>
			<TimeStamp><when>2024-10-09T02:08:24Z</when>
</TimeStamp>
			<styleUrl>#waypoint</styleUrl>
			<Point>
				<coordinates>123.924039,10.322065,18.04</coordinates>
			</Point>
		</Placemark>
		<Placemark>
			<name>657</name>
			<TimeStamp><when>2024-10-09T02:08:42Z</when>
</TimeStamp>
			<styleUrl>#waypoint</styleUrl>
			<Point>
				<coordinates>123.9241,10.322016,17.52</coordinates>
			</Point>
		</Placemark>
		<Placemark>
			<name>658</name>
			<TimeStamp><when>2024-10-09T02:09:14Z</when>
</TimeStamp>
			<styleUrl>#waypoint</styleUrl>
			<Point>
				<coordinates>123.924154,10.321921,17.03</coordinates>
			</Point>
		</Placemark>
		<Placemark>
			<name>659</name>
			<TimeStamp><when>2024-10-09T02:09:34Z</when>
</TimeStamp>
			<styleUrl>#waypoint</styleUrl>
			<Point>
				<coordinates>123.924154,10.321884,17.89</coordinates>
			</Point>
		</Placemark>
		<Placemark>
			<name>660</name>
			<TimeStamp><when>2024-10-09T02:09:51Z</when>
</TimeStamp>
			<styleUrl>#waypoint</styleUrl>
			<Point>
				<coordinates>123.924163,10.32185,17.39</coordinates>
			</Point>
		</Placemark>
		<Placemark>
			<name>661</name>
			<TimeStamp><when>2024-10-09T02:09:58Z</when>
</TimeStamp>
			<styleUrl>#waypoint</styleUrl>
			<Point>
				<coordinates>123.924163,10.321844,17.45</coordinates>
			</Point>
		</Placemark>
		<Placemark>
			<name>662</name>
			<TimeStamp><when>2024-10-09T02:10:22Z</when>
</TimeStamp>
			<styleUrl>#waypoint</styleUrl>
			<Point>
				<coordinates>123.924186,10.321811,18.2</coordinates>
			</Point>
		</Placemark>
		<Placemark>
			<name>663</name>
			<TimeStamp><when>2024-10-09T02:10:36Z</when>
</TimeStamp>
			<styleUrl>#waypoint</styleUrl>
			<Point>
				<coordinates>123.924178,10.321821,17.61</coordinates>
			</Point>
		</Placemark>
		<Placemark>
			<name>664</name>
			<TimeStamp><when>2024-10-09T02:10:49Z</when>
</TimeStamp>
			<styleUrl>#waypoint</styleUrl>
			<Point>
				<coordinates>123.924192,10.321794,18.11</coordinates>
			</Point>
		</Placemark>
		<Placemark>
			<name>665</name>
			<TimeStamp><when>2024-10-09T02:11:04Z</when>
</TimeStamp>
			<styleUrl>#waypoint</styleUrl>
			<Point>
				<coordinates>123.924199,10.321767,17.09</coordinates>
			</Point>
		</Placemark>
		<Placemark>
			<name>666</name>
			<TimeStamp><when>2024-10-09T02:11:43Z</when>
</TimeStamp>
			<styleUrl>#waypoint</styleUrl>
			<Point>
				<coordinates>123.924288,10.32164,17.54</coordinates>
			</Point>
		</Placemark>
		<Placemark>
			<name>667</name>
			<TimeStamp><when>2024-10-09T02:11:59Z</when>
</TimeStamp>
			<styleUrl>#waypoint</styleUrl>
			<Point>
				<coordinates>123.924307,10.321651,17.87</coordinates>
			</Point>
		</Placemark>
		<Placemark>
			<name>668</name>
			<TimeStamp><when>2024-10-09T02:12:08Z</when>
</TimeStamp>
			<styleUrl>#waypoint</styleUrl>
			<Point>
				<coordinates>123.92432,10.321651,17.63</coordinates>
			</Point>
		</Placemark>
		<Placemark>
			<name>669</name>
			<TimeStamp><when>2024-10-09T02:12:19Z</when>
</TimeStamp>
			<styleUrl>#waypoint</styleUrl>
			<Point>
				<coordinates>123.924324,10.321624,17.5</coordinates>
			</Point>
		</Placemark>
		<Placemark>
			<name>670</name>
			<TimeStamp><when>2024-10-09T02:12:25Z</when>
</TimeStamp>
			<styleUrl>#waypoint</styleUrl>
			<Point>
				<coordinates>123.924322,10.321622,17.32</coordinates>
			</Point>
		</Placemark>
		<Placemark>
			<name>671</name>
			<TimeStamp><when>2024-10-09T02:12:42Z</when>
</TimeStamp>
			<styleUrl>#waypoint</styleUrl>
			<Point>
				<coordinates>123.924317,10.321621,18.27</coordinates>
			</Point>
		</Placemark>
		<Placemark>
			<name>672</name>
			<TimeStamp><when>2024-10-09T02:12:57Z</when>
</TimeStamp>
			<styleUrl>#waypoint</styleUrl>
			<Point>
				<coordinates>123.92434,10.321599,17.6</coordinates>
			</Point>
		</Placemark>
		<Placemark>
			<name>673</name>
			<TimeStamp><when>2024-10-09T02:13:16Z</when>
</TimeStamp>
			<styleUrl>#waypoint</styleUrl>
			<Point>
				<coordinates>123.924367,10.321572,18.18</coordinates>
			</Point>
		</Placemark>
		<Placemark>
			<name>674</name>
			<TimeStamp><when>2024-10-09T02:13:31Z</when>
</TimeStamp>
			<styleUrl>#waypoint</styleUrl>
			<Point>
				<coordinates>123.924363,10.321582,17.87</coordinates>
			</Point>
		</Placemark>
		<Placemark>
			<name>675</name>
			<TimeStamp><when>2024-10-09T02:13:41Z</when>
</TimeStamp>
			<styleUrl>#waypoint</styleUrl>
			<Point>
				<coordinates>123.924377,10.321577,17.44</coordinates>
			</Point>
		</Placemark>
		<Placemark>
			<name>676</name>
			<TimeStamp><when>2024-10-09T02:14:00Z</when>
</TimeStamp>
			<styleUrl>#waypoint</styleUrl>
			<Point>
				<coordinates>123.924388,10.321551,17.59</coordinates>
			</Point>
		</Placemark>
		<Placemark>
			<name>677</name>
			<TimeStamp><when>2024-10-09T02:14:10Z</when>
</TimeStamp>
			<styleUrl>#waypoint</styleUrl>
			<Point>
				<coordinates>123.924405,10.321557,17.79</coordinates>
			</Point>
		</Placemark>
		<Placemark>
			<name>678</name>
			<TimeStamp><when>2024-10-09T02:14:19Z</when>
</TimeStamp>
			<styleUrl>#waypoint</styleUrl>
			<Point>
				<coordinates>123.9244,10.321539,17.82</coordinates>
			</Point>
		</Placemark>
		<Placemark>
			<name>679</name>
			<TimeStamp><when>2024-10-09T02:14:39Z</when>
</TimeStamp>
			<styleUrl>#waypoint</styleUrl>
			<Point>
				<coordinates>123.924402,10.321535,18.13</coordinates>
			</Point>
		</Placemark>
		<Placemark>
			<name>680</name>
			<TimeStamp><when>2024-10-09T02:14:52Z</when>
</TimeStamp>
			<styleUrl>#waypoint</styleUrl>
			<Point>
				<coordinates>123.924431,10.321507,17.25</coordinates>
			</Point>
		</Placemark>
		<Placemark>
			<name>681</name>
			<TimeStamp><when>2024-10-09T02:15:03Z</when>
</TimeStamp>
			<styleUrl>#waypoint</styleUrl>
			<Point>
				<coordinates>123.92445,10.321529,17.73</coordinates>
			</Point>
		</Placemark>
		<Placemark>
			<name>682</name>
			<TimeStamp><when>2024-10-09T02:15:23Z</when>
</TimeStamp>
			<styleUrl>#waypoint</styleUrl>
			<Point>
				<coordinates>123.924446,10.321532,17.56</coordinates>
			</Point>
		</Placemark>
		<Placemark>
			<name>683</name>
			<TimeStamp><when>2024-10-09T02:15:39Z</when>
</TimeStamp>
			<styleUrl>#waypoint</styleUrl>
			<Point>
				<coordinates>123.924452,10.321484,17.61</coordinates>
			</Point>
		</Placemark>
		<Placemark>
			<name>684</name>
			<TimeStamp><when>2024-10-09T02:15:51Z</when>
</TimeStamp>
			<styleUrl>#waypoint</styleUrl>
			<Point>
				<coordinates>123.924444,10.321475,17.6</coordinates>
			</Point>
		</Placemark>
		<Placemark>
			<name>685</name>
			<TimeStamp><when>2024-10-09T02:16:07Z</when>
</TimeStamp>
			<styleUrl>#waypoint</styleUrl>
			<Point>
				<coordinates>123.924463,10.321453,17.9</coordinates>
			</Point>
		</Placemark>
		<Placemark>
			<name>686</name>
			<TimeStamp><when>2024-10-09T02:16:18Z</when>
</TimeStamp>
			<styleUrl>#waypoint</styleUrl>
			<Point>
				<coordinates>123.924459,10.321462,17.38</coordinates>
			</Point>
		</Placemark>
		<Placemark>
			<name>687</name>
			<TimeStamp><when>2024-10-09T02:16:27Z</when>
</TimeStamp>
			<styleUrl>#waypoint</styleUrl>
			<Point>
				<coordinates>123.924476,10.321472,17.82</coordinates>
			</Point>
		</Placemark>
		<Placemark>
			<name>688</name>
			<TimeStamp><when>2024-10-09T02:16:43Z</when>
</TimeStamp>
			<styleUrl>#waypoint</styleUrl>
			<Point>
				<coordinates>123.924507,10.321486,18.15</coordinates>
			</Point>
		</Placemark>
		<Placemark>
			<name>689</name>
			<TimeStamp><when>2024-10-09T02:16:49Z</when>
</TimeStamp>
			<styleUrl>#waypoint</styleUrl>
			<Point>
				<coordinates>123.924512,10.321484,18.09</coordinates>
			</Point>
		</Placemark>
		<Placemark>
			<name>690</name>
			<TimeStamp><when>2024-10-09T02:17:34Z</when>
</TimeStamp>
			<styleUrl>#waypoint</styleUrl>
			<Point>
				<coordinates>123.924561,10.321337,17.89</coordinates>
			</Point>
		</Placemark>
		<Placemark>
			<name>691</name>
			<TimeStamp><when>2024-10-09T02:17:41Z</when>
</TimeStamp>
			<styleUrl>#waypoint</styleUrl>
			<Point>
				<coordinates>123.924583,10.321331,18.31</coordinates>
			</Point>
		</Placemark>
		<Placemark>
			<name>692</name>
			<TimeStamp><when>2024-10-09T02:18:03Z</when>
</TimeStamp>
			<styleUrl>#waypoint</styleUrl>
			<Point>
				<coordinates>123.92461,10.321304,18.19</coordinates>
			</Point>
		</Placemark>
		<Placemark>
			<name>693</name>
			<TimeStamp><when>2024-10-09T02:18:15Z</when>
</TimeStamp>
			<styleUrl>#waypoint</styleUrl>
			<Point>
				<coordinates>123.924621,10.321287,18.02</coordinates>
			</Point>
		</Placemark>
		<Placemark>
			<name>694</name>
			<TimeStamp><when>2024-10-09T02:18:25Z</when>
</TimeStamp>
			<styleUrl>#waypoint</styleUrl>
			<Point>
				<coordinates>123.924617,10.321286,18.19</coordinates>
			</Point>
		</Placemark>
		<Placemark>
			<name>695</name>
			<TimeStamp><when>2024-10-09T02:18:44Z</when>
</TimeStamp>
			<styleUrl>#waypoint</styleUrl>
			<Point>
				<coordinates>123.92463,10.321286,18.15</coordinates>
			</Point>
		</Placemark>
		<Placemark>
			<name>696</name>
			<TimeStamp><when>2024-10-09T02:18:55Z</when>
</TimeStamp>
			<styleUrl>#waypoint</styleUrl>
			<Point>
				<coordinates>123.924619,10.321285,18.13</coordinates>
			</Point>
		</Placemark>
		<Placemark>
			<name>697</name>
			<TimeStamp><when>2024-10-09T02:19:33Z</when>
</TimeStamp>
			<styleUrl>#waypoint</styleUrl>
			<Point>
				<coordinates>123.924615,10.321281,18</coordinates>
			</Point>
		</Placemark>
		<Placemark>
			<name>698</name>
			<TimeStamp><when>2024-10-09T02:19:48Z</when>
</TimeStamp>
			<styleUrl>#waypoint</styleUrl>
			<Point>
				<coordinates>123.924655,10.321246,18.26</coordinates>
			</Point>
		</Placemark>
		<Placemark>
			<name>699</name>
			<TimeStamp><when>2024-10-09T02:20:28Z</when>
</TimeStamp>
			<styleUrl>#waypoint</styleUrl>
			<Point>
				<coordinates>123.924727,10.321152,17.88</coordinates>
			</Point>
		</Placemark>
		<Placemark>
			<name>700</name>
			<TimeStamp><when>2024-10-09T02:20:43Z</when>
</TimeStamp>
			<styleUrl>#waypoint</styleUrl>
			<Point>
				<coordinates>123.924752,10.321148,18.02</coordinates>
			</Point>
		</Placemark>
		<Placemark>
			<name>701</name>
			<TimeStamp><when>2024-10-09T02:21:09Z</when>
</TimeStamp>
			<styleUrl>#waypoint</styleUrl>
			<Point>
				<coordinates>123.924796,10.321118,17.42</coordinates>
			</Point>
		</Placemark>
		<Placemark>
			<name>702</name>
			<TimeStamp><when>2024-10-09T02:21:52Z</when>
</TimeStamp>
			<styleUrl>#waypoint</styleUrl>
			<Point>
				<coordinates>123.924937,10.321088,18.01</coordinates>
			</Point>
		</Placemark>
		<Placemark>
			<name>703</name>
			<TimeStamp><when>2024-10-09T02:22:03Z</when>
</TimeStamp>
			<styleUrl>#waypoint</styleUrl>
			<Point>
				<coordinates>123.924984,10.321094,17.93</coordinates>
			</Point>
		</Placemark>
		<Placemark>
			<name>704</name>
			<TimeStamp><when>2024-10-09T02:22:32Z</when>
</TimeStamp>
			<styleUrl>#waypoint</styleUrl>
			<Point>
				<coordinates>123.924881,10.320997,17.97</coordinates>
			</Point>
		</Placemark>
		<Placemark>
			<name>705</name>
			<TimeStamp><when>2024-10-09T02:28:14Z</when>
</TimeStamp>
			<styleUrl>#waypoint</styleUrl>
			<Point>
				<coordinates>123.92491,10.320982,18.37</coordinates>
			</Point>
		</Placemark>
		<Placemark>
			<name>706</name>
			<TimeStamp><when>2024-10-09T02:28:39Z</when>
</TimeStamp>
			<styleUrl>#waypoint</styleUrl>
			<Point>
				<coordinates>123.924889,10.320948,16.01</coordinates>
			</Point>
		</Placemark>
		<Placemark>
			<name>707</name>
			<TimeStamp><when>2024-10-09T02:28:43Z</when>
</TimeStamp>
			<styleUrl>#waypoint</styleUrl>
			<Point>
				<coordinates>123.92491,10.320929,15.75</coordinates>
			</Point>
		</Placemark>
		<Placemark>
			<name>708</name>
			<TimeStamp><when>2024-10-09T02:28:59Z</when>
</TimeStamp>
			<styleUrl>#waypoint</styleUrl>
			<Point>
				<coordinates>123.92485,10.320956,15.53</coordinates>
			</Point>
		</Placemark>
		<Placemark>
			<name>709</name>
			<TimeStamp><when>2024-10-09T02:29:09Z</when>
</TimeStamp>
			<styleUrl>#waypoint</styleUrl>
			<Point>
				<coordinates>123.924819,10.320955,15.17</coordinates>
			</Point>
		</Placemark>
		<Placemark>
			<name>710</name>
			<TimeStamp><when>2024-10-09T02:29:51Z</when>
</TimeStamp>
			<styleUrl>#waypoint</styleUrl>
			<Point>
				<coordinates>123.924816,10.320946,15.85</coordinates>
			</Point>
		</Placemark>
		<Placemark>
			<name>711</name>
			<TimeStamp><when>2024-10-09T02:31:26Z</when>
</TimeStamp>
			<styleUrl>#waypoint</styleUrl>
			<Point>
				<coordinates>123.925238,10.320973,14.98</coordinates>
			</Point>
		</Placemark>
		<Placemark>
			<name>712</name>
			<TimeStamp><when>2024-10-09T02:32:00Z</when>
</TimeStamp>
			<styleUrl>#waypoint</styleUrl>
			<Point>
				<coordinates>123.925248,10.320838,15.31</coordinates>
			</Point>
		</Placemark>
		<Placemark>
			<name>713</name>
			<TimeStamp><when>2024-10-09T02:32:13Z</when>
</TimeStamp>
			<styleUrl>#waypoint</styleUrl>
			<Point>
				<coordinates>123.925257,10.320834,15.92</coordinates>
			</Point>
		</Placemark>
		<Placemark>
			<name>714</name>
			<TimeStamp><when>2024-10-09T02:32:46Z</when>
</TimeStamp>
			<styleUrl>#waypoint</styleUrl>
			<Point>
				<coordinates>123.925221,10.320728,15.76</coordinates>
			</Point>
		</Placemark>
		<Placemark>
			<name>715</name>
			<TimeStamp><when>2024-10-09T02:33:04Z</when>
</TimeStamp>
			<styleUrl>#waypoint</styleUrl>
			<Point>
				<coordinates>123.92527,10.32075,15.81</coordinates>
			</Point>
		</Placemark>
		<Placemark>
			<name>716</name>
			<TimeStamp><when>2024-10-09T02:33:44Z</when>
</TimeStamp>
			<styleUrl>#waypoint</styleUrl>
			<Point>
				<coordinates>123.925249,10.320936,15.29</coordinates>
			</Point>
		</Placemark>
		<Placemark>
			<name>717</name>
			<TimeStamp><when>2024-10-09T02:33:49Z</when>
</TimeStamp>
			<styleUrl>#waypoint</styleUrl>
			<Point>
				<coordinates>123.925258,10.320931,15.28</coordinates>
			</Point>
		</Placemark>
		<Placemark>
			<name>718</name>
			<TimeStamp><when>2024-10-09T02:34:01Z</when>
</TimeStamp>
			<styleUrl>#waypoint</styleUrl>
			<Point>
				<coordinates>123.925226,10.320964,15.53</coordinates>
			</Point>
		</Placemark>
		<Placemark>
			<name>719</name>
			<TimeStamp><when>2024-10-09T02:34:51Z</when>
</TimeStamp>
			<styleUrl>#waypoint</styleUrl>
			<Point>
				<coordinates>123.925303,10.321216,16.05</coordinates>
			</Point>
		</Placemark>
		<Placemark>
			<name>720</name>
			<TimeStamp><when>2024-10-09T02:35:03Z</when>
</TimeStamp>
			<styleUrl>#waypoint</styleUrl>
			<Point>
				<coordinates>123.925299,10.321222,15.69</coordinates>
			</Point>
		</Placemark>
		<Placemark>
			<name>721</name>
			<TimeStamp><when>2024-10-09T02:35:24Z</when>
</TimeStamp>
			<styleUrl>#waypoint</styleUrl>
			<Point>
				<coordinates>123.925337,10.321261,16.17</coordinates>
			</Point>
		</Placemark>
		<Placemark>
			<name>722</name>
			<TimeStamp><when>2024-10-09T02:35:28Z</when>
</TimeStamp>
			<styleUrl>#waypoint</styleUrl>
			<Point>
				<coordinates>123.92534,10.321258,16.15</coordinates>
			</Point>
		</Placemark>
		<Placemark>
			<name>723</name>
			<TimeStamp><when>2024-10-09T02:48:06Z</when>
</TimeStamp>
			<styleUrl>#waypoint</styleUrl>
			<Point>
				<coordinates>123.925569,10.321319,17.02</coordinates>
			</Point>
		</Placemark>
		<Placemark>
			<name>724</name>
			<TimeStamp><when>2024-10-09T02:48:13Z</when>
</TimeStamp>
			<styleUrl>#waypoint</styleUrl>
			<Point>
				<coordinates>123.925575,10.32132,17.71</coordinates>
			</Point>
		</Placemark>
		<Placemark>
			<name>725</name>
			<TimeStamp><when>2024-10-09T02:48:34Z</when>
</TimeStamp>
			<styleUrl>#waypoint</styleUrl>
			<Point>
				<coordinates>123.925587,10.321245,16.58</coordinates>
			</Point>
		</Placemark>
		<Placemark>
			<name>726</name>
			<TimeStamp><when>2024-10-09T02:49:07Z</when>
</TimeStamp>
			<styleUrl>#waypoint</styleUrl>
			<Point>
				<coordinates>123.92564,10.321138,17.18</coordinates>
			</Point>
		</Placemark>
		<Placemark>
			<name>727</name>
			<TimeStamp><when>2024-10-09T02:49:30Z</when>
</TimeStamp>
			<styleUrl>#waypoint</styleUrl>
			<Point>
				<coordinates>123.925638,10.321121,16.87</coordinates>
			</Point>
		</Placemark>
		<Placemark>
			<name>728</name>
			<TimeStamp><when>2024-10-09T02:49:53Z</when>
</TimeStamp>
			<styleUrl>#waypoint</styleUrl>
			<Point>
				<coordinates>123.925675,10.32111,16.97</coordinates>
			</Point>
		</Placemark>
		<Placemark>
			<name>729</name>
			<TimeStamp><when>2024-10-09T02:50:01Z</when>
</TimeStamp>
			<styleUrl>#waypoint</styleUrl>
			<Point>
				<coordinates>123.925684,10.321106,17.22</coordinates>
			</Point>
		</Placemark>
		<Placemark>
			<name>730</name>
			<TimeStamp><when>2024-10-09T02:50:13Z</when>
</TimeStamp>
			<styleUrl>#waypoint</styleUrl>
			<Point>
				<coordinates>123.925673,10.321066,17.06</coordinates>
			</Point>
		</Placemark>
		<Placemark>
			<name>731</name>
			<TimeStamp><when>2024-10-09T02:50:21Z</when>
</TimeStamp>
			<styleUrl>#waypoint</styleUrl>
			<Point>
				<coordinates>123.925697,10.32107,16.6</coordinates>
			</Point>
		</Placemark>
		<Placemark>
			<name>732</name>
			<TimeStamp><when>2024-10-09T03:35:12Z</when>
</TimeStamp>
			<styleUrl>#waypoint</styleUrl>
			<Point>
				<coordinates>123.923915,10.322452,21.48</coordinates>
			</Point>
		</Placemark>
		<Placemark>
			<name>733</name>
			<TimeStamp><when>2024-10-09T03:38:55Z</when>
</TimeStamp>
			<styleUrl>#waypoint</styleUrl>
			<Point>
				<coordinates>123.924699,10.323004,60.45</coordinates>
			</Point>
		</Placemark>
		<Placemark>
			<name>734</name>
			<TimeStamp><when>2024-10-09T03:39:09Z</when>
</TimeStamp>
			<styleUrl>#waypoint</styleUrl>
			<Point>
				<coordinates>123.924723,10.322972,60.09</coordinates>
			</Point>
		</Placemark>
		<Placemark>
			<name>735</name>
			<TimeStamp><when>2024-10-09T03:39:20Z</when>
</TimeStamp>
			<styleUrl>#waypoint</styleUrl>
			<Point>
				<coordinates>123.924724,10.322959,60.57</coordinates>
			</Point>
		</Placemark>
		<Placemark>
			<name>736</name>
			<TimeStamp><when>2024-10-09T03:39:36Z</when>
</TimeStamp>
			<styleUrl>#waypoint</styleUrl>
			<Point>
				<coordinates>123.924741,10.32293,59.89</coordinates>
			</Point>
		</Placemark>
		<Placemark>
			<name>737</name>
			<TimeStamp><when>2024-10-09T03:40:05Z</when>
</TimeStamp>
			<styleUrl>#waypoint</styleUrl>
			<Point>
				<coordinates>123.924755,10.322876,59.90000000000001</coordinates>
			</Point>
		</Placemark>
		<Placemark>
			<name>738</name>
			<TimeStamp><when>2024-10-09T03:40:15Z</when>
</TimeStamp>
			<styleUrl>#waypoint</styleUrl>
			<Point>
				<coordinates>123.924772,10.322865,59.73999999999999</coordinates>
			</Point>
		</Placemark>
		<Placemark>
			<name>739</name>
			<TimeStamp><when>2024-10-09T03:40:17Z</when>
</TimeStamp>
			<styleUrl>#waypoint</styleUrl>
			<Point>
				<coordinates>123.924778,10.322861,59.71</coordinates>
			</Point>
		</Placemark>
		<Placemark>
			<name>740</name>
			<TimeStamp><when>2024-10-09T03:40:27Z</when>
</TimeStamp>
			<styleUrl>#waypoint</styleUrl>
			<Point>
				<coordinates>123.924785,10.322845,59.54</coordinates>
			</Point>
		</Placemark>
		<Placemark>
			<name>741</name>
			<TimeStamp><when>2024-10-09T03:41:04Z</when>
</TimeStamp>
			<styleUrl>#waypoint</styleUrl>
			<Point>
				<coordinates>123.924915,10.322682,58.81</coordinates>
			</Point>
		</Placemark>
		<Placemark>
			<name>742</name>
			<TimeStamp><when>2024-10-09T03:42:04Z</when>
</TimeStamp>
			<styleUrl>#waypoint</styleUrl>
			<Point>
				<coordinates>123.924937,10.322606,58.14999999999999</coordinates>
			</Point>
		</Placemark>
		<Placemark>
			<name>743</name>
			<TimeStamp><when>2024-10-09T03:42:10Z</when>
</TimeStamp>
			<styleUrl>#waypoint</styleUrl>
			<Point>
				<coordinates>123.924941,10.322586,58.23999999999999</coordinates>
			</Point>
		</Placemark>
		<Placemark>
			<name>744</name>
			<TimeStamp><when>2024-10-09T03:42:35Z</when>
</TimeStamp>
			<styleUrl>#waypoint</styleUrl>
			<Point>
				<coordinates>123.924963,10.322566,56.84</coordinates>
			</Point>
		</Placemark>
		<Placemark>
			<name>745</name>
			<TimeStamp><when>2024-10-09T03:42:46Z</when>
</TimeStamp>
			<styleUrl>#waypoint</styleUrl>
			<Point>
				<coordinates>123.924975,10.322546,57.53</coordinates>
			</Point>
		</Placemark>
		<Placemark>
			<name>746</name>
			<TimeStamp><when>2024-10-09T03:42:55Z</when>
</TimeStamp>
			<styleUrl>#waypoint</styleUrl>
			<Point>
				<coordinates>123.924985,10.322538,56.18999999999999</coordinates>
			</Point>
		</Placemark>
		<Placemark>
			<name>747</name>
			<TimeStamp><when>2024-10-09T03:43:10Z</when>
</TimeStamp>
			<styleUrl>#waypoint</styleUrl>
			<Point>
				<coordinates>123.925008,10.32251,56.53</coordinates>
			</Point>
		</Placemark>
		<Placemark>
			<name>748</name>
			<TimeStamp><when>2024-10-09T03:43:21Z</when>
</TimeStamp>
			<styleUrl>#waypoint</styleUrl>
			<Point>
				<coordinates>123.925028,10.322494,55.29000000000001</coordinates>
			</Point>
		</Placemark>
		<Placemark>
			<name>749</name>
			<TimeStamp><when>2024-10-09T03:43:32Z</when>
</TimeStamp>
			<styleUrl>#waypoint</styleUrl>
			<Point>
				<coordinates>123.925036,10.322482,55.85</coordinates>
			</Point>
		</Placemark>
		<Placemark>
			<name>750</name>
			<TimeStamp><when>2024-10-09T03:43:44Z</when>
</TimeStamp>
			<styleUrl>#waypoint</styleUrl>
			<Point>
				<coordinates>123.925065,10.322444,55.68</coordinates>
			</Point>
		</Placemark>
		<Placemark>
			<name>751</name>
			<TimeStamp><when>2024-10-09T03:44:01Z</when>
</TimeStamp>
			<styleUrl>#waypoint</styleUrl>
			<Point>
				<coordinates>123.925092,10.32243,54.99</coordinates>
			</Point>
		</Placemark>
		<Placemark>
			<name>752</name>
			<TimeStamp><when>2024-10-09T03:44:16Z</when>
</TimeStamp>
			<styleUrl>#waypoint</styleUrl>
			<Point>
				<coordinates>123.925122,10.322384,54.96999999999999</coordinates>
			</Point>
		</Placemark>
		<Placemark>
			<name>753</name>
			<TimeStamp><when>2024-10-09T03:44:39Z</when>
</TimeStamp>
			<styleUrl>#waypoint</styleUrl>
			<Point>
				<coordinates>123.925177,10.322321,54.28</coordinates>
			</Point>
		</Placemark>
		<Placemark>
			<name>754</name>
			<TimeStamp><when>2024-10-09T03:45:00Z</when>
</TimeStamp>
			<styleUrl>#waypoint</styleUrl>
			<Point>
				<coordinates>123.925212,10.322294,54.46999999999999</coordinates>
			</Point>
		</Placemark>
		<Placemark>
			<name>755</name>
			<TimeStamp><when>2024-10-09T03:45:12Z</when>
</TimeStamp>
			<styleUrl>#waypoint</styleUrl>
			<Point>
				<coordinates>123.925232,10.322264,54.3</coordinates>
			</Point>
		</Placemark>
		<Placemark>
			<name>756</name>
			<TimeStamp><when>2024-10-09T03:45:24Z</when>
</TimeStamp>
			<styleUrl>#waypoint</styleUrl>
			<Point>
				<coordinates>123.92526,10.322234,54.00999999999999</coordinates>
			</Point>
		</Placemark>
		<Placemark>
			<name>757</name>
			<TimeStamp><when>2024-10-09T03:45:37Z</when>
</TimeStamp>
			<styleUrl>#waypoint</styleUrl>
			<Point>
				<coordinates>123.925275,10.322221,53.19</coordinates>
			</Point>
		</Placemark>
		<Placemark>
			<name>758</name>
			<TimeStamp><when>2024-10-09T03:45:51Z</when>
</TimeStamp>
			<styleUrl>#waypoint</styleUrl>
			<Point>
				<coordinates>123.925307,10.32218,53.12</coordinates>
			</Point>
		</Placemark>
		<Placemark>
			<name>759</name>
			<TimeStamp><when>2024-10-09T03:46:28Z</when>
</TimeStamp>
			<styleUrl>#waypoint</styleUrl>
			<Point>
				<coordinates>123.925451,10.321993,52.31</coordinates>
			</Point>
		</Placemark>
		<Placemark>
			<name>760</name>
			<TimeStamp><when>2024-10-09T03:46:37Z</when>
</TimeStamp>
			<styleUrl>#waypoint</styleUrl>
			<Point>
				<coordinates>123.925457,10.321976,52.06</coordinates>
			</Point>
		</Placemark>
		<Placemark>
			<name>761</name>
			<TimeStamp><when>2024-10-09T03:46:50Z</when>
</TimeStamp>
			<styleUrl>#waypoint</styleUrl>
			<Point>
				<coordinates>123.925458,10.321962,52.31</coordinates>
			</Point>
		</Placemark>
		<Placemark>
			<name>762</name>
			<TimeStamp><when>2024-10-09T03:47:05Z</when>
</TimeStamp>
			<styleUrl>#waypoint</styleUrl>
			<Point>
				<coordinates>123.925472,10.321922,51.38</coordinates>
			</Point>
		</Placemark>
		<Placemark>
			<name>763</name>
			<TimeStamp><when>2024-10-09T03:47:10Z</when>
</TimeStamp>
			<styleUrl>#waypoint</styleUrl>
			<Point>
				<coordinates>123.925479,10.321917,51.25</coordinates>
			</Point>
		</Placemark>
		<Placemark>
			<name>764</name>
			<TimeStamp><when>2024-10-09T03:47:18Z</when>
</TimeStamp>
			<styleUrl>#waypoint</styleUrl>
			<Point>
				<coordinates>123.92549,10.321911,50.96</coordinates>
			</Point>
		</Placemark>
		<Placemark>
			<name>765</name>
			<TimeStamp><when>2024-10-09T03:47:30Z</when>
</TimeStamp>
			<styleUrl>#waypoint</styleUrl>
			<Point>
				<coordinates>123.925492,10.321908,50.59</coordinates>
			</Point>
		</Placemark>
		<Placemark>
			<name>766</name>
			<TimeStamp><when>2024-10-09T03:47:40Z</when>
</TimeStamp>
			<styleUrl>#waypoint</styleUrl>
			<Point>
				<coordinates>123.92549,10.321892,51.14999999999999</coordinates>
			</Point>
		</Placemark>
		<Placemark>
			<name>767</name>
			<TimeStamp><when>2024-10-09T03:47:49Z</when>
</TimeStamp>
			<styleUrl>#waypoint</styleUrl>
			<Point>
				<coordinates>123.925499,10.321875,50.58</coordinates>
			</Point>
		</Placemark>
		<Placemark>
			<name>768</name>
			<TimeStamp><when>2024-10-09T03:47:58Z</when>
</TimeStamp>
			<styleUrl>#waypoint</styleUrl>
			<Point>
				<coordinates>123.925499,10.32186,49.53999999999999</coordinates>
			</Point>
		</Placemark>
		<Placemark>
			<name>769</name>
			<TimeStamp><when>2024-10-09T03:48:08Z</when>
</TimeStamp>
			<styleUrl>#waypoint</styleUrl>
			<Point>
				<coordinates>123.92552,10.321848,50.41</coordinates>
			</Point>
		</Placemark>
		<Placemark>
			<name>770</name>
			<TimeStamp><when>2024-10-09T03:48:16Z</when>
</TimeStamp>
			<styleUrl>#waypoint</styleUrl>
			<Point>
				<coordinates>123.925528,10.321839,49.8</coordinates>
			</Point>
		</Placemark>
		<Placemark>
			<name>771</name>
			<TimeStamp><when>2024-10-09T03:48:23Z</when>
</TimeStamp>
			<styleUrl>#waypoint</styleUrl>
			<Point>
				<coordinates>123.925541,10.321831,50.00000000000001</coordinates>
			</Point>
		</Placemark>
		<Placemark>
			<name>772</name>
			<TimeStamp><when>2024-10-09T03:48:30Z</when>
</TimeStamp>
			<styleUrl>#waypoint</styleUrl>
			<Point>
				<coordinates>123.925547,10.321824,49.87</coordinates>
			</Point>
		</Placemark>
		<Placemark>
			<name>773</name>
			<TimeStamp><when>2024-10-09T03:48:47Z</when>
</TimeStamp>
			<styleUrl>#waypoint</styleUrl>
			<Point>
				<coordinates>123.92557,10.321794,49.75000000000001</coordinates>
			</Point>
		</Placemark>
		<Placemark>
			<name>774</name>
			<TimeStamp><when>2024-10-09T03:48:54Z</when>
</TimeStamp>
			<styleUrl>#waypoint</styleUrl>
			<Point>
				<coordinates>123.925578,10.321786,49.92</coordinates>
			</Point>
		</Placemark>
		<Placemark>
			<name>775</name>
			<TimeStamp><when>2024-10-09T03:49:16Z</when>
</TimeStamp>
			<styleUrl>#waypoint</styleUrl>
			<Point>
				<coordinates>123.925573,10.321769,49.76</coordinates>
			</Point>
		</Placemark>
		<Placemark>
			<name>776</name>
			<TimeStamp><when>2024-10-09T03:49:36Z</when>
</TimeStamp>
			<styleUrl>#waypoint</styleUrl>
			<Point>
				<coordinates>123.92559,10.321761,49.31</coordinates>
			</Point>
		</Placemark>
		<Placemark>
			<name>777</name>
			<TimeStamp><when>2024-10-09T03:49:45Z</when>
</TimeStamp>
			<styleUrl>#waypoint</styleUrl>
			<Point>
				<coordinates>123.925594,10.321763,48.7</coordinates>
			</Point>
		</Placemark>
		<Placemark>
			<name>778</name>
			<TimeStamp><when>2024-10-09T03:49:52Z</when>
</TimeStamp>
			<styleUrl>#waypoint</styleUrl>
			<Point>
				<coordinates>123.9256,10.321755,48.3</coordinates>
			</Point>
		</Placemark>
		<Placemark>
			<name>779</name>
			<TimeStamp><when>2024-10-09T03:49:59Z</when>
</TimeStamp>
			<styleUrl>#waypoint</styleUrl>
			<Point>
				<coordinates>123.925607,10.32175,48.78</coordinates>
			</Point>
		</Placemark>
		<Placemark>
			<name>780</name>
			<TimeStamp><when>2024-10-09T03:50:36Z</when>
</TimeStamp>
			<styleUrl>#waypoint</styleUrl>
			<Point>
				<coordinates>123.925703,10.32164,48.06</coordinates>
			</Point>
		</Placemark>
		<Placemark>
			<name>781</name>
			<TimeStamp><when>2024-10-09T03:51:32Z</when>
</TimeStamp>
			<styleUrl>#waypoint</styleUrl>
			<Point>
				<coordinates>123.925868,10.321294,46.97</coordinates>
			</Point>
		</Placemark>
		<Placemark>
			<name>782</name>
			<TimeStamp><when>2024-10-09T04:41:59Z</when>
</TimeStamp>
			<styleUrl>#waypoint</styleUrl>
			<Point>
				<coordinates>123.92514,10.320927,47.65</coordinates>
			</Point>
		</Placemark>
		<Placemark>
			<name>783</name>
			<TimeStamp><when>2024-10-09T04:51:13Z</when>
</TimeStamp>
			<styleUrl>#waypoint</styleUrl>
			<Point>
				<coordinates>123.925336,10.318592,25.85</coordinates>
			</Point>
		</Placemark>
		<Placemark>
			<name>784</name>
			<TimeStamp><when>2024-10-09T04:51:51Z</when>
</TimeStamp>
			<styleUrl>#waypoint</styleUrl>
			<Point>
				<coordinates>123.925253,10.318629,25.67</coordinates>
			</Point>
		</Placemark>
		<Placemark>
			<name>785</name>
			<TimeStamp><when>2024-10-09T04:52:24Z</when>
</TimeStamp>
			<styleUrl>#waypoint</styleUrl>
			<Point>
				<coordinates>123.925357,10.318497,26.13</coordinates>
			</Point>
		</Placemark>
		<Placemark>
			<name>786</name>
			<TimeStamp><when>2024-10-09T04:52:32Z</when>
</TimeStamp>
			<styleUrl>#waypoint</styleUrl>
			<Point>
				<coordinates>123.925359,10.318485,25.82</coordinates>
			</Point>
		</Placemark>
		<Placemark>
			<name>787</name>
			<TimeStamp><when>2024-10-09T04:52:58Z</when>
</TimeStamp>
			<styleUrl>#waypoint</styleUrl>
			<Point>
				<coordinates>123.92528,10.318489,25.69</coordinates>
			</Point>
		</Placemark>
		<Placemark>
			<name>788</name>
			<TimeStamp><when>2024-10-09T04:53:03Z</when>
</TimeStamp>
			<styleUrl>#waypoint</styleUrl>
			<Point>
				<coordinates>123.925275,10.318493,25.67</coordinates>
			</Point>
		</Placemark>
		<Placemark>
			<name>789</name>
			<TimeStamp><when>2024-10-09T04:53:14Z</when>
</TimeStamp>
			<styleUrl>#waypoint</styleUrl>
			<Point>
				<coordinates>123.925268,10.318473,25.51</coordinates>
			</Point>
		</Placemark>
		<Placemark>
			<name>790</name>
			<TimeStamp><when>2024-10-09T04:53:46Z</when>
</TimeStamp>
			<styleUrl>#waypoint</styleUrl>
			<Point>
				<coordinates>123.925333,10.318364,25.68</coordinates>
			</Point>
		</Placemark>
		<Placemark>
			<name>791</name>
			<TimeStamp><when>2024-10-09T04:53:50Z</when>
</TimeStamp>
			<styleUrl>#waypoint</styleUrl>
			<Point>
				<coordinates>123.925334,10.318357,25.65</coordinates>
			</Point>
		</Placemark>
		<Placemark>
			<name>792</name>
			<TimeStamp><when>2024-10-09T04:54:01Z</when>
</TimeStamp>
			<styleUrl>#waypoint</styleUrl>
			<Point>
				<coordinates>123.92536,10.318347,24.7</coordinates>
			</Point>
		</Placemark>
		<Placemark>
			<name>793</name>
			<TimeStamp><when>2024-10-09T04:54:17Z</when>
</TimeStamp>
			<styleUrl>#waypoint</styleUrl>
			<Point>
				<coordinates>123.925343,10.31835,25.32</coordinates>
			</Point>
		</Placemark>
		<Placemark>
			<name>794</name>
			<TimeStamp><when>2024-10-09T04:55:54Z</when>
</TimeStamp>
			<styleUrl>#waypoint</styleUrl>
			<Point>
				<coordinates>123.92514,10.318707,25.71</coordinates>
			</Point>
		</Placemark>
		<Placemark>
			<name>795</name>
			<TimeStamp><when>2024-10-09T04:56:09Z</when>
</TimeStamp>
			<styleUrl>#waypoint</styleUrl>
			<Point>
				<coordinates>123.925194,10.318777,25.32</coordinates>
			</Point>
		</Placemark>
		<Placemark>
			<name>796</name>
			<TimeStamp><when>2024-10-09T04:56:28Z</when>
</TimeStamp>
			<styleUrl>#waypoint</styleUrl>
			<Point>
				<coordinates>123.925106,10.318819,26.05</coordinates>
			</Point>
		</Placemark>
		<Placemark>
			<name>797</name>
			<TimeStamp><when>2024-10-09T04:56:34Z</when>
</TimeStamp>
			<styleUrl>#waypoint</styleUrl>
			<Point>
				<coordinates>123.92509,10.318837,25.44</coordinates>
			</Point>
		</Placemark>
		<Placemark>
			<name>798</name>
			<TimeStamp><when>2024-10-09T04:58:38Z</when>
</TimeStamp>
			<styleUrl>#waypoint</styleUrl>
			<Point>
				<coordinates>123.92473,10.318919,25.34</coordinates>
			</Point>
		</Placemark>
		<Placemark>
			<name>799</name>
			<TimeStamp><when>2024-10-09T04:58:58Z</when>
</TimeStamp>
			<styleUrl>#waypoint</styleUrl>
			<Point>
				<coordinates>123.924815,10.318896,24.8</coordinates>
			</Point>
		</Placemark>
		<Placemark>
			<name>800</name>
			<TimeStamp><when>2024-10-09T04:59:17Z</when>
</TimeStamp>
			<styleUrl>#waypoint</styleUrl>
			<Point>
				<coordinates>123.924728,10.318926,24.75</coordinates>
			</Point>
		</Placemark>
		<Placemark>
			<name>801</name>
			<TimeStamp><when>2024-10-09T04:59:26Z</when>
</TimeStamp>
			<styleUrl>#waypoint</styleUrl>
			<Point>
				<coordinates>123.924695,10.318939,24.74</coordinates>
			</Point>
		</Placemark>
		<Placemark>
			<name>802</name>
			<TimeStamp><when>2024-10-09T04:59:37Z</when>
</TimeStamp>
			<styleUrl>#waypoint</styleUrl>
			<Point>
				<coordinates>123.924653,10.318941,24.64</coordinates>
			</Point>
		</Placemark>
		<Placemark>
			<name>803</name>
			<TimeStamp><when>2024-10-09T04:59:51Z</when>
</TimeStamp>
			<styleUrl>#waypoint</styleUrl>
			<Point>
				<coordinates>123.924612,10.318884,24.11</coordinates>
			</Point>
		</Placemark>
		<Placemark>
			<name>804</name>
			<TimeStamp><when>2024-10-09T05:00:11Z</when>
</TimeStamp>
			<styleUrl>#waypoint</styleUrl>
			<Point>
				<coordinates>123.924559,10.318805,24.19</coordinates>
			</Point>
		</Placemark>
		<Placemark>
			<name>805</name>
			<TimeStamp><when>2024-10-09T05:00:30Z</when>
</TimeStamp>
			<styleUrl>#waypoint</styleUrl>
			<Point>
				<coordinates>123.924568,10.318711,24.19</coordinates>
			</Point>
		</Placemark>
		<Placemark>
			<name>806</name>
			<TimeStamp><when>2024-10-09T05:00:39Z</when>
</TimeStamp>
			<styleUrl>#waypoint</styleUrl>
			<Point>
				<coordinates>123.924556,10.318683,24.05</coordinates>
			</Point>
		</Placemark>
		<Placemark>
			<name>807</name>
			<TimeStamp><when>2024-10-09T05:00:47Z</when>
</TimeStamp>
			<styleUrl>#waypoint</styleUrl>
			<Point>
				<coordinates>123.924544,10.318677,23.79</coordinates>
			</Point>
		</Placemark>
		<Placemark>
			<name>808</name>
			<TimeStamp><when>2024-10-09T05:00:59Z</when>
</TimeStamp>
			<styleUrl>#waypoint</styleUrl>
			<Point>
				<coordinates>123.924561,10.318654,23.85</coordinates>
			</Point>
		</Placemark>
		<Placemark>
			<name>809</name>
			<TimeStamp><when>2024-10-09T05:01:04Z</when>
</TimeStamp>
			<styleUrl>#waypoint</styleUrl>
			<Point>
				<coordinates>123.924561,10.318652,23.83</coordinates>
			</Point>
		</Placemark>
		<Placemark>
			<name>810</name>
			<TimeStamp><when>2024-10-09T05:01:45Z</when>
</TimeStamp>
			<styleUrl>#waypoint</styleUrl>
			<Point>
				<coordinates>123.924594,10.318655,23.63</coordinates>
			</Point>
		</Placemark>
		<Placemark>
			<name>811</name>
			<TimeStamp><when>2024-10-09T05:01:53Z</when>
</TimeStamp>
			<styleUrl>#waypoint</styleUrl>
			<Point>
				<coordinates>123.924594,10.31865,23.47</coordinates>
			</Point>
		</Placemark>
		<Placemark>
			<name>812</name>
			<TimeStamp><when>2024-10-09T05:02:08Z</when>
</TimeStamp>
			<styleUrl>#waypoint</styleUrl>
			<Point>
				<coordinates>123.924643,10.318626,23.63</coordinates>
			</Point>
		</Placemark>
		<Placemark>
			<name>813</name>
			<TimeStamp><when>2024-10-09T05:02:12Z</when>
</TimeStamp>
			<styleUrl>#waypoint</styleUrl>
			<Point>
				<coordinates>123.924649,10.318627,23.62</coordinates>
			</Point>
		</Placemark>
		<Placemark>
			<name>814</name>
			<TimeStamp><when>2024-10-09T05:02:47Z</when>
</TimeStamp>
			<styleUrl>#waypoint</styleUrl>
			<Point>
				<coordinates>123.924625,10.318495,23.76</coordinates>
			</Point>
		</Placemark>
		<Placemark>
			<name>815</name>
			<TimeStamp><when>2024-10-09T05:03:14Z</when>
</TimeStamp>
			<styleUrl>#waypoint</styleUrl>
			<Point>
				<coordinates>123.924537,10.318558,23.79</coordinates>
			</Point>
		</Placemark>
		<Placemark>
			<name>816</name>
			<TimeStamp><when>2024-10-09T05:03:22Z</when>
</TimeStamp>
			<styleUrl>#waypoint</styleUrl>
			<Point>
				<coordinates>123.924544,10.318565,23.63</coordinates>
			</Point>
		</Placemark>
		<Placemark>
			<name>817</name>
			<TimeStamp><when>2024-10-09T05:48:20Z</when>
</TimeStamp>
			<styleUrl>#waypoint</styleUrl>
			<Point>
				<coordinates>123.924826,10.318628,22.41</coordinates>
			</Point>
		</Placemark>
		<Placemark>
			<name>818</name>
			<TimeStamp><when>2024-10-09T05:49:06Z</when>
</TimeStamp>
			<styleUrl>#waypoint</styleUrl>
			<Point>
				<coordinates>123.924519,10.318462,22.18</coordinates>
			</Point>
		</Placemark>
		<Placemark>
			<name>819</name>
			<TimeStamp><when>2024-10-09T05:49:11Z</when>
</TimeStamp>
			<styleUrl>#waypoint</styleUrl>
			<Point>
				<coordinates>123.92453,10.318464,20.7</coordinates>
			</Point>
		</Placemark>
		<Placemark>
			<name>820</name>
			<TimeStamp><when>2024-10-09T05:49:25Z</when>
</TimeStamp>
			<styleUrl>#waypoint</styleUrl>
			<Point>
				<coordinates>123.924488,10.318442,16.36</coordinates>
			</Point>
		</Placemark>
		<Placemark>
			<name>821</name>
			<TimeStamp><when>2024-10-09T05:49:37Z</when>
</TimeStamp>
			<styleUrl>#waypoint</styleUrl>
			<Point>
				<coordinates>123.92449,10.318432,14.3</coordinates>
			</Point>
		</Placemark>
		<Placemark>
			<name>822</name>
			<TimeStamp><when>2024-10-09T05:52:01Z</when>
</TimeStamp>
			<styleUrl>#waypoint</styleUrl>
			<Point>
				<coordinates>123.924522,10.318463,22.05</coordinates>
			</Point>
		</Placemark>
		<Placemark>
			<name>823</name>
			<TimeStamp><when>2024-10-09T05:52:16Z</when>
</TimeStamp>
			<styleUrl>#waypoint</styleUrl>
			<Point>
				<coordinates>123.924438,10.318361,19.1</coordinates>
			</Point>
		</Placemark>
		<Placemark>
			<name>824</name>
			<TimeStamp><when>2024-10-09T05:52:23Z</when>
</TimeStamp>
			<styleUrl>#waypoint</styleUrl>
			<Point>
				<coordinates>123.924429,10.318354,17.5</coordinates>
			</Point>
		</Placemark>
		<Placemark>
			<name>825</name>
			<TimeStamp><when>2024-10-09T05:52:48Z</when>
</TimeStamp>
			<styleUrl>#waypoint</styleUrl>
			<Point>
				<coordinates>123.924427,10.318319,12.94</coordinates>
			</Point>
		</Placemark>
		<Placemark>
			<name>826</name>
			<TimeStamp><when>2024-10-09T05:52:58Z</when>
</TimeStamp>
			<styleUrl>#waypoint</styleUrl>
			<Point>
				<coordinates>123.924414,10.318293,13.1</coordinates>
			</Point>
		</Placemark>
		<Placemark>
			<name>827</name>
			<TimeStamp><when>2024-10-09T05:53:19Z</when>
</TimeStamp>
			<styleUrl>#waypoint</styleUrl>
			<Point>
				<coordinates>123.924441,10.318257,12.24</coordinates>
			</Point>
		</Placemark>
		<Placemark>
			<name>828</name>
			<TimeStamp><when>2024-10-09T05:53:31Z</when>
</TimeStamp>
			<styleUrl>#waypoint</styleUrl>
			<Point>
				<coordinates>123.92448,10.318253,11.95</coordinates>
			</Point>
		</Placemark>
		<Placemark>
			<name>829</name>
			<TimeStamp><when>2024-10-09T05:53:53Z</when>
</TimeStamp>
			<styleUrl>#waypoint</styleUrl>
			<Point>
				<coordinates>123.92456,10.318302,12.12</coordinates>
			</Point>
		</Placemark>
		<Placemark>
			<name>830</name>
			<TimeStamp><when>2024-10-09T05:53:58Z</when>
</TimeStamp>
			<styleUrl>#waypoint</styleUrl>
			<Point>
				<coordinates>123.92456,10.3183,12.12</coordinates>
			</Point>
		</Placemark>
		<Placemark>
			<name>831</name>
			<TimeStamp><when>2024-10-09T05:54:09Z</when>
</TimeStamp>
			<styleUrl>#waypoint</styleUrl>
			<Point>
				<coordinates>123.924595,10.318298,11.9</coordinates>
			</Point>
		</Placemark>
		<Placemark>
			<name>832</name>
			<TimeStamp><when>2024-10-09T05:54:16Z</when>
</TimeStamp>
			<styleUrl>#waypoint</styleUrl>
			<Point>
				<coordinates>123.924616,10.318292,11.47</coordinates>
			</Point>
		</Placemark>
		<Placemark>
			<name>833</name>
			<TimeStamp><when>2024-10-09T05:54:33Z</when>
</TimeStamp>
			<styleUrl>#waypoint</styleUrl>
			<Point>
				<coordinates>123.924564,10.318209,11.62</coordinates>
			</Point>
		</Placemark>
		<Placemark>
			<name>834</name>
			<TimeStamp><when>2024-10-09T05:54:51Z</when>
</TimeStamp>
			<styleUrl>#waypoint</styleUrl>
			<Point>
				<coordinates>123.924601,10.3182,11.48</coordinates>
			</Point>
		</Placemark>
		<Placemark>
			<name>835</name>
			<TimeStamp><when>2024-10-09T05:55:16Z</when>
</TimeStamp>
			<styleUrl>#waypoint</styleUrl>
			<Point>
				<coordinates>123.924659,10.318184,12.12</coordinates>
			</Point>
		</Placemark>
		<Placemark>
			<name>836</name>
			<TimeStamp><when>2024-10-09T05:55:35Z</when>
</TimeStamp>
			<styleUrl>#waypoint</styleUrl>
			<Point>
				<coordinates>123.92476,10.318159,12.25</coordinates>
			</Point>
		</Placemark>
		<Placemark>
			<name>837</name>
			<TimeStamp><when>2024-10-09T05:56:25Z</when>
</TimeStamp>
			<styleUrl>#waypoint</styleUrl>
			<Point>
				<coordinates>123.924964,10.318146,11.99</coordinates>
			</Point>
		</Placemark>
		<Placemark>
			<name>838</name>
			<TimeStamp><when>2024-10-09T05:56:46Z</when>
</TimeStamp>
			<styleUrl>#waypoint</styleUrl>
			<Point>
				<coordinates>123.925052,10.318128,12.63</coordinates>
			</Point>
		</Placemark>
		<Placemark>
			<name>839</name>
			<TimeStamp><when>2024-10-09T05:57:20Z</when>
</TimeStamp>
			<styleUrl>#waypoint</styleUrl>
			<Point>
				<coordinates>123.925258,10.318066,12.51</coordinates>
			</Point>
		</Placemark>
		<Placemark>
			<name>840</name>
			<TimeStamp><when>2024-10-09T05:57:33Z</when>
</TimeStamp>
			<styleUrl>#waypoint</styleUrl>
			<Point>
				<coordinates>123.925286,10.318093,12.61</coordinates>
			</Point>
		</Placemark>
		<Placemark>
			<name>841</name>
			<TimeStamp><when>2024-10-09T05:57:46Z</when>
</TimeStamp>
			<styleUrl>#waypoint</styleUrl>
			<Point>
				<coordinates>123.92531,10.318079,13.03</coordinates>
			</Point>
		</Placemark>
		<Placemark>
			<name>842</name>
			<TimeStamp><when>2024-10-09T05:58:04Z</when>
</TimeStamp>
			<styleUrl>#waypoint</styleUrl>
			<Point>
				<coordinates>123.925253,10.318174,12.8</coordinates>
			</Point>
		</Placemark>
		<Placemark>
			<name>843</name>
			<TimeStamp><when>2024-10-09T05:58:15Z</when>
</TimeStamp>
			<styleUrl>#waypoint</styleUrl>
			<Point>
				<coordinates>123.925227,10.318196,12.73</coordinates>
			</Point>
		</Placemark>
	</Folder>
</Document>
</kml>
