<?xml version="1.0" encoding="UTF-8" standalone="no" ?><gpx xmlns="http://www.topografix.com/GPX/1/1" xmlns:gpxx="http://www.garmin.com/xmlschemas/GpxExtensions/v3" xmlns:wptx1="http://www.garmin.com/xmlschemas/WaypointExtension/v1" xmlns:gpxtpx="http://www.garmin.com/xmlschemas/TrackPointExtension/v1" creator="eTrex 22x" version="1.1" xmlns:xsi="http://www.w3.org/2001/XMLSchema-instance" xsi:schemaLocation="http://www.topografix.com/GPX/1/1 http://www.topografix.com/GPX/1/1/gpx.xsd http://www.garmin.com/xmlschemas/GpxExtensions/v3 http://www8.garmin.com/xmlschemas/GpxExtensionsv3.xsd http://www.garmin.com/xmlschemas/TrackStatsExtension/v1 http://www8.garmin.com/xmlschemas/TrackStatsExtension.xsd http://www.garmin.com/xmlschemas/WaypointExtension/v1 http://www8.garmin.com/xmlschemas/WaypointExtensionv1.xsd http://www.garmin.com/xmlschemas/TrackPointExtension/v1 http://www.garmin.com/xmlschemas/TrackPointExtensionv1.xsd"><metadata><link href="http://www.garmin.com"><text>Garmin International</text></link><time>2024-10-15T01:57:36Z</time></metadata><wpt lat="10.319824" lon="123.929082"><ele>15.396633</ele><time>2024-10-15T01:57:36Z</time><name>265</name><sym>Flag, Blue</sym></wpt><wpt lat="10.319852" lon="123.929107"><ele>13.550449</ele><time>2024-10-15T01:58:02Z</time><name>266</name><sym>Flag, Blue</sym></wpt><wpt lat="10.319866" lon="123.929201"><ele>11.682049</ele><time>2024-10-15T01:58:20Z</time><name>267</name><sym>Flag, Blue</sym></wpt><wpt lat="10.319857" lon="123.929252"><ele>11.192954</ele><time>2024-10-15T01:58:35Z</time><name>268</name><sym>Flag, Blue</sym></wpt><wpt lat="10.319800" lon="123.929408"><ele>10.892109</ele><time>2024-10-15T01:59:04Z</time><name>269</name><sym>Flag, Blue</sym></wpt><wpt lat="10.319782" lon="123.929415"><ele>10.833035</ele><time>2024-10-15T01:59:11Z</time><name>270</name><sym>Flag, Blue</sym></wpt><wpt lat="10.319779" lon="123.929424"><ele>10.842487</ele><time>2024-10-15T01:59:18Z</time><name>271</name><sym>Flag, Blue</sym></wpt><wpt lat="10.319770" lon="123.929447"><ele>11.032366</ele><time>2024-10-15T01:59:26Z</time><name>272</name><sym>Flag, Blue</sym></wpt><wpt lat="10.319769" lon="123.929468"><ele>11.164730</ele><time>2024-10-15T01:59:32Z</time><name>273</name><sym>Flag, Blue</sym></wpt><wpt lat="10.319752" lon="123.929488"><ele>11.379749</ele><time>2024-10-15T01:59:39Z</time><name>274</name><sym>Flag, Blue</sym></wpt><wpt lat="10.319746" lon="123.929508"><ele>11.899265</ele><time>2024-10-15T01:59:47Z</time><name>275</name><sym>Flag, Blue</sym></wpt><wpt lat="10.319746" lon="123.929530"><ele>12.517498</ele><time>2024-10-15T01:59:53Z</time><name>276</name><sym>Flag, Blue</sym></wpt><wpt lat="10.319740" lon="123.929547"><ele>12.945210</ele><time>2024-10-15T02:00:00Z</time><name>277</name><sym>Flag, Blue</sym></wpt><wpt lat="10.319701" lon="123.929659"><ele>10.780254</ele><time>2024-10-15T02:00:18Z</time><name>278</name><sym>Flag, Blue</sym></wpt><wpt lat="10.319698" lon="123.929685"><ele>9.317448</ele><time>2024-10-15T02:00:24Z</time><name>279</name><sym>Flag, Blue</sym></wpt><wpt lat="10.319687" lon="123.929690"><ele>7.957096</ele><time>2024-10-15T02:00:31Z</time><name>280</name><sym>Flag, Blue</sym></wpt><wpt lat="10.319650" lon="123.929792"><ele>7.046497</ele><time>2024-10-15T02:00:47Z</time><name>281</name><sym>Flag, Blue</sym></wpt><wpt lat="10.319636" lon="123.929858"><ele>8.105148</ele><time>2024-10-15T02:01:03Z</time><name>282</name><sym>Flag, Blue</sym></wpt><wpt lat="10.319575" lon="123.929974"><ele>8.538818</ele><time>2024-10-15T02:01:24Z</time><name>283</name><sym>Flag, Blue</sym></wpt><wpt lat="10.319533" lon="123.930032"><ele>7.559157</ele><time>2024-10-15T02:01:36Z</time><name>284</name><sym>Flag, Blue</sym></wpt><wpt lat="10.319524" lon="123.930075"><ele>8.031258</ele><time>2024-10-15T02:01:54Z</time><name>285</name><sym>Flag, Blue</sym></wpt><wpt lat="10.319515" lon="123.930088"><ele>7.944454</ele><time>2024-10-15T02:02:03Z</time><name>286</name><sym>Flag, Blue</sym></wpt><wpt lat="10.319491" lon="123.930120"><ele>8.788082</ele><time>2024-10-15T02:02:14Z</time><name>287</name><sym>Flag, Blue</sym></wpt><wpt lat="10.319487" lon="123.930147"><ele>9.157108</ele><time>2024-10-15T02:02:22Z</time><name>288</name><sym>Flag, Blue</sym></wpt><wpt lat="10.319466" lon="123.930186"><ele>9.036892</ele><time>2024-10-15T02:02:32Z</time><name>289</name><sym>Flag, Blue</sym></wpt><wpt lat="10.319463" lon="123.930203"><ele>8.547176</ele><time>2024-10-15T02:02:39Z</time><name>290</name><sym>Flag, Blue</sym></wpt><wpt lat="10.319455" lon="123.930209"><ele>7.535587</ele><time>2024-10-15T02:02:47Z</time><name>291</name><sym>Flag, Blue</sym></wpt><wpt lat="10.319462" lon="123.930245"><ele>7.507317</ele><time>2024-10-15T02:02:58Z</time><name>292</name><sym>Flag, Blue</sym></wpt><wpt lat="10.319470" lon="123.930257"><ele>8.487930</ele><time>2024-10-15T02:03:07Z</time><name>293</name><sym>Flag, Blue</sym></wpt><wpt lat="10.319444" lon="123.930347"><ele>15.348312</ele><time>2024-10-15T02:03:24Z</time><name>294</name><sym>Flag, Blue</sym></wpt><wpt lat="10.319395" lon="123.930359"><ele>14.231606</ele><time>2024-10-15T02:03:44Z</time><name>295</name><sym>Flag, Blue</sym></wpt><wpt lat="10.319375" lon="123.930363"><ele>15.218681</ele><time>2024-10-15T02:03:52Z</time><name>296</name><sym>Flag, Blue</sym></wpt><wpt lat="10.319334" lon="123.930361"><ele>15.874630</ele><time>2024-10-15T02:04:04Z</time><name>297</name><sym>Flag, Blue</sym></wpt><wpt lat="10.319331" lon="123.930353"><ele>15.914944</ele><time>2024-10-15T02:04:12Z</time><name>298</name><sym>Flag, Blue</sym></wpt><wpt lat="10.319324" lon="123.930362"><ele>15.357250</ele><time>2024-10-15T02:04:19Z</time><name>299</name><sym>Flag, Blue</sym></wpt><wpt lat="10.319292" lon="123.930375"><ele>14.106693</ele><time>2024-10-15T02:04:29Z</time><name>300</name><sym>Flag, Blue</sym></wpt><wpt lat="10.319237" lon="123.930355"><ele>13.736233</ele><time>2024-10-15T02:04:41Z</time><name>301</name><sym>Flag, Blue</sym></wpt><wpt lat="10.319099" lon="123.930267"><ele>14.887325</ele><time>2024-10-15T02:05:01Z</time><name>302</name><sym>Flag, Blue</sym></wpt><wpt lat="10.319066" lon="123.930243"><ele>14.325970</ele><time>2024-10-15T02:05:11Z</time><name>303</name><sym>Flag, Blue</sym></wpt><wpt lat="10.318982" lon="123.930201"><ele>14.639675</ele><time>2024-10-15T02:05:26Z</time><name>304</name><sym>Flag, Blue</sym></wpt><wpt lat="10.318971" lon="123.930180"><ele>13.772091</ele><time>2024-10-15T02:05:34Z</time><name>305</name><sym>Flag, Blue</sym></wpt><wpt lat="10.318923" lon="123.930143"><ele>12.874470</ele><time>2024-10-15T02:05:44Z</time><name>306</name><sym>Flag, Blue</sym></wpt><wpt lat="10.318846" lon="123.930099"><ele>12.620960</ele><time>2024-10-15T02:05:59Z</time><name>307</name><sym>Flag, Blue</sym></wpt><wpt lat="10.318548" lon="123.929909"><ele>12.306507</ele><time>2024-10-15T02:06:35Z</time><name>308</name><sym>Flag, Blue</sym></wpt><wpt lat="10.318543" lon="123.929907"><ele>11.755947</ele><time>2024-10-15T02:06:50Z</time><name>309</name><sym>Flag, Blue</sym></wpt><wpt lat="10.318393" lon="123.929815"><ele>13.460922</ele><time>2024-10-15T02:07:11Z</time><name>310</name><sym>Flag, Blue</sym></wpt><wpt lat="10.318378" lon="123.929777"><ele>11.952347</ele><time>2024-10-15T02:07:22Z</time><name>311</name><sym>Flag, Blue</sym></wpt><wpt lat="10.318362" lon="123.929774"><ele>12.372269</ele><time>2024-10-15T02:07:32Z</time><name>312</name><sym>Flag, Blue</sym></wpt><wpt lat="10.317804" lon="123.929392"><ele>12.157047</ele><time>2024-10-15T02:08:33Z</time><name>313</name><sym>Flag, Blue</sym></wpt><wpt lat="10.313184" lon="123.924494"><ele>20.843426</ele><time>2024-10-15T02:13:48Z</time><name>314</name><sym>Flag, Blue</sym></wpt><wpt lat="10.313169" lon="123.924432"><ele>25.918137</ele><time>2024-10-15T02:14:11Z</time><name>315</name><sym>Flag, Blue</sym></wpt><wpt lat="10.313310" lon="123.924501"><ele>25.193985</ele><time>2024-10-15T02:14:31Z</time><name>316</name><sym>Flag, Blue</sym></wpt><wpt lat="10.313473" lon="123.924696"><ele>20.997513</ele><time>2024-10-15T02:14:56Z</time><name>317</name><sym>Flag, Blue</sym></wpt><wpt lat="10.313507" lon="123.924747"><ele>21.205198</ele><time>2024-10-15T02:15:09Z</time><name>318</name><sym>Flag, Blue</sym></wpt><wpt lat="10.313580" lon="123.924859"><ele>20.685827</ele><time>2024-10-15T02:15:31Z</time><name>319</name><sym>Flag, Blue</sym></wpt><wpt lat="10.313621" lon="123.924914"><ele>19.446114</ele><time>2024-10-15T02:15:43Z</time><name>320</name><sym>Flag, Blue</sym></wpt><wpt lat="10.313624" lon="123.924948"><ele>17.210102</ele><time>2024-10-15T02:15:55Z</time><name>321</name><sym>Flag, Blue</sym></wpt><wpt lat="10.313717" lon="123.925071"><ele>16.242140</ele><time>2024-10-15T02:16:14Z</time><name>322</name><sym>Flag, Blue</sym></wpt><wpt lat="10.313743" lon="123.925128"><ele>16.339798</ele><time>2024-10-15T02:16:33Z</time><name>323</name><sym>Flag, Blue</sym></wpt><wpt lat="10.313770" lon="123.925145"><ele>16.155212</ele><time>2024-10-15T02:16:45Z</time><name>324</name><sym>Flag, Blue</sym></wpt><wpt lat="10.313784" lon="123.925173"><ele>17.297056</ele><time>2024-10-15T02:17:05Z</time><name>325</name><sym>Flag, Blue</sym></wpt><wpt lat="10.313828" lon="123.925225"><ele>17.352901</ele><time>2024-10-15T02:17:17Z</time><name>326</name><sym>Flag, Blue</sym></wpt><wpt lat="10.313907" lon="123.925330"><ele>17.571194</ele><time>2024-10-15T02:17:34Z</time><name>327</name><sym>Flag, Blue</sym></wpt><wpt lat="10.313992" lon="123.925444"><ele>18.796673</ele><time>2024-10-15T02:18:15Z</time><name>328</name><sym>Flag, Blue</sym></wpt><wpt lat="10.314034" lon="123.925503"><ele>18.735134</ele><time>2024-10-15T02:18:26Z</time><name>329</name><sym>Flag, Blue</sym></wpt><wpt lat="10.314082" lon="123.925569"><ele>18.901432</ele><time>2024-10-15T02:18:40Z</time><name>330</name><sym>Flag, Blue</sym></wpt><wpt lat="10.314323" lon="123.925865"><ele>18.789120</ele><time>2024-10-15T02:19:18Z</time><name>331</name><sym>Flag, Blue</sym></wpt><wpt lat="10.314356" lon="123.925912"><ele>18.242062</ele><time>2024-10-15T02:19:33Z</time><name>332</name><sym>Flag, Blue</sym></wpt><wpt lat="10.314419" lon="123.925987"><ele>17.319691</ele><time>2024-10-15T02:19:49Z</time><name>333</name><sym>Flag, Blue</sym></wpt><wpt lat="10.314449" lon="123.926028"><ele>16.485258</ele><time>2024-10-15T02:20:00Z</time><name>334</name><sym>Flag, Blue</sym></wpt><wpt lat="10.314522" lon="123.926124"><ele>15.754078</ele><time>2024-10-15T02:20:16Z</time><name>335</name><sym>Flag, Blue</sym></wpt><wpt lat="10.314785" lon="123.926461"><ele>16.636990</ele><time>2024-10-15T02:20:46Z</time><name>336</name><sym>Flag, Blue</sym></wpt><wpt lat="10.314797" lon="123.926481"><ele>16.022984</ele><time>2024-10-15T02:20:56Z</time><name>337</name><sym>Flag, Blue</sym></wpt><wpt lat="10.314848" lon="123.926542"><ele>15.625435</ele><time>2024-10-15T02:21:11Z</time><name>338</name><sym>Flag, Blue</sym></wpt><wpt lat="10.314956" lon="123.926677"><ele>13.961189</ele><time>2024-10-15T02:21:29Z</time><name>339</name><sym>Flag, Blue</sym></wpt><wpt lat="10.315005" lon="123.926733"><ele>13.022064</ele><time>2024-10-15T02:21:40Z</time><name>340</name><sym>Flag, Blue</sym></wpt><wpt lat="10.315014" lon="123.926752"><ele>13.003410</ele><time>2024-10-15T02:21:49Z</time><name>341</name><sym>Flag, Blue</sym></wpt><wpt lat="10.315115" lon="123.926882"><ele>13.154857</ele><time>2024-10-15T02:22:06Z</time><name>342</name><sym>Flag, Blue</sym></wpt><wpt lat="10.315187" lon="123.926978"><ele>13.004106</ele><time>2024-10-15T02:22:22Z</time><name>343</name><sym>Flag, Blue</sym></wpt><wpt lat="10.315238" lon="123.927053"><ele>12.373690</ele><time>2024-10-15T02:22:34Z</time><name>344</name><sym>Flag, Blue</sym></wpt><wpt lat="10.315796" lon="123.927765"><ele>12.287338</ele><time>2024-10-15T02:23:19Z</time><name>345</name><sym>Flag, Blue</sym></wpt><wpt lat="10.315860" lon="123.927853"><ele>12.864189</ele><time>2024-10-15T02:23:35Z</time><name>346</name><sym>Flag, Blue</sym></wpt><wpt lat="10.315920" lon="123.927941"><ele>13.304565</ele><time>2024-10-15T02:23:49Z</time><name>347</name><sym>Flag, Blue</sym></wpt><wpt lat="10.315942" lon="123.927979"><ele>12.666393</ele><time>2024-10-15T02:23:59Z</time><name>348</name><sym>Flag, Blue</sym></wpt><wpt lat="10.316034" lon="123.928077"><ele>8.154369</ele><time>2024-10-15T02:24:50Z</time><name>349</name><sym>Flag, Blue</sym></wpt><wpt lat="10.316056" lon="123.928094"><ele>8.757819</ele><time>2024-10-15T02:25:00Z</time><name>350</name><sym>Flag, Blue</sym></wpt><wpt lat="10.316118" lon="123.928174"><ele>10.926598</ele><time>2024-10-15T02:25:34Z</time><name>351</name><sym>Flag, Blue</sym></wpt><wpt lat="10.316184" lon="123.928269"><ele>13.465500</ele><time>2024-10-15T02:26:13Z</time><name>352</name><sym>Flag, Blue</sym></wpt><wpt lat="10.316192" lon="123.928282"><ele>13.629410</ele><time>2024-10-15T02:26:24Z</time><name>353</name><sym>Flag, Blue</sym></wpt><wpt lat="10.316183" lon="123.928309"><ele>14.212585</ele><time>2024-10-15T02:27:28Z</time><name>354</name><sym>Flag, Blue</sym></wpt><wpt lat="10.316194" lon="123.928315"><ele>14.224770</ele><time>2024-10-15T02:27:37Z</time><name>355</name><sym>Flag, Blue</sym></wpt><wpt lat="10.316315" lon="123.928456"><ele>14.649120</ele><time>2024-10-15T02:27:58Z</time><name>356</name><sym>Flag, Blue</sym></wpt><wpt lat="10.316375" lon="123.928521"><ele>15.744526</ele><time>2024-10-15T02:28:10Z</time><name>357</name><sym>Flag, Blue</sym></wpt><wpt lat="10.316434" lon="123.928592"><ele>15.688976</ele><time>2024-10-15T02:28:23Z</time><name>358</name><sym>Flag, Blue</sym></wpt><wpt lat="10.315174" lon="123.929762"><ele>18.066891</ele><time>2024-10-15T02:30:44Z</time><name>359</name><sym>Flag, Blue</sym></wpt><wpt lat="10.315146" lon="123.929716"><ele>18.757156</ele><time>2024-10-15T02:30:57Z</time><name>360</name><sym>Flag, Blue</sym></wpt><wpt lat="10.315119" lon="123.929694"><ele>19.249634</ele><time>2024-10-15T02:31:06Z</time><name>361</name><sym>Flag, Blue</sym></wpt><wpt lat="10.315117" lon="123.929670"><ele>17.444611</ele><time>2024-10-15T02:31:19Z</time><name>362</name><sym>Flag, Blue</sym></wpt><wpt lat="10.315056" lon="123.929543"><ele>11.941963</ele><time>2024-10-15T02:31:50Z</time><name>363</name><sym>Flag, Blue</sym></wpt><wpt lat="10.315019" lon="123.929515"><ele>12.171196</ele><time>2024-10-15T02:32:02Z</time><name>364</name><sym>Flag, Blue</sym></wpt><wpt lat="10.315010" lon="123.929501"><ele>12.546715</ele><time>2024-10-15T02:32:10Z</time><name>365</name><sym>Flag, Blue</sym></wpt><wpt lat="10.314981" lon="123.929456"><ele>12.895241</ele><time>2024-10-15T02:32:23Z</time><name>366</name><sym>Flag, Blue</sym></wpt><wpt lat="10.314970" lon="123.929439"><ele>13.003792</ele><time>2024-10-15T02:32:32Z</time><name>367</name><sym>Flag, Blue</sym></wpt><wpt lat="10.314930" lon="123.929400"><ele>11.684723</ele><time>2024-10-15T02:32:43Z</time><name>368</name><sym>Flag, Blue</sym></wpt><wpt lat="10.314844" lon="123.929285"><ele>10.325508</ele><time>2024-10-15T02:33:01Z</time><name>369</name><sym>Flag, Blue</sym></wpt><wpt lat="10.314829" lon="123.929266"><ele>9.679955</ele><time>2024-10-15T02:33:10Z</time><name>370</name><sym>Flag, Blue</sym></wpt><wpt lat="10.314793" lon="123.929217"><ele>10.271202</ele><time>2024-10-15T02:33:23Z</time><name>371</name><sym>Flag, Blue</sym></wpt><wpt lat="10.314745" lon="123.929161"><ele>10.916954</ele><time>2024-10-15T02:33:35Z</time><name>372</name><sym>Flag, Blue</sym></wpt><wpt lat="10.314738" lon="123.929128"><ele>10.992332</ele><time>2024-10-15T02:33:44Z</time><name>373</name><sym>Flag, Blue</sym></wpt><wpt lat="10.314721" lon="123.929097"><ele>11.659702</ele><time>2024-10-15T02:33:58Z</time><name>374</name><sym>Flag, Blue</sym></wpt><wpt lat="10.314671" lon="123.929039"><ele>11.533474</ele><time>2024-10-15T02:34:11Z</time><name>375</name><sym>Flag, Blue</sym></wpt><wpt lat="10.314645" lon="123.929006"><ele>11.655918</ele><time>2024-10-15T02:34:21Z</time><name>376</name><sym>Flag, Blue</sym></wpt><wpt lat="10.314620" lon="123.928984"><ele>12.476101</ele><time>2024-10-15T02:34:29Z</time><name>377</name><sym>Flag, Blue</sym></wpt><wpt lat="10.314604" lon="123.928971"><ele>13.504086</ele><time>2024-10-15T02:34:37Z</time><name>378</name><sym>Flag, Blue</sym></wpt><wpt lat="10.314591" lon="123.928943"><ele>13.809078</ele><time>2024-10-15T02:34:45Z</time><name>379</name><sym>Flag, Blue</sym></wpt><wpt lat="10.314561" lon="123.928914"><ele>13.507618</ele><time>2024-10-15T02:34:53Z</time><name>380</name><sym>Flag, Blue</sym></wpt><wpt lat="10.314553" lon="123.928897"><ele>13.788937</ele><time>2024-10-15T02:35:01Z</time><name>381</name><sym>Flag, Blue</sym></wpt><wpt lat="10.314475" lon="123.928818"><ele>14.229771</ele><time>2024-10-15T02:35:17Z</time><name>382</name><sym>Flag, Blue</sym></wpt><wpt lat="10.314447" lon="123.928779"><ele>14.335808</ele><time>2024-10-15T02:35:27Z</time><name>383</name><sym>Flag, Blue</sym></wpt><wpt lat="10.314606" lon="123.929193"><ele>10.028572</ele><time>2024-10-15T02:36:32Z</time><name>384</name><sym>Flag, Blue</sym></wpt><wpt lat="10.314601" lon="123.929196"><ele>10.125839</ele><time>2024-10-15T02:36:44Z</time><name>385</name><sym>Flag, Blue</sym></wpt><wpt lat="10.314120" lon="123.928379"><ele>10.182462</ele><time>2024-10-15T02:37:35Z</time><name>386</name><sym>Flag, Blue</sym></wpt><wpt lat="10.313982" lon="123.928192"><ele>10.107414</ele><time>2024-10-15T02:37:52Z</time><name>387</name><sym>Flag, Blue</sym></wpt><wpt lat="10.313894" lon="123.928066"><ele>12.056305</ele><time>2024-10-15T02:38:07Z</time><name>388</name><sym>Flag, Blue</sym></wpt><wpt lat="10.313739" lon="123.927875"><ele>11.465254</ele><time>2024-10-15T02:38:19Z</time><name>389</name><sym>Flag, Blue</sym></wpt><wpt lat="10.313647" lon="123.927767"><ele>11.034740</ele><time>2024-10-15T02:38:32Z</time><name>390</name><sym>Flag, Blue</sym></wpt><wpt lat="10.313512" lon="123.927822"><ele>15.032482</ele><time>2024-10-15T02:39:08Z</time><name>391</name><sym>Flag, Blue</sym></wpt><wpt lat="10.313514" lon="123.927800"><ele>15.856579</ele><time>2024-10-15T02:39:16Z</time><name>392</name><sym>Flag, Blue</sym></wpt><wpt lat="10.313466" lon="123.927747"><ele>17.166828</ele><time>2024-10-15T02:39:30Z</time><name>393</name><sym>Flag, Blue</sym></wpt><wpt lat="10.313316" lon="123.927324"><ele>15.306022</ele><time>2024-10-15T02:40:23Z</time><name>394</name><sym>Flag, Blue</sym></wpt><wpt lat="10.313181" lon="123.927158"><ele>16.337681</ele><time>2024-10-15T02:40:41Z</time><name>395</name><sym>Flag, Blue</sym></wpt><wpt lat="10.313176" lon="123.927156"><ele>15.148724</ele><time>2024-10-15T02:40:47Z</time><name>396</name><sym>Flag, Blue</sym></wpt><wpt lat="10.313142" lon="123.927087"><ele>11.950710</ele><time>2024-10-15T02:41:00Z</time><name>397</name><sym>Flag, Blue</sym></wpt><wpt lat="10.312960" lon="123.926877"><ele>11.389503</ele><time>2024-10-15T02:41:21Z</time><name>398</name><sym>Flag, Blue</sym></wpt><wpt lat="10.312931" lon="123.926863"><ele>13.046448</ele><time>2024-10-15T02:41:34Z</time><name>399</name><sym>Flag, Blue</sym></wpt><wpt lat="10.312927" lon="123.926851"><ele>14.599899</ele><time>2024-10-15T02:41:43Z</time><name>400</name><sym>Flag, Blue</sym></wpt><wpt lat="10.312919" lon="123.926838"><ele>15.314401</ele><time>2024-10-15T02:41:51Z</time><name>401</name><sym>Flag, Blue</sym></wpt><wpt lat="10.312849" lon="123.926875"><ele>16.963154</ele><time>2024-10-15T02:42:12Z</time><name>402</name><sym>Flag, Blue</sym></wpt><wpt lat="10.312950" lon="123.926719"><ele>20.800163</ele><time>2024-10-15T02:42:51Z</time><name>403</name><sym>Flag, Blue</sym></wpt><wpt lat="10.312887" lon="123.926687"><ele>19.281914</ele><time>2024-10-15T02:43:00Z</time><name>404</name><sym>Flag, Blue</sym></wpt><wpt lat="10.312840" lon="123.926656"><ele>19.617683</ele><time>2024-10-15T02:43:12Z</time><name>405</name><sym>Flag, Blue</sym></wpt><wpt lat="10.312825" lon="123.926640"><ele>18.443424</ele><time>2024-10-15T02:43:21Z</time><name>406</name><sym>Flag, Blue</sym></wpt><wpt lat="10.312733" lon="123.926555"><ele>15.754910</ele><time>2024-10-15T02:43:44Z</time><name>407</name><sym>Flag, Blue</sym></wpt><wpt lat="10.312611" lon="123.926444"><ele>14.669407</ele><time>2024-10-15T02:43:59Z</time><name>408</name><sym>Flag, Blue</sym></wpt><wpt lat="10.312596" lon="123.926427"><ele>13.943119</ele><time>2024-10-15T02:44:05Z</time><name>409</name><sym>Flag, Blue</sym></wpt><wpt lat="10.312415" lon="123.926208"><ele>12.287838</ele><time>2024-10-15T02:44:22Z</time><name>410</name><sym>Flag, Blue</sym></wpt><wpt lat="10.312137" lon="123.925851"><ele>8.580002</ele><time>2024-10-15T02:44:42Z</time><name>411</name><sym>Flag, Blue</sym></wpt><wpt lat="10.312110" lon="123.925808"><ele>7.886201</ele><time>2024-10-15T02:44:51Z</time><name>412</name><sym>Flag, Blue</sym></wpt><wpt lat="10.311797" lon="123.925547"><ele>10.315319</ele><time>2024-10-15T02:45:47Z</time><name>413</name><sym>Flag, Blue</sym></wpt><wpt lat="10.311761" lon="123.925355"><ele>11.412567</ele><time>2024-10-15T02:46:17Z</time><name>414</name><sym>Flag, Blue</sym></wpt><wpt lat="10.311756" lon="123.925344"><ele>13.233203</ele><time>2024-10-15T02:46:25Z</time><name>415</name><sym>Flag, Blue</sym></wpt><wpt lat="10.311962" lon="123.925171"><ele>15.545418</ele><time>2024-10-15T02:46:57Z</time><name>416</name><sym>Flag, Blue</sym></wpt><wpt lat="10.311969" lon="123.925157"><ele>16.065117</ele><time>2024-10-15T02:47:05Z</time><name>417</name><sym>Flag, Blue</sym></wpt><wpt lat="10.312042" lon="123.925096"><ele>14.817042</ele><time>2024-10-15T02:47:22Z</time><name>418</name><sym>Flag, Blue</sym></wpt><wpt lat="10.312102" lon="123.925054"><ele>13.167374</ele><time>2024-10-15T02:47:36Z</time><name>419</name><sym>Flag, Blue</sym></wpt><wpt lat="10.312142" lon="123.925009"><ele>11.801872</ele><time>2024-10-15T02:47:48Z</time><name>420</name><sym>Flag, Blue</sym></wpt><wpt lat="10.312159" lon="123.924985"><ele>12.313231</ele><time>2024-10-15T02:47:58Z</time><name>421</name><sym>Flag, Blue</sym></wpt><wpt lat="10.312464" lon="123.924746"><ele>12.152134</ele><time>2024-10-15T02:48:39Z</time><name>422</name><sym>Flag, Blue</sym></wpt><wpt lat="10.312768" lon="123.924512"><ele>9.964062</ele><time>2024-10-15T02:49:18Z</time><name>423</name><sym>Flag, Blue</sym></wpt><wpt lat="10.312793" lon="123.924494"><ele>11.342503</ele><time>2024-10-15T02:49:30Z</time><name>424</name><sym>Flag, Blue</sym></wpt><wpt lat="10.312820" lon="123.924482"><ele>11.909507</ele><time>2024-10-15T02:49:40Z</time><name>425</name><sym>Flag, Blue</sym></wpt><wpt lat="10.312875" lon="123.924392"><ele>12.378540</ele><time>2024-10-15T02:49:59Z</time><name>426</name><sym>Flag, Blue</sym></wpt><wpt lat="10.316014" lon="123.927875"><ele>19.823864</ele><time>2024-10-15T02:58:31Z</time><name>427</name><sym>Flag, Blue</sym></wpt><wpt lat="10.315969" lon="123.927784"><ele>19.779781</ele><time>2024-10-15T02:58:47Z</time><name>428</name><sym>Flag, Blue</sym></wpt><wpt lat="10.315970" lon="123.927783"><ele>20.316471</ele><time>2024-10-15T02:58:54Z</time><name>429</name><sym>Flag, Blue</sym></wpt><wpt lat="10.315763" lon="123.927503"><ele>22.333904</ele><time>2024-10-15T02:59:11Z</time><name>430</name><sym>Flag, Blue</sym></wpt><wpt lat="10.315188" lon="123.926726"><ele>21.573368</ele><time>2024-10-15T02:59:37Z</time><name>431</name><sym>Flag, Blue</sym></wpt><wpt lat="10.315184" lon="123.926727"><ele>20.657898</ele><time>2024-10-15T02:59:42Z</time><name>432</name><sym>Flag, Blue</sym></wpt><wpt lat="10.315142" lon="123.926686"><ele>19.870037</ele><time>2024-10-15T02:59:53Z</time><name>433</name><sym>Flag, Blue</sym></wpt><wpt lat="10.315061" lon="123.926583"><ele>19.449392</ele><time>2024-10-15T03:00:06Z</time><name>434</name><sym>Flag, Blue</sym></wpt><wpt lat="10.315048" lon="123.926573"><ele>19.626820</ele><time>2024-10-15T03:00:12Z</time><name>435</name><sym>Flag, Blue</sym></wpt><wpt lat="10.315043" lon="123.926581"><ele>19.791172</ele><time>2024-10-15T03:00:18Z</time><name>436</name><sym>Flag, Blue</sym></wpt><wpt lat="10.315037" lon="123.926582"><ele>19.863644</ele><time>2024-10-15T03:00:25Z</time><name>437</name><sym>Flag, Blue</sym></wpt><wpt lat="10.315007" lon="123.926542"><ele>19.638340</ele><time>2024-10-15T03:00:42Z</time><name>438</name><sym>Flag, Blue</sym></wpt><wpt lat="10.315002" lon="123.926532"><ele>19.651096</ele><time>2024-10-15T03:00:50Z</time><name>439</name><sym>Flag, Blue</sym></wpt><wpt lat="10.314977" lon="123.926506"><ele>19.852467</ele><time>2024-10-15T03:00:56Z</time><name>440</name><sym>Flag, Blue</sym></wpt><wpt lat="10.314961" lon="123.926503"><ele>20.211029</ele><time>2024-10-15T03:01:06Z</time><name>441</name><sym>Flag, Blue</sym></wpt><wpt lat="10.314958" lon="123.926506"><ele>20.620201</ele><time>2024-10-15T03:01:13Z</time><name>442</name><sym>Flag, Blue</sym></wpt><wpt lat="10.314959" lon="123.926495"><ele>20.811043</ele><time>2024-10-15T03:01:24Z</time><name>443</name><sym>Flag, Blue</sym></wpt><wpt lat="10.314933" lon="123.926466"><ele>19.206198</ele><time>2024-10-15T03:02:16Z</time><name>444</name><sym>Flag, Blue</sym></wpt><wpt lat="10.314922" lon="123.926444"><ele>19.593731</ele><time>2024-10-15T03:02:22Z</time><name>445</name><sym>Flag, Blue</sym></wpt><wpt lat="10.314922" lon="123.926446"><ele>20.919186</ele><time>2024-10-15T03:02:29Z</time><name>446</name><sym>Flag, Blue</sym></wpt><wpt lat="10.314624" lon="123.926005"><ele>18.364269</ele><time>2024-10-15T03:03:02Z</time><name>447</name><sym>Flag, Blue</sym></wpt><wpt lat="10.314598" lon="123.925963"><ele>16.207127</ele><time>2024-10-15T03:03:16Z</time><name>448</name><sym>Flag, Blue</sym></wpt><wpt lat="10.314580" lon="123.925953"><ele>15.666607</ele><time>2024-10-15T03:03:23Z</time><name>449</name><sym>Flag, Blue</sym></wpt><wpt lat="10.313819" lon="123.924958"><ele>12.399105</ele><time>2024-10-15T03:03:54Z</time><name>450</name><sym>Flag, Blue</sym></wpt><wpt lat="10.313809" lon="123.924949"><ele>13.027683</ele><time>2024-10-15T03:04:01Z</time><name>451</name><sym>Flag, Blue</sym></wpt><wpt lat="10.313779" lon="123.924925"><ele>13.652908</ele><time>2024-10-15T03:04:12Z</time><name>452</name><sym>Flag, Blue</sym></wpt><wpt lat="10.313288" lon="123.924246"><ele>14.369900</ele><time>2024-10-15T03:04:43Z</time><name>453</name><sym>Flag, Blue</sym></wpt><wpt lat="10.313250" lon="123.924038"><ele>9.655720</ele><time>2024-10-15T03:05:36Z</time><name>454</name><sym>Flag, Blue</sym></wpt><wpt lat="10.313276" lon="123.924032"><ele>8.837634</ele><time>2024-10-15T03:05:45Z</time><name>455</name><sym>Flag, Blue</sym></wpt><wpt lat="10.313357" lon="123.923991"><ele>7.370129</ele><time>2024-10-15T03:06:00Z</time><name>456</name><sym>Flag, Blue</sym></wpt><wpt lat="10.313387" lon="123.923972"><ele>6.160976</ele><time>2024-10-15T03:06:11Z</time><name>457</name><sym>Flag, Blue</sym></wpt><wpt lat="10.313799" lon="123.923585"><ele>7.545902</ele><time>2024-10-15T03:07:14Z</time><name>458</name><sym>Flag, Blue</sym></wpt><wpt lat="10.313880" lon="123.923474"><ele>8.191814</ele><time>2024-10-15T03:07:35Z</time><name>459</name><sym>Flag, Blue</sym></wpt><wpt lat="10.313919" lon="123.923429"><ele>9.944492</ele><time>2024-10-15T03:07:47Z</time><name>460</name><sym>Flag, Blue</sym></wpt><wpt lat="10.313966" lon="123.923434"><ele>10.562511</ele><time>2024-10-15T03:07:59Z</time><name>461</name><sym>Flag, Blue</sym></wpt><wpt lat="10.314363" lon="123.923199"><ele>8.635353</ele><time>2024-10-15T03:09:00Z</time><name>462</name><sym>Flag, Blue</sym></wpt><wpt lat="10.314385" lon="123.923212"><ele>10.015518</ele><time>2024-10-15T03:09:11Z</time><name>463</name><sym>Flag, Blue</sym></wpt><wpt lat="10.314588" lon="123.923366"><ele>11.561340</ele><time>2024-10-15T03:09:55Z</time><name>464</name><sym>Flag, Blue</sym></wpt><wpt lat="10.314684" lon="123.923454"><ele>12.618683</ele><time>2024-10-15T03:10:16Z</time><name>465</name><sym>Flag, Blue</sym></wpt><wpt lat="10.314781" lon="123.923518"><ele>12.894405</ele><time>2024-10-15T03:11:20Z</time><name>466</name><sym>Flag, Blue</sym></wpt><wpt lat="10.314851" lon="123.923592"><ele>11.955204</ele><time>2024-10-15T03:11:41Z</time><name>467</name><sym>Flag, Blue</sym></wpt><wpt lat="10.314876" lon="123.923582"><ele>11.552444</ele><time>2024-10-15T03:11:58Z</time><name>468</name><sym>Flag, Blue</sym></wpt><wpt lat="10.314925" lon="123.923638"><ele>10.041991</ele><time>2024-10-15T03:12:13Z</time><name>469</name><sym>Flag, Blue</sym></wpt><wpt lat="10.314935" lon="123.923647"><ele>9.251976</ele><time>2024-10-15T03:12:20Z</time><name>470</name><sym>Flag, Blue</sym></wpt><wpt lat="10.314992" lon="123.923728"><ele>10.612394</ele><time>2024-10-15T03:12:34Z</time><name>471</name><sym>Flag, Blue</sym></wpt><wpt lat="10.314999" lon="123.923736"><ele>13.028259</ele><time>2024-10-15T03:12:41Z</time><name>472</name><sym>Flag, Blue</sym></wpt><wpt lat="10.314996" lon="123.923751"><ele>15.099384</ele><time>2024-10-15T03:13:02Z</time><name>473</name><sym>Flag, Blue</sym></wpt><wpt lat="10.315210" lon="123.923951"><ele>15.743025</ele><time>2024-10-15T03:13:31Z</time><name>474</name><sym>Flag, Blue</sym></wpt><wpt lat="10.315414" lon="123.924137"><ele>14.746947</ele><time>2024-10-15T03:13:49Z</time><name>475</name><sym>Flag, Blue</sym></wpt><wpt lat="10.315419" lon="123.924132"><ele>14.954441</ele><time>2024-10-15T03:13:55Z</time><name>476</name><sym>Flag, Blue</sym></wpt><wpt lat="10.315488" lon="123.924171"><ele>14.396151</ele><time>2024-10-15T03:14:06Z</time><name>477</name><sym>Flag, Blue</sym></wpt><wpt lat="10.315651" lon="123.924278"><ele>11.513479</ele><time>2024-10-15T03:14:29Z</time><name>478</name><sym>Flag, Blue</sym></wpt><wpt lat="10.315786" lon="123.924385"><ele>11.299679</ele><time>2024-10-15T03:14:45Z</time><name>479</name><sym>Flag, Blue</sym></wpt><wpt lat="10.315785" lon="123.924393"><ele>12.890575</ele><time>2024-10-15T03:14:57Z</time><name>480</name><sym>Flag, Blue</sym></wpt><wpt lat="10.315781" lon="123.924391"><ele>13.443405</ele><time>2024-10-15T03:15:02Z</time><name>481</name><sym>Flag, Blue</sym></wpt><wpt lat="10.315826" lon="123.924437"><ele>14.350594</ele><time>2024-10-15T03:15:15Z</time><name>482</name><sym>Flag, Blue</sym></wpt><wpt lat="10.315958" lon="123.924510"><ele>12.466846</ele><time>2024-10-15T03:15:30Z</time><name>483</name><sym>Flag, Blue</sym></wpt><wpt lat="10.316436" lon="123.924796"><ele>10.163698</ele><time>2024-10-15T03:15:54Z</time><name>484</name><sym>Flag, Blue</sym></wpt><wpt lat="10.316485" lon="123.924813"><ele>11.398471</ele><time>2024-10-15T03:16:06Z</time><name>485</name><sym>Flag, Blue</sym></wpt><wpt lat="10.316541" lon="123.924835"><ele>11.164225</ele><time>2024-10-15T03:16:16Z</time><name>486</name><sym>Flag, Blue</sym></wpt><wpt lat="10.316564" lon="123.924854"><ele>11.313576</ele><time>2024-10-15T03:16:22Z</time><name>487</name><sym>Flag, Blue</sym></wpt><wpt lat="10.316588" lon="123.924864"><ele>11.444143</ele><time>2024-10-15T03:16:32Z</time><name>488</name><sym>Flag, Blue</sym></wpt><wpt lat="10.316701" lon="123.924932"><ele>11.295533</ele><time>2024-10-15T03:16:40Z</time><name>489</name><sym>Flag, Blue</sym></wpt><wpt lat="10.316768" lon="123.924967"><ele>13.253526</ele><time>2024-10-15T03:16:59Z</time><name>490</name><sym>Flag, Blue</sym></wpt><wpt lat="10.316810" lon="123.924974"><ele>14.809036</ele><time>2024-10-15T03:17:15Z</time><name>491</name><sym>Flag, Blue</sym></wpt><wpt lat="10.316924" lon="123.925057"><ele>12.029637</ele><time>2024-10-15T03:17:32Z</time><name>492</name><sym>Flag, Blue</sym></wpt><wpt lat="10.317080" lon="123.925148"><ele>13.473747</ele><time>2024-10-15T03:18:04Z</time><name>493</name><sym>Flag, Blue</sym></wpt><wpt lat="10.317094" lon="123.925151"><ele>14.708557</ele><time>2024-10-15T03:18:10Z</time><name>494</name><sym>Flag, Blue</sym></wpt><wpt lat="10.317125" lon="123.925162"><ele>16.230888</ele><time>2024-10-15T03:18:18Z</time><name>495</name><sym>Flag, Blue</sym></wpt><wpt lat="10.317215" lon="123.925219"><ele>19.234386</ele><time>2024-10-15T03:18:32Z</time><name>496</name><sym>Flag, Blue</sym></wpt><wpt lat="10.317270" lon="123.925240"><ele>17.398781</ele><time>2024-10-15T03:18:46Z</time><name>497</name><sym>Flag, Blue</sym></wpt><wpt lat="10.317333" lon="123.925237"><ele>16.358215</ele><time>2024-10-15T03:18:56Z</time><name>498</name><sym>Flag, Blue</sym></wpt><wpt lat="10.317407" lon="123.925271"><ele>14.113452</ele><time>2024-10-15T03:19:11Z</time><name>499</name><sym>Flag, Blue</sym></wpt><wpt lat="10.317431" lon="123.925292"><ele>14.018047</ele><time>2024-10-15T03:19:16Z</time><name>500</name><sym>Flag, Blue</sym></wpt><wpt lat="10.317499" lon="123.925322"><ele>13.815870</ele><time>2024-10-15T03:19:27Z</time><name>501</name><sym>Flag, Blue</sym></wpt><wpt lat="10.317545" lon="123.925325"><ele>12.990124</ele><time>2024-10-15T03:19:36Z</time><name>502</name><sym>Flag, Blue</sym></wpt><wpt lat="10.317604" lon="123.925344"><ele>13.012402</ele><time>2024-10-15T03:19:45Z</time><name>503</name><sym>Flag, Blue</sym></wpt><wpt lat="10.317621" lon="123.925355"><ele>12.433632</ele><time>2024-10-15T03:19:49Z</time><name>504</name><sym>Flag, Blue</sym></wpt><wpt lat="10.317697" lon="123.925401"><ele>11.219689</ele><time>2024-10-15T03:19:58Z</time><name>505</name><sym>Flag, Blue</sym></wpt><wpt lat="10.317741" lon="123.925429"><ele>9.563641</ele><time>2024-10-15T03:20:07Z</time><name>506</name><sym>Flag, Blue</sym></wpt><wpt lat="10.317892" lon="123.925484"><ele>9.790867</ele><time>2024-10-15T03:20:14Z</time><name>507</name><sym>Flag, Blue</sym></wpt><wpt lat="10.317940" lon="123.925534"><ele>9.280209</ele><time>2024-10-15T03:20:25Z</time><name>508</name><sym>Flag, Blue</sym></wpt><wpt lat="10.317987" lon="123.925520"><ele>9.667492</ele><time>2024-10-15T03:20:30Z</time><name>509</name><sym>Flag, Blue</sym></wpt><wpt lat="10.318024" lon="123.925525"><ele>10.871128</ele><time>2024-10-15T03:20:35Z</time><name>510</name><sym>Flag, Blue</sym></wpt><wpt lat="10.318055" lon="123.925540"><ele>12.449825</ele><time>2024-10-15T03:20:45Z</time><name>511</name><sym>Flag, Blue</sym></wpt><wpt lat="10.318265" lon="123.925612"><ele>9.796804</ele><time>2024-10-15T03:20:57Z</time><name>512</name><sym>Flag, Blue</sym></wpt><wpt lat="10.318348" lon="123.925623"><ele>9.083462</ele><time>2024-10-15T03:21:05Z</time><name>513</name><sym>Flag, Blue</sym></wpt><wpt lat="10.318372" lon="123.925635"><ele>9.622105</ele><time>2024-10-15T03:21:10Z</time><name>514</name><sym>Flag, Blue</sym></wpt><wpt lat="10.318390" lon="123.925639"><ele>9.797253</ele><time>2024-10-15T03:21:15Z</time><name>515</name><sym>Flag, Blue</sym></wpt><wpt lat="10.318442" lon="123.925639"><ele>10.896900</ele><time>2024-10-15T03:21:23Z</time><name>516</name><sym>Flag, Blue</sym></wpt><wpt lat="10.318492" lon="123.925655"><ele>11.258114</ele><time>2024-10-15T03:21:29Z</time><name>517</name><sym>Flag, Blue</sym></wpt><wpt lat="10.318505" lon="123.925661"><ele>11.678181</ele><time>2024-10-15T03:21:33Z</time><name>518</name><sym>Flag, Blue</sym></wpt><wpt lat="10.318602" lon="123.925685"><ele>11.027220</ele><time>2024-10-15T03:21:44Z</time><name>519</name><sym>Flag, Blue</sym></wpt><wpt lat="10.318645" lon="123.925706"><ele>11.272465</ele><time>2024-10-15T03:21:49Z</time><name>520</name><sym>Flag, Blue</sym></wpt><wpt lat="10.318763" lon="123.925749"><ele>11.835555</ele><time>2024-10-15T03:22:00Z</time><name>521</name><sym>Flag, Blue</sym></wpt><wpt lat="10.318802" lon="123.925762"><ele>11.739685</ele><time>2024-10-15T03:22:06Z</time><name>522</name><sym>Flag, Blue</sym></wpt><wpt lat="10.318994" lon="123.925834"><ele>10.956793</ele><time>2024-10-15T03:22:21Z</time><name>523</name><sym>Flag, Blue</sym></wpt><wpt lat="10.319147" lon="123.925867"><ele>11.473884</ele><time>2024-10-15T03:22:33Z</time><name>524</name><sym>Flag, Blue</sym></wpt><wpt lat="10.319174" lon="123.925860"><ele>11.641350</ele><time>2024-10-15T03:22:38Z</time><name>525</name><sym>Flag, Blue</sym></wpt><wpt lat="10.319174" lon="123.925854"><ele>12.209694</ele><time>2024-10-15T03:22:43Z</time><name>526</name><sym>Flag, Blue</sym></wpt><wpt lat="10.320504" lon="123.929240"><ele>10.876385</ele><time>2024-10-15T03:27:02Z</time><name>527</name><sym>Flag, Blue</sym></wpt><wpt lat="10.320399" lon="123.929189"><ele>11.597088</ele><time>2024-10-15T03:27:21Z</time><name>528</name><sym>Flag, Blue</sym></wpt><wpt lat="10.320345" lon="123.929144"><ele>11.696818</ele><time>2024-10-15T03:27:28Z</time><name>529</name><sym>Flag, Blue</sym></wpt><wpt lat="10.320253" lon="123.929031"><ele>12.736650</ele><time>2024-10-15T03:27:46Z</time><name>530</name><sym>Flag, Blue</sym></wpt><wpt lat="10.320260" lon="123.929014"><ele>13.993740</ele><time>2024-10-15T03:27:51Z</time><name>531</name><sym>Flag, Blue</sym></wpt><wpt lat="10.320262" lon="123.928985"><ele>15.616032</ele><time>2024-10-15T03:27:57Z</time><name>532</name><sym>Flag, Blue</sym></wpt><wpt lat="10.320275" lon="123.928991"><ele>18.377930</ele><time>2024-10-15T03:28:04Z</time><name>533</name><sym>Flag, Blue</sym></wpt><wpt lat="10.320273" lon="123.928947"><ele>20.259018</ele><time>2024-10-15T03:28:13Z</time><name>534</name><sym>Flag, Blue</sym></wpt><wpt lat="10.320262" lon="123.928941"><ele>21.021652</ele><time>2024-10-15T03:28:19Z</time><name>535</name><sym>Flag, Blue</sym></wpt><wpt lat="10.320290" lon="123.928846"><ele>21.852814</ele><time>2024-10-15T03:28:30Z</time><name>536</name><sym>Flag, Blue</sym></wpt><wpt lat="10.320300" lon="123.928823"><ele>20.614845</ele><time>2024-10-15T03:28:36Z</time><name>537</name><sym>Flag, Blue</sym></wpt><wpt lat="10.320303" lon="123.928816"><ele>20.154266</ele><time>2024-10-15T03:28:43Z</time><name>538</name><sym>Flag, Blue</sym></wpt><wpt lat="10.320313" lon="123.928789"><ele>19.603519</ele><time>2024-10-15T03:28:53Z</time><name>539</name><sym>Flag, Blue</sym></wpt><wpt lat="10.320318" lon="123.928763"><ele>19.476475</ele><time>2024-10-15T03:28:59Z</time><name>540</name><sym>Flag, Blue</sym></wpt><wpt lat="10.320327" lon="123.928747"><ele>18.842022</ele><time>2024-10-15T03:29:10Z</time><name>541</name><sym>Flag, Blue</sym></wpt><wpt lat="10.320442" lon="123.928457"><ele>15.093939</ele><time>2024-10-15T03:29:30Z</time><name>542</name><sym>Flag, Blue</sym></wpt><wpt lat="10.320433" lon="123.928475"><ele>14.797848</ele><time>2024-10-15T03:29:35Z</time><name>543</name><sym>Flag, Blue</sym></wpt><wpt lat="10.320432" lon="123.928486"><ele>15.641483</ele><time>2024-10-15T03:29:40Z</time><name>544</name><sym>Flag, Blue</sym></wpt><wpt lat="10.320453" lon="123.928434"><ele>15.157422</ele><time>2024-10-15T03:29:49Z</time><name>545</name><sym>Flag, Blue</sym></wpt><wpt lat="10.320455" lon="123.928424"><ele>13.531475</ele><time>2024-10-15T03:30:08Z</time><name>546</name><sym>Flag, Blue</sym></wpt><wpt lat="10.320452" lon="123.928410"><ele>13.775150</ele><time>2024-10-15T03:30:22Z</time><name>547</name><sym>Flag, Blue</sym></wpt><wpt lat="10.320457" lon="123.928412"><ele>13.859554</ele><time>2024-10-15T03:30:28Z</time><name>548</name><sym>Flag, Blue</sym></wpt><wpt lat="10.320470" lon="123.928372"><ele>13.314594</ele><time>2024-10-15T03:30:35Z</time><name>549</name><sym>Flag, Blue</sym></wpt><wpt lat="10.320469" lon="123.928352"><ele>12.640545</ele><time>2024-10-15T03:30:41Z</time><name>550</name><sym>Flag, Blue</sym></wpt><wpt lat="10.320551" lon="123.928186"><ele>11.715172</ele><time>2024-10-15T03:30:59Z</time><name>551</name><sym>Flag, Blue</sym></wpt><wpt lat="10.320543" lon="123.928191"><ele>11.700325</ele><time>2024-10-15T03:31:06Z</time><name>552</name><sym>Flag, Blue</sym></wpt><wpt lat="10.320543" lon="123.928192"><ele>11.493958</ele><time>2024-10-15T03:31:12Z</time><name>553</name><sym>Flag, Blue</sym></wpt><wpt lat="10.320548" lon="123.928195"><ele>11.870209</ele><time>2024-10-15T03:31:19Z</time><name>554</name><sym>Flag, Blue</sym></wpt><wpt lat="10.320670" lon="123.928011"><ele>16.866282</ele><time>2024-10-15T03:32:11Z</time><name>555</name><sym>Flag, Blue</sym></wpt><wpt lat="10.320909" lon="123.927298"><ele>20.528078</ele><time>2024-10-15T03:32:40Z</time><name>556</name><sym>Flag, Blue</sym></wpt><wpt lat="10.320912" lon="123.927178"><ele>21.929893</ele><time>2024-10-15T03:32:56Z</time><name>557</name><sym>Flag, Blue</sym></wpt><wpt lat="10.320912" lon="123.926974"><ele>15.065029</ele><time>2024-10-15T03:33:29Z</time><name>558</name><sym>Flag, Blue</sym></wpt><wpt lat="10.320893" lon="123.926960"><ele>15.374165</ele><time>2024-10-15T03:33:39Z</time><name>559</name><sym>Flag, Blue</sym></wpt><wpt lat="10.320871" lon="123.926845"><ele>12.754326</ele><time>2024-10-15T03:34:03Z</time><name>560</name><sym>Flag, Blue</sym></wpt><wpt lat="10.320887" lon="123.926814"><ele>12.937828</ele><time>2024-10-15T03:34:19Z</time><name>561</name><sym>Flag, Blue</sym></wpt><wpt lat="10.320860" lon="123.926756"><ele>12.011154</ele><time>2024-10-15T03:34:35Z</time><name>562</name><sym>Flag, Blue</sym></wpt><wpt lat="10.320868" lon="123.926739"><ele>12.894264</ele><time>2024-10-15T03:34:45Z</time><name>563</name><sym>Flag, Blue</sym></wpt><wpt lat="10.320869" lon="123.926727"><ele>14.438240</ele><time>2024-10-15T03:34:54Z</time><name>564</name><sym>Flag, Blue</sym></wpt><wpt lat="10.320848" lon="123.926664"><ele>15.652702</ele><time>2024-10-15T03:35:03Z</time><name>565</name><sym>Flag, Blue</sym></wpt><wpt lat="10.320868" lon="123.926650"><ele>15.034454</ele><time>2024-10-15T03:35:13Z</time><name>566</name><sym>Flag, Blue</sym></wpt><wpt lat="10.320843" lon="123.926611"><ele>14.381401</ele><time>2024-10-15T03:35:27Z</time><name>567</name><sym>Flag, Blue</sym></wpt><wpt lat="10.320853" lon="123.926609"><ele>16.324203</ele><time>2024-10-15T03:35:36Z</time><name>568</name><sym>Flag, Blue</sym></wpt><wpt lat="10.320839" lon="123.926575"><ele>15.796516</ele><time>2024-10-15T03:35:46Z</time><name>569</name><sym>Flag, Blue</sym></wpt><wpt lat="10.320809" lon="123.926477"><ele>14.383396</ele><time>2024-10-15T03:36:02Z</time><name>570</name><sym>Flag, Blue</sym></wpt><wpt lat="10.320796" lon="123.926407"><ele>13.958277</ele><time>2024-10-15T03:36:13Z</time><name>571</name><sym>Flag, Blue</sym></wpt><wpt lat="10.320737" lon="123.926280"><ele>13.478184</ele><time>2024-10-15T03:36:32Z</time><name>572</name><sym>Flag, Blue</sym></wpt><wpt lat="10.320730" lon="123.926238"><ele>12.671947</ele><time>2024-10-15T03:36:42Z</time><name>573</name><sym>Flag, Blue</sym></wpt><wpt lat="10.320863" lon="123.925910"><ele>17.467438</ele><time>2024-10-15T03:38:20Z</time><name>574</name><sym>Flag, Blue</sym></wpt><wpt lat="10.320824" lon="123.925916"><ele>17.693159</ele><time>2024-10-15T03:38:20Z</time><name>575</name><sym>Flag, Blue</sym></wpt><wpt lat="10.320604" lon="123.925935"><ele>18.284233</ele><time>2024-10-15T03:38:23Z</time><name>576</name><sym>Flag, Blue</sym></wpt><wpt lat="10.320348" lon="123.925933"><ele>18.293636</ele><time>2024-10-15T03:38:26Z</time><name>577</name><sym>Flag, Blue</sym></wpt><wpt lat="10.319970" lon="123.925889"><ele>18.517866</ele><time>2024-10-15T03:38:30Z</time><name>578</name><sym>Flag, Blue</sym></wpt><wpt lat="10.319774" lon="123.925846"><ele>18.641104</ele><time>2024-10-15T03:38:33Z</time><name>579</name><sym>Flag, Blue</sym></wpt><wpt lat="10.319665" lon="123.925820"><ele>18.620699</ele><time>2024-10-15T03:38:35Z</time><name>580</name><sym>Flag, Blue</sym></wpt><wpt lat="10.319600" lon="123.925801"><ele>18.582701</ele><time>2024-10-15T03:38:37Z</time><name>581</name><sym>Flag, Blue</sym></wpt></gpx>