<?xml version="1.0" encoding="UTF-8" standalone="no" ?><gpx xmlns="http://www.topografix.com/GPX/1/1" xmlns:gpxx="http://www.garmin.com/xmlschemas/GpxExtensions/v3" xmlns:wptx1="http://www.garmin.com/xmlschemas/WaypointExtension/v1" xmlns:gpxtpx="http://www.garmin.com/xmlschemas/TrackPointExtension/v1" creator="eTrex 22x" version="1.1" xmlns:xsi="http://www.w3.org/2001/XMLSchema-instance" xsi:schemaLocation="http://www.topografix.com/GPX/1/1 http://www.topografix.com/GPX/1/1/gpx.xsd http://www.garmin.com/xmlschemas/GpxExtensions/v3 http://www8.garmin.com/xmlschemas/GpxExtensionsv3.xsd http://www.garmin.com/xmlschemas/TrackStatsExtension/v1 http://www8.garmin.com/xmlschemas/TrackStatsExtension.xsd http://www.garmin.com/xmlschemas/WaypointExtension/v1 http://www8.garmin.com/xmlschemas/WaypointExtensionv1.xsd http://www.garmin.com/xmlschemas/TrackPointExtension/v1 http://www.garmin.com/xmlschemas/TrackPointExtensionv1.xsd"><metadata><link href="http://www.garmin.com"><text>Garmin International</text></link><time>2024-10-14T02:55:35Z</time></metadata><wpt lat="10.319425" lon="123.925753"><ele>49.125217</ele><time>2024-10-14T02:55:35Z</time><name>1919</name><sym>Flag, Blue</sym></wpt><wpt lat="10.319345" lon="123.925683"><ele>34.286610</ele><time>2024-10-14T02:55:59Z</time><name>1920</name><sym>Flag, Blue</sym></wpt><wpt lat="10.319320" lon="123.925686"><ele>34.205379</ele><time>2024-10-14T02:56:08Z</time><name>1921</name><sym>Flag, Blue</sym></wpt><wpt lat="10.319239" lon="123.925674"><ele>34.829311</ele><time>2024-10-14T02:56:27Z</time><name>1922</name><sym>Flag, Blue</sym></wpt><wpt lat="10.319196" lon="123.925645"><ele>33.080513</ele><time>2024-10-14T02:56:39Z</time><name>1923</name><sym>Flag, Blue</sym></wpt><wpt lat="10.319188" lon="123.925626"><ele>31.137917</ele><time>2024-10-14T02:56:52Z</time><name>1924</name><sym>Flag, Blue</sym></wpt><wpt lat="10.319193" lon="123.925618"><ele>30.282913</ele><time>2024-10-14T02:57:00Z</time><name>1925</name><sym>Flag, Blue</sym></wpt><wpt lat="10.319157" lon="123.925610"><ele>30.500610</ele><time>2024-10-14T02:57:09Z</time><name>1926</name><sym>Flag, Blue</sym></wpt><wpt lat="10.319132" lon="123.925686"><ele>28.787132</ele><time>2024-10-14T02:57:23Z</time><name>1927</name><sym>Flag, Blue</sym></wpt><wpt lat="10.319071" lon="123.925744"><ele>26.916271</ele><time>2024-10-14T02:57:40Z</time><name>1928</name><sym>Flag, Blue</sym></wpt><wpt lat="10.319072" lon="123.925738"><ele>25.520924</ele><time>2024-10-14T02:57:50Z</time><name>1929</name><sym>Flag, Blue</sym></wpt><wpt lat="10.319067" lon="123.925723"><ele>23.639896</ele><time>2024-10-14T02:58:03Z</time><name>1930</name><sym>Flag, Blue</sym></wpt><wpt lat="10.318994" lon="123.925728"><ele>22.592297</ele><time>2024-10-14T02:58:26Z</time><name>1931</name><sym>Flag, Blue</sym></wpt><wpt lat="10.318979" lon="123.925720"><ele>21.735466</ele><time>2024-10-14T02:58:34Z</time><name>1932</name><sym>Flag, Blue</sym></wpt><wpt lat="10.318950" lon="123.925702"><ele>18.813560</ele><time>2024-10-14T02:59:00Z</time><name>1933</name><sym>Flag, Blue</sym></wpt><wpt lat="10.318953" lon="123.925710"><ele>18.256393</ele><time>2024-10-14T02:59:09Z</time><name>1934</name><sym>Flag, Blue</sym></wpt><wpt lat="10.318944" lon="123.925706"><ele>16.510681</ele><time>2024-10-14T02:59:24Z</time><name>1935</name><sym>Flag, Blue</sym></wpt><wpt lat="10.318790" lon="123.925664"><ele>19.674759</ele><time>2024-10-14T02:59:52Z</time><name>1936</name><sym>Flag, Blue</sym></wpt><wpt lat="10.318813" lon="123.925646"><ele>20.175308</ele><time>2024-10-14T03:00:00Z</time><name>1937</name><sym>Flag, Blue</sym></wpt><wpt lat="10.318782" lon="123.925654"><ele>19.671387</ele><time>2024-10-14T03:00:22Z</time><name>1938</name><sym>Flag, Blue</sym></wpt><wpt lat="10.318771" lon="123.925655"><ele>20.157677</ele><time>2024-10-14T03:00:31Z</time><name>1939</name><sym>Flag, Blue</sym></wpt><wpt lat="10.318757" lon="123.925666"><ele>21.195911</ele><time>2024-10-14T03:00:44Z</time><name>1940</name><sym>Flag, Blue</sym></wpt><wpt lat="10.318748" lon="123.925656"><ele>21.216640</ele><time>2024-10-14T03:00:55Z</time><name>1941</name><sym>Flag, Blue</sym></wpt><wpt lat="10.318746" lon="123.925657"><ele>20.156025</ele><time>2024-10-14T03:01:05Z</time><name>1942</name><sym>Flag, Blue</sym></wpt><wpt lat="10.318739" lon="123.925653"><ele>20.138004</ele><time>2024-10-14T03:01:18Z</time><name>1943</name><sym>Flag, Blue</sym></wpt><wpt lat="10.318420" lon="123.925632"><ele>25.438694</ele><time>2024-10-14T03:01:49Z</time><name>1944</name><sym>Flag, Blue</sym></wpt><wpt lat="10.318383" lon="123.925628"><ele>28.018330</ele><time>2024-10-14T03:02:01Z</time><name>1945</name><sym>Flag, Blue</sym></wpt><wpt lat="10.318341" lon="123.925620"><ele>29.488644</ele><time>2024-10-14T03:02:12Z</time><name>1946</name><sym>Flag, Blue</sym></wpt><wpt lat="10.318335" lon="123.925612"><ele>30.789196</ele><time>2024-10-14T03:02:21Z</time><name>1947</name><sym>Flag, Blue</sym></wpt><wpt lat="10.318355" lon="123.925517"><ele>30.967098</ele><time>2024-10-14T03:02:46Z</time><name>1948</name><sym>Flag, Blue</sym></wpt><wpt lat="10.318348" lon="123.925512"><ele>30.522236</ele><time>2024-10-14T03:02:55Z</time><name>1949</name><sym>Flag, Blue</sym></wpt><wpt lat="10.318278" lon="123.925532"><ele>29.722858</ele><time>2024-10-14T03:03:13Z</time><name>1950</name><sym>Flag, Blue</sym></wpt><wpt lat="10.318237" lon="123.925585"><ele>28.171490</ele><time>2024-10-14T03:03:24Z</time><name>1951</name><sym>Flag, Blue</sym></wpt><wpt lat="10.318220" lon="123.925616"><ele>28.045750</ele><time>2024-10-14T03:03:32Z</time><name>1952</name><sym>Flag, Blue</sym></wpt><wpt lat="10.318159" lon="123.925642"><ele>28.696632</ele><time>2024-10-14T03:03:47Z</time><name>1953</name><sym>Flag, Blue</sym></wpt><wpt lat="10.318163" lon="123.925634"><ele>26.823570</ele><time>2024-10-14T03:03:55Z</time><name>1954</name><sym>Flag, Blue</sym></wpt><wpt lat="10.318158" lon="123.925631"><ele>25.617218</ele><time>2024-10-14T03:04:04Z</time><name>1955</name><sym>Flag, Blue</sym></wpt><wpt lat="10.318143" lon="123.925631"><ele>24.109695</ele><time>2024-10-14T03:04:14Z</time><name>1956</name><sym>Flag, Blue</sym></wpt><wpt lat="10.318144" lon="123.925617"><ele>22.608208</ele><time>2024-10-14T03:04:25Z</time><name>1957</name><sym>Flag, Blue</sym></wpt><wpt lat="10.318101" lon="123.925602"><ele>20.639679</ele><time>2024-10-14T03:04:44Z</time><name>1958</name><sym>Flag, Blue</sym></wpt><wpt lat="10.318103" lon="123.925599"><ele>20.707397</ele><time>2024-10-14T03:04:52Z</time><name>1959</name><sym>Flag, Blue</sym></wpt><wpt lat="10.318093" lon="123.925601"><ele>20.000923</ele><time>2024-10-14T03:05:04Z</time><name>1960</name><sym>Flag, Blue</sym></wpt><wpt lat="10.318069" lon="123.925581"><ele>19.290894</ele><time>2024-10-14T03:05:15Z</time><name>1961</name><sym>Flag, Blue</sym></wpt><wpt lat="10.318072" lon="123.925573"><ele>19.220261</ele><time>2024-10-14T03:05:24Z</time><name>1962</name><sym>Flag, Blue</sym></wpt><wpt lat="10.318038" lon="123.925572"><ele>17.819355</ele><time>2024-10-14T03:05:46Z</time><name>1963</name><sym>Flag, Blue</sym></wpt><wpt lat="10.318023" lon="123.925598"><ele>20.018879</ele><time>2024-10-14T03:06:04Z</time><name>1964</name><sym>Flag, Blue</sym></wpt><wpt lat="10.317837" lon="123.925554"><ele>19.569221</ele><time>2024-10-14T03:06:38Z</time><name>1965</name><sym>Flag, Blue</sym></wpt><wpt lat="10.317860" lon="123.925480"><ele>17.580181</ele><time>2024-10-14T03:06:47Z</time><name>1966</name><sym>Flag, Blue</sym></wpt><wpt lat="10.317877" lon="123.925439"><ele>17.007656</ele><time>2024-10-14T03:06:56Z</time><name>1967</name><sym>Flag, Blue</sym></wpt><wpt lat="10.317823" lon="123.925431"><ele>16.365772</ele><time>2024-10-14T03:07:15Z</time><name>1968</name><sym>Flag, Blue</sym></wpt><wpt lat="10.317808" lon="123.925442"><ele>16.800587</ele><time>2024-10-14T03:07:25Z</time><name>1969</name><sym>Flag, Blue</sym></wpt><wpt lat="10.317687" lon="123.925407"><ele>19.832222</ele><time>2024-10-14T03:07:50Z</time><name>1970</name><sym>Flag, Blue</sym></wpt><wpt lat="10.317673" lon="123.925378"><ele>21.291344</ele><time>2024-10-14T03:08:00Z</time><name>1971</name><sym>Flag, Blue</sym></wpt><wpt lat="10.317685" lon="123.925396"><ele>22.324051</ele><time>2024-10-14T03:08:08Z</time><name>1972</name><sym>Flag, Blue</sym></wpt><wpt lat="10.317688" lon="123.925380"><ele>24.122238</ele><time>2024-10-14T03:08:22Z</time><name>1973</name><sym>Flag, Blue</sym></wpt><wpt lat="10.317678" lon="123.925341"><ele>25.099079</ele><time>2024-10-14T03:08:36Z</time><name>1974</name><sym>Flag, Blue</sym></wpt><wpt lat="10.317735" lon="123.925451"><ele>24.784962</ele><time>2024-10-14T03:08:55Z</time><name>1975</name><sym>Flag, Blue</sym></wpt><wpt lat="10.317765" lon="123.925409"><ele>23.948025</ele><time>2024-10-14T03:09:09Z</time><name>1976</name><sym>Flag, Blue</sym></wpt><wpt lat="10.317789" lon="123.925423"><ele>22.913807</ele><time>2024-10-14T03:09:17Z</time><name>1977</name><sym>Flag, Blue</sym></wpt><wpt lat="10.317734" lon="123.925380"><ele>21.334225</ele><time>2024-10-14T03:09:35Z</time><name>1978</name><sym>Flag, Blue</sym></wpt><wpt lat="10.317648" lon="123.925330"><ele>20.234081</ele><time>2024-10-14T03:09:47Z</time><name>1979</name><sym>Flag, Blue</sym></wpt><wpt lat="10.317613" lon="123.925291"><ele>19.847515</ele><time>2024-10-14T03:09:56Z</time><name>1980</name><sym>Flag, Blue</sym></wpt><wpt lat="10.317423" lon="123.925254"><ele>20.404659</ele><time>2024-10-14T03:10:22Z</time><name>1981</name><sym>Flag, Blue</sym></wpt><wpt lat="10.317411" lon="123.925237"><ele>19.503628</ele><time>2024-10-14T03:10:32Z</time><name>1982</name><sym>Flag, Blue</sym></wpt><wpt lat="10.317409" lon="123.925218"><ele>19.315811</ele><time>2024-10-14T03:10:41Z</time><name>1983</name><sym>Flag, Blue</sym></wpt><wpt lat="10.317332" lon="123.925179"><ele>20.672295</ele><time>2024-10-14T03:11:01Z</time><name>1984</name><sym>Flag, Blue</sym></wpt><wpt lat="10.317245" lon="123.925194"><ele>25.564598</ele><time>2024-10-14T03:11:16Z</time><name>1985</name><sym>Flag, Blue</sym></wpt><wpt lat="10.317229" lon="123.925199"><ele>27.342567</ele><time>2024-10-14T03:11:24Z</time><name>1986</name><sym>Flag, Blue</sym></wpt><wpt lat="10.317166" lon="123.925205"><ele>29.887058</ele><time>2024-10-14T03:11:49Z</time><name>1987</name><sym>Flag, Blue</sym></wpt><wpt lat="10.317182" lon="123.925153"><ele>29.485638</ele><time>2024-10-14T03:12:01Z</time><name>1988</name><sym>Flag, Blue</sym></wpt><wpt lat="10.317241" lon="123.925118"><ele>28.096416</ele><time>2024-10-14T03:12:10Z</time><name>1989</name><sym>Flag, Blue</sym></wpt><wpt lat="10.317280" lon="123.925123"><ele>26.673649</ele><time>2024-10-14T03:12:21Z</time><name>1990</name><sym>Flag, Blue</sym></wpt><wpt lat="10.317353" lon="123.925187"><ele>21.943363</ele><time>2024-10-14T03:12:49Z</time><name>1991</name><sym>Flag, Blue</sym></wpt><wpt lat="10.317411" lon="123.925200"><ele>22.090694</ele><time>2024-10-14T03:13:02Z</time><name>1992</name><sym>Flag, Blue</sym></wpt><wpt lat="10.317477" lon="123.925202"><ele>21.232876</ele><time>2024-10-14T03:13:11Z</time><name>1993</name><sym>Flag, Blue</sym></wpt><wpt lat="10.317540" lon="123.925211"><ele>20.486614</ele><time>2024-10-14T03:13:20Z</time><name>1994</name><sym>Flag, Blue</sym></wpt><wpt lat="10.317383" lon="123.925224"><ele>23.315769</ele><time>2024-10-14T03:13:54Z</time><name>1995</name><sym>Flag, Blue</sym></wpt><wpt lat="10.317098" lon="123.925047"><ele>22.741650</ele><time>2024-10-14T03:14:08Z</time><name>1996</name><sym>Flag, Blue</sym></wpt><wpt lat="10.316975" lon="123.924976"><ele>22.792698</ele><time>2024-10-14T03:14:26Z</time><name>1997</name><sym>Flag, Blue</sym></wpt><wpt lat="10.316941" lon="123.924954"><ele>22.257111</ele><time>2024-10-14T03:14:35Z</time><name>1998</name><sym>Flag, Blue</sym></wpt><wpt lat="10.316930" lon="123.924956"><ele>22.837151</ele><time>2024-10-14T03:14:48Z</time><name>1999</name><sym>Flag, Blue</sym></wpt><wpt lat="10.316922" lon="123.924939"><ele>22.971382</ele><time>2024-10-14T03:14:56Z</time><name>2000</name><sym>Flag, Blue</sym></wpt><wpt lat="10.316860" lon="123.924900"><ele>20.635323</ele><time>2024-10-14T03:15:16Z</time><name>001</name><sym>Flag, Blue</sym></wpt><wpt lat="10.316858" lon="123.924897"><ele>20.232651</ele><time>2024-10-14T03:15:27Z</time><name>002</name><sym>Flag, Blue</sym></wpt><wpt lat="10.316854" lon="123.924904"><ele>19.644829</ele><time>2024-10-14T03:15:37Z</time><name>003</name><sym>Flag, Blue</sym></wpt><wpt lat="10.316794" lon="123.924879"><ele>19.322708</ele><time>2024-10-14T03:15:56Z</time><name>004</name><sym>Flag, Blue</sym></wpt><wpt lat="10.316782" lon="123.924869"><ele>20.026283</ele><time>2024-10-14T03:16:06Z</time><name>005</name><sym>Flag, Blue</sym></wpt><wpt lat="10.316780" lon="123.924877"><ele>21.995850</ele><time>2024-10-14T03:16:17Z</time><name>006</name><sym>Flag, Blue</sym></wpt><wpt lat="10.316731" lon="123.924842"><ele>21.650543</ele><time>2024-10-14T03:16:34Z</time><name>007</name><sym>Flag, Blue</sym></wpt><wpt lat="10.316738" lon="123.924844"><ele>21.113052</ele><time>2024-10-14T03:16:43Z</time><name>008</name><sym>Flag, Blue</sym></wpt><wpt lat="10.316682" lon="123.924816"><ele>18.658716</ele><time>2024-10-14T03:17:02Z</time><name>009</name><sym>Flag, Blue</sym></wpt><wpt lat="10.316670" lon="123.924796"><ele>17.518204</ele><time>2024-10-14T03:17:11Z</time><name>010</name><sym>Flag, Blue</sym></wpt><wpt lat="10.316621" lon="123.924739"><ele>14.595181</ele><time>2024-10-14T03:18:17Z</time><name>011</name><sym>Flag, Blue</sym></wpt><wpt lat="10.316626" lon="123.924754"><ele>13.923153</ele><time>2024-10-14T03:18:30Z</time><name>012</name><sym>Flag, Blue</sym></wpt><wpt lat="10.316562" lon="123.924725"><ele>12.721024</ele><time>2024-10-14T03:18:57Z</time><name>013</name><sym>Flag, Blue</sym></wpt><wpt lat="10.316573" lon="123.924709"><ele>11.353813</ele><time>2024-10-14T03:19:21Z</time><name>014</name><sym>Flag, Blue</sym></wpt><wpt lat="10.316523" lon="123.924684"><ele>12.709831</ele><time>2024-10-14T03:19:41Z</time><name>015</name><sym>Flag, Blue</sym></wpt><wpt lat="10.316514" lon="123.924672"><ele>13.308662</ele><time>2024-10-14T03:19:51Z</time><name>016</name><sym>Flag, Blue</sym></wpt><wpt lat="10.316453" lon="123.924651"><ele>14.122948</ele><time>2024-10-14T03:20:09Z</time><name>017</name><sym>Flag, Blue</sym></wpt><wpt lat="10.316452" lon="123.924637"><ele>13.774521</ele><time>2024-10-14T03:20:19Z</time><name>018</name><sym>Flag, Blue</sym></wpt><wpt lat="10.316449" lon="123.924623"><ele>13.565178</ele><time>2024-10-14T03:20:28Z</time><name>019</name><sym>Flag, Blue</sym></wpt><wpt lat="10.316451" lon="123.924621"><ele>12.785492</ele><time>2024-10-14T03:20:38Z</time><name>020</name><sym>Flag, Blue</sym></wpt><wpt lat="10.316393" lon="123.924612"><ele>13.137337</ele><time>2024-10-14T03:21:09Z</time><name>021</name><sym>Flag, Blue</sym></wpt><wpt lat="10.316347" lon="123.924601"><ele>14.519691</ele><time>2024-10-14T03:22:02Z</time><name>022</name><sym>Flag, Blue</sym></wpt><wpt lat="10.316360" lon="123.924583"><ele>14.117287</ele><time>2024-10-14T03:22:12Z</time><name>023</name><sym>Flag, Blue</sym></wpt><wpt lat="10.316364" lon="123.924584"><ele>13.604362</ele><time>2024-10-14T03:22:19Z</time><name>024</name><sym>Flag, Blue</sym></wpt><wpt lat="10.316305" lon="123.924561"><ele>14.467093</ele><time>2024-10-14T03:22:34Z</time><name>025</name><sym>Flag, Blue</sym></wpt><wpt lat="10.316268" lon="123.924541"><ele>14.769371</ele><time>2024-10-14T03:22:49Z</time><name>026</name><sym>Flag, Blue</sym></wpt><wpt lat="10.316080" lon="123.924418"><ele>13.797782</ele><time>2024-10-14T03:23:11Z</time><name>027</name><sym>Flag, Blue</sym></wpt><wpt lat="10.316029" lon="123.924386"><ele>14.862144</ele><time>2024-10-14T03:23:28Z</time><name>028</name><sym>Flag, Blue</sym></wpt><wpt lat="10.316031" lon="123.924384"><ele>15.174049</ele><time>2024-10-14T03:23:36Z</time><name>029</name><sym>Flag, Blue</sym></wpt><wpt lat="10.316028" lon="123.924385"><ele>15.927353</ele><time>2024-10-14T03:23:43Z</time><name>030</name><sym>Flag, Blue</sym></wpt><wpt lat="10.316012" lon="123.924360"><ele>16.257706</ele><time>2024-10-14T03:24:02Z</time><name>031</name><sym>Flag, Blue</sym></wpt><wpt lat="10.316006" lon="123.924352"><ele>16.547455</ele><time>2024-10-14T03:24:14Z</time><name>032</name><sym>Flag, Blue</sym></wpt><wpt lat="10.315967" lon="123.924332"><ele>16.904839</ele><time>2024-10-14T03:24:25Z</time><name>033</name><sym>Flag, Blue</sym></wpt><wpt lat="10.315979" lon="123.924320"><ele>16.874249</ele><time>2024-10-14T03:24:39Z</time><name>034</name><sym>Flag, Blue</sym></wpt><wpt lat="10.315930" lon="123.924278"><ele>16.965534</ele><time>2024-10-14T03:25:01Z</time><name>035</name><sym>Flag, Blue</sym></wpt><wpt lat="10.315885" lon="123.924274"><ele>19.590199</ele><time>2024-10-14T03:25:20Z</time><name>036</name><sym>Flag, Blue</sym></wpt><wpt lat="10.315888" lon="123.924265"><ele>18.982777</ele><time>2024-10-14T03:25:28Z</time><name>037</name><sym>Flag, Blue</sym></wpt><wpt lat="10.315882" lon="123.924258"><ele>19.506382</ele><time>2024-10-14T03:25:40Z</time><name>038</name><sym>Flag, Blue</sym></wpt><wpt lat="10.315822" lon="123.924228"><ele>18.870739</ele><time>2024-10-14T03:26:11Z</time><name>039</name><sym>Flag, Blue</sym></wpt><wpt lat="10.315829" lon="123.924213"><ele>17.347256</ele><time>2024-10-14T03:26:22Z</time><name>040</name><sym>Flag, Blue</sym></wpt><wpt lat="10.315825" lon="123.924218"><ele>16.696712</ele><time>2024-10-14T03:26:32Z</time><name>041</name><sym>Flag, Blue</sym></wpt><wpt lat="10.315810" lon="123.924234"><ele>16.605186</ele><time>2024-10-14T03:26:46Z</time><name>042</name><sym>Flag, Blue</sym></wpt><wpt lat="10.315806" lon="123.924227"><ele>16.557198</ele><time>2024-10-14T03:26:56Z</time><name>043</name><sym>Flag, Blue</sym></wpt><wpt lat="10.315778" lon="123.924214"><ele>16.229759</ele><time>2024-10-14T03:27:10Z</time><name>044</name><sym>Flag, Blue</sym></wpt><wpt lat="10.315630" lon="123.924106"><ele>16.766546</ele><time>2024-10-14T03:27:34Z</time><name>045</name><sym>Flag, Blue</sym></wpt><wpt lat="10.315628" lon="123.924094"><ele>16.743988</ele><time>2024-10-14T03:27:44Z</time><name>046</name><sym>Flag, Blue</sym></wpt><wpt lat="10.315570" lon="123.924090"><ele>17.461435</ele><time>2024-10-14T03:27:59Z</time><name>047</name><sym>Flag, Blue</sym></wpt><wpt lat="10.315552" lon="123.924026"><ele>18.136055</ele><time>2024-10-14T03:28:15Z</time><name>048</name><sym>Flag, Blue</sym></wpt><wpt lat="10.315488" lon="123.923970"><ele>17.556225</ele><time>2024-10-14T03:28:31Z</time><name>049</name><sym>Flag, Blue</sym></wpt><wpt lat="10.315475" lon="123.923959"><ele>17.924767</ele><time>2024-10-14T03:28:39Z</time><name>050</name><sym>Flag, Blue</sym></wpt><wpt lat="10.315401" lon="123.923889"><ele>16.760185</ele><time>2024-10-14T03:29:09Z</time><name>051</name><sym>Flag, Blue</sym></wpt><wpt lat="10.315414" lon="123.923887"><ele>16.672127</ele><time>2024-10-14T03:29:20Z</time><name>052</name><sym>Flag, Blue</sym></wpt><wpt lat="10.315410" lon="123.923888"><ele>16.724716</ele><time>2024-10-14T03:29:31Z</time><name>053</name><sym>Flag, Blue</sym></wpt><wpt lat="10.315420" lon="123.923886"><ele>17.503368</ele><time>2024-10-14T03:29:41Z</time><name>054</name><sym>Flag, Blue</sym></wpt><wpt lat="10.315370" lon="123.923844"><ele>17.660408</ele><time>2024-10-14T03:29:59Z</time><name>055</name><sym>Flag, Blue</sym></wpt><wpt lat="10.315341" lon="123.923843"><ele>17.695881</ele><time>2024-10-14T03:30:09Z</time><name>056</name><sym>Flag, Blue</sym></wpt><wpt lat="10.315247" lon="123.923787"><ele>16.819569</ele><time>2024-10-14T03:30:29Z</time><name>057</name><sym>Flag, Blue</sym></wpt><wpt lat="10.315172" lon="123.923729"><ele>16.630581</ele><time>2024-10-14T03:31:06Z</time><name>058</name><sym>Flag, Blue</sym></wpt><wpt lat="10.315167" lon="123.923708"><ele>17.106297</ele><time>2024-10-14T03:31:17Z</time><name>059</name><sym>Flag, Blue</sym></wpt><wpt lat="10.315138" lon="123.923694"><ele>16.142895</ele><time>2024-10-14T03:31:31Z</time><name>060</name><sym>Flag, Blue</sym></wpt><wpt lat="10.315139" lon="123.923676"><ele>16.433502</ele><time>2024-10-14T03:31:38Z</time><name>061</name><sym>Flag, Blue</sym></wpt><wpt lat="10.315110" lon="123.923649"><ele>17.479095</ele><time>2024-10-14T03:31:54Z</time><name>062</name><sym>Flag, Blue</sym></wpt><wpt lat="10.315102" lon="123.923649"><ele>16.871864</ele><time>2024-10-14T03:32:02Z</time><name>063</name><sym>Flag, Blue</sym></wpt><wpt lat="10.315108" lon="123.923658"><ele>16.215218</ele><time>2024-10-14T03:32:16Z</time><name>064</name><sym>Flag, Blue</sym></wpt><wpt lat="10.315071" lon="123.923642"><ele>14.513382</ele><time>2024-10-14T03:32:33Z</time><name>065</name><sym>Flag, Blue</sym></wpt><wpt lat="10.315061" lon="123.923635"><ele>14.830376</ele><time>2024-10-14T03:32:40Z</time><name>066</name><sym>Flag, Blue</sym></wpt><wpt lat="10.315002" lon="123.923581"><ele>16.459534</ele><time>2024-10-14T03:33:02Z</time><name>067</name><sym>Flag, Blue</sym></wpt><wpt lat="10.315003" lon="123.923575"><ele>16.349365</ele><time>2024-10-14T03:33:10Z</time><name>068</name><sym>Flag, Blue</sym></wpt><wpt lat="10.314932" lon="123.923535"><ele>16.043747</ele><time>2024-10-14T03:33:30Z</time><name>069</name><sym>Flag, Blue</sym></wpt><wpt lat="10.314933" lon="123.923537"><ele>16.031040</ele><time>2024-10-14T03:33:39Z</time><name>070</name><sym>Flag, Blue</sym></wpt><wpt lat="10.314904" lon="123.923502"><ele>16.804935</ele><time>2024-10-14T03:33:57Z</time><name>071</name><sym>Flag, Blue</sym></wpt><wpt lat="10.314844" lon="123.923474"><ele>17.698832</ele><time>2024-10-14T03:34:12Z</time><name>072</name><sym>Flag, Blue</sym></wpt><wpt lat="10.314827" lon="123.923460"><ele>19.043674</ele><time>2024-10-14T03:34:23Z</time><name>073</name><sym>Flag, Blue</sym></wpt><wpt lat="10.314828" lon="123.923451"><ele>18.354534</ele><time>2024-10-14T03:34:32Z</time><name>074</name><sym>Flag, Blue</sym></wpt><wpt lat="10.314791" lon="123.923429"><ele>19.332626</ele><time>2024-10-14T03:34:47Z</time><name>075</name><sym>Flag, Blue</sym></wpt><wpt lat="10.314801" lon="123.923426"><ele>18.438576</ele><time>2024-10-14T03:34:56Z</time><name>076</name><sym>Flag, Blue</sym></wpt><wpt lat="10.314803" lon="123.923412"><ele>18.268188</ele><time>2024-10-14T03:35:07Z</time><name>077</name><sym>Flag, Blue</sym></wpt><wpt lat="10.314760" lon="123.923383"><ele>18.930588</ele><time>2024-10-14T03:35:26Z</time><name>078</name><sym>Flag, Blue</sym></wpt><wpt lat="10.314762" lon="123.923353"><ele>16.599579</ele><time>2024-10-14T03:35:34Z</time><name>079</name><sym>Flag, Blue</sym></wpt><wpt lat="10.314725" lon="123.923332"><ele>18.142845</ele><time>2024-10-14T03:35:53Z</time><name>080</name><sym>Flag, Blue</sym></wpt><wpt lat="10.314718" lon="123.923325"><ele>18.332745</ele><time>2024-10-14T03:35:59Z</time><name>081</name><sym>Flag, Blue</sym></wpt><wpt lat="10.314715" lon="123.923315"><ele>18.856747</ele><time>2024-10-14T03:36:07Z</time><name>082</name><sym>Flag, Blue</sym></wpt><wpt lat="10.314546" lon="123.923204"><ele>20.965221</ele><time>2024-10-14T03:36:29Z</time><name>083</name><sym>Flag, Blue</sym></wpt><wpt lat="10.314547" lon="123.923193"><ele>20.306248</ele><time>2024-10-14T03:36:38Z</time><name>084</name><sym>Flag, Blue</sym></wpt><wpt lat="10.314547" lon="123.923207"><ele>19.636196</ele><time>2024-10-14T03:36:46Z</time><name>085</name><sym>Flag, Blue</sym></wpt><wpt lat="10.314504" lon="123.923177"><ele>20.833569</ele><time>2024-10-14T03:37:04Z</time><name>086</name><sym>Flag, Blue</sym></wpt><wpt lat="10.314501" lon="123.923169"><ele>20.977047</ele><time>2024-10-14T03:37:13Z</time><name>087</name><sym>Flag, Blue</sym></wpt><wpt lat="10.314505" lon="123.923168"><ele>20.437405</ele><time>2024-10-14T03:37:20Z</time><name>088</name><sym>Flag, Blue</sym></wpt><wpt lat="10.314501" lon="123.923162"><ele>20.122433</ele><time>2024-10-14T03:37:28Z</time><name>089</name><sym>Flag, Blue</sym></wpt><wpt lat="10.314501" lon="123.923144"><ele>18.485836</ele><time>2024-10-14T03:37:42Z</time><name>090</name><sym>Flag, Blue</sym></wpt><wpt lat="10.314426" lon="123.923107"><ele>17.480190</ele><time>2024-10-14T03:38:00Z</time><name>091</name><sym>Flag, Blue</sym></wpt><wpt lat="10.314437" lon="123.923084"><ele>18.237629</ele><time>2024-10-14T03:38:08Z</time><name>092</name><sym>Flag, Blue</sym></wpt><wpt lat="10.314441" lon="123.923091"><ele>19.035625</ele><time>2024-10-14T03:38:18Z</time><name>093</name><sym>Flag, Blue</sym></wpt><wpt lat="10.314433" lon="123.923087"><ele>19.089596</ele><time>2024-10-14T03:38:26Z</time><name>094</name><sym>Flag, Blue</sym></wpt><wpt lat="10.314387" lon="123.923064"><ele>18.305733</ele><time>2024-10-14T03:38:41Z</time><name>095</name><sym>Flag, Blue</sym></wpt><wpt lat="10.314394" lon="123.923072"><ele>18.662369</ele><time>2024-10-14T03:38:50Z</time><name>096</name><sym>Flag, Blue</sym></wpt><wpt lat="10.314392" lon="123.923073"><ele>18.505280</ele><time>2024-10-14T03:38:59Z</time><name>097</name><sym>Flag, Blue</sym></wpt><wpt lat="10.319699" lon="123.926099"><ele>16.066540</ele><time>2024-10-14T03:42:09Z</time><name>098</name><sym>Flag, Blue</sym></wpt><wpt lat="10.319732" lon="123.926115"><ele>16.260983</ele><time>2024-10-14T03:42:51Z</time><name>099</name><sym>Flag, Blue</sym></wpt><wpt lat="10.319738" lon="123.926174"><ele>15.903385</ele><time>2024-10-14T03:43:06Z</time><name>100</name><sym>Flag, Blue</sym></wpt><wpt lat="10.319751" lon="123.926175"><ele>17.595158</ele><time>2024-10-14T03:43:23Z</time><name>101</name><sym>Flag, Blue</sym></wpt><wpt lat="10.319753" lon="123.926276"><ele>17.650661</ele><time>2024-10-14T03:43:46Z</time><name>102</name><sym>Flag, Blue</sym></wpt><wpt lat="10.319731" lon="123.926327"><ele>17.442547</ele><time>2024-10-14T03:44:06Z</time><name>103</name><sym>Flag, Blue</sym></wpt><wpt lat="10.319731" lon="123.926475"><ele>16.156536</ele><time>2024-10-14T03:44:31Z</time><name>104</name><sym>Flag, Blue</sym></wpt><wpt lat="10.319695" lon="123.927180"><ele>17.558014</ele><time>2024-10-14T03:45:15Z</time><name>105</name><sym>Flag, Blue</sym></wpt><wpt lat="10.319654" lon="123.927222"><ele>17.812778</ele><time>2024-10-14T03:45:30Z</time><name>106</name><sym>Flag, Blue</sym></wpt><wpt lat="10.319618" lon="123.927256"><ele>18.299332</ele><time>2024-10-14T03:45:55Z</time><name>107</name><sym>Flag, Blue</sym></wpt><wpt lat="10.319612" lon="123.927306"><ele>16.883820</ele><time>2024-10-14T03:46:05Z</time><name>108</name><sym>Flag, Blue</sym></wpt><wpt lat="10.319594" lon="123.927337"><ele>18.459099</ele><time>2024-10-14T03:46:16Z</time><name>109</name><sym>Flag, Blue</sym></wpt><wpt lat="10.319574" lon="123.927420"><ele>17.810846</ele><time>2024-10-14T03:46:30Z</time><name>110</name><sym>Flag, Blue</sym></wpt><wpt lat="10.319565" lon="123.927429"><ele>17.572285</ele><time>2024-10-14T03:46:39Z</time><name>111</name><sym>Flag, Blue</sym></wpt><wpt lat="10.319540" lon="123.927468"><ele>16.489241</ele><time>2024-10-14T03:46:54Z</time><name>112</name><sym>Flag, Blue</sym></wpt><wpt lat="10.319529" lon="123.927479"><ele>15.980259</ele><time>2024-10-14T03:47:02Z</time><name>113</name><sym>Flag, Blue</sym></wpt><wpt lat="10.319507" lon="123.927516"><ele>16.565557</ele><time>2024-10-14T03:47:16Z</time><name>114</name><sym>Flag, Blue</sym></wpt><wpt lat="10.319417" lon="123.927648"><ele>15.968624</ele><time>2024-10-14T03:47:35Z</time><name>115</name><sym>Flag, Blue</sym></wpt><wpt lat="10.319410" lon="123.927651"><ele>15.643528</ele><time>2024-10-14T03:47:44Z</time><name>116</name><sym>Flag, Blue</sym></wpt><wpt lat="10.319407" lon="123.927647"><ele>14.841747</ele><time>2024-10-14T03:47:51Z</time><name>117</name><sym>Flag, Blue</sym></wpt><wpt lat="10.319376" lon="123.927691"><ele>14.278713</ele><time>2024-10-14T03:48:06Z</time><name>118</name><sym>Flag, Blue</sym></wpt><wpt lat="10.319333" lon="123.927760"><ele>13.791195</ele><time>2024-10-14T03:48:27Z</time><name>119</name><sym>Flag, Blue</sym></wpt><wpt lat="10.319304" lon="123.927809"><ele>13.433662</ele><time>2024-10-14T03:48:49Z</time><name>120</name><sym>Flag, Blue</sym></wpt><wpt lat="10.319274" lon="123.927857"><ele>13.763674</ele><time>2024-10-14T03:49:02Z</time><name>121</name><sym>Flag, Blue</sym></wpt><wpt lat="10.319241" lon="123.927924"><ele>11.678846</ele><time>2024-10-14T03:49:17Z</time><name>122</name><sym>Flag, Blue</sym></wpt><wpt lat="10.319138" lon="123.928089"><ele>12.422371</ele><time>2024-10-14T03:49:47Z</time><name>123</name><sym>Flag, Blue</sym></wpt><wpt lat="10.319063" lon="123.928043"><ele>10.519512</ele><time>2024-10-14T03:50:42Z</time><name>124</name><sym>Flag, Blue</sym></wpt><wpt lat="10.319045" lon="123.928072"><ele>15.629951</ele><time>2024-10-14T03:52:02Z</time><name>125</name><sym>Flag, Blue</sym></wpt><wpt lat="10.319003" lon="123.928125"><ele>12.773468</ele><time>2024-10-14T03:52:16Z</time><name>126</name><sym>Flag, Blue</sym></wpt><wpt lat="10.319790" lon="123.926793"><ele>18.440250</ele><time>2024-10-14T03:54:22Z</time><name>127</name><sym>Flag, Blue</sym></wpt><wpt lat="10.319816" lon="123.926404"><ele>14.330630</ele><time>2024-10-14T03:55:09Z</time><name>128</name><sym>Flag, Blue</sym></wpt><wpt lat="10.319811" lon="123.926373"><ele>14.830238</ele><time>2024-10-14T03:55:23Z</time><name>129</name><sym>Flag, Blue</sym></wpt><wpt lat="10.320802" lon="123.925975"><ele>18.969563</ele><time>2024-10-14T04:59:27Z</time><name>130</name><sym>Flag, Blue</sym></wpt><wpt lat="10.320745" lon="123.925996"><ele>20.451336</ele><time>2024-10-14T04:59:57Z</time><name>131</name><sym>Flag, Blue</sym></wpt><wpt lat="10.320730" lon="123.925986"><ele>19.281372</ele><time>2024-10-14T05:00:09Z</time><name>132</name><sym>Flag, Blue</sym></wpt><wpt lat="10.320661" lon="123.926004"><ele>17.904831</ele><time>2024-10-14T05:00:26Z</time><name>133</name><sym>Flag, Blue</sym></wpt><wpt lat="10.320363" lon="123.926136"><ele>12.764740</ele><time>2024-10-14T05:01:22Z</time><name>134</name><sym>Flag, Blue</sym></wpt><wpt lat="10.320362" lon="123.926144"><ele>11.824860</ele><time>2024-10-14T05:01:38Z</time><name>135</name><sym>Flag, Blue</sym></wpt><wpt lat="10.320374" lon="123.926192"><ele>11.306843</ele><time>2024-10-14T05:02:46Z</time><name>136</name><sym>Flag, Blue</sym></wpt><wpt lat="10.320379" lon="123.926197"><ele>9.365089</ele><time>2024-10-14T05:03:06Z</time><name>137</name><sym>Flag, Blue</sym></wpt><wpt lat="10.320511" lon="123.926374"><ele>12.938673</ele><time>2024-10-14T05:04:07Z</time><name>138</name><sym>Flag, Blue</sym></wpt><wpt lat="10.320618" lon="123.926781"><ele>10.846466</ele><time>2024-10-14T05:04:43Z</time><name>139</name><sym>Flag, Blue</sym></wpt><wpt lat="10.320642" lon="123.926995"><ele>10.984097</ele><time>2024-10-14T05:05:18Z</time><name>140</name><sym>Flag, Blue</sym></wpt><wpt lat="10.320621" lon="123.927030"><ele>10.497631</ele><time>2024-10-14T05:05:51Z</time><name>141</name><sym>Flag, Blue</sym></wpt><wpt lat="10.320634" lon="123.927071"><ele>10.743626</ele><time>2024-10-14T05:06:06Z</time><name>142</name><sym>Flag, Blue</sym></wpt><wpt lat="10.320632" lon="123.927109"><ele>11.490360</ele><time>2024-10-14T05:06:18Z</time><name>143</name><sym>Flag, Blue</sym></wpt><wpt lat="10.320650" lon="123.927134"><ele>13.763850</ele><time>2024-10-14T05:06:28Z</time><name>144</name><sym>Flag, Blue</sym></wpt><wpt lat="10.320658" lon="123.927194"><ele>15.486408</ele><time>2024-10-14T05:06:41Z</time><name>145</name><sym>Flag, Blue</sym></wpt><wpt lat="10.320651" lon="123.927200"><ele>17.890110</ele><time>2024-10-14T05:06:54Z</time><name>146</name><sym>Flag, Blue</sym></wpt><wpt lat="10.320643" lon="123.927252"><ele>18.626644</ele><time>2024-10-14T05:07:07Z</time><name>147</name><sym>Flag, Blue</sym></wpt><wpt lat="10.320596" lon="123.927383"><ele>13.439892</ele><time>2024-10-14T05:07:32Z</time><name>148</name><sym>Flag, Blue</sym></wpt><wpt lat="10.320563" lon="123.927411"><ele>10.039333</ele><time>2024-10-14T05:07:50Z</time><name>149</name><sym>Flag, Blue</sym></wpt><wpt lat="10.320561" lon="123.927452"><ele>10.915806</ele><time>2024-10-14T05:08:05Z</time><name>150</name><sym>Flag, Blue</sym></wpt><wpt lat="10.320572" lon="123.927474"><ele>12.565556</ele><time>2024-10-14T05:08:17Z</time><name>151</name><sym>Flag, Blue</sym></wpt><wpt lat="10.320557" lon="123.927595"><ele>10.632206</ele><time>2024-10-14T05:08:40Z</time><name>152</name><sym>Flag, Blue</sym></wpt><wpt lat="10.320583" lon="123.927627"><ele>9.889099</ele><time>2024-10-14T05:09:11Z</time><name>153</name><sym>Flag, Blue</sym></wpt><wpt lat="10.320254" lon="123.928224"><ele>15.699657</ele><time>2024-10-14T05:10:12Z</time><name>154</name><sym>Flag, Blue</sym></wpt><wpt lat="10.320087" lon="123.928550"><ele>19.603472</ele><time>2024-10-14T05:10:58Z</time><name>155</name><sym>Flag, Blue</sym></wpt><wpt lat="10.320073" lon="123.928643"><ele>19.018105</ele><time>2024-10-14T05:11:06Z</time><name>156</name><sym>Flag, Blue</sym></wpt><wpt lat="10.320062" lon="123.928689"><ele>18.665413</ele><time>2024-10-14T05:11:21Z</time><name>157</name><sym>Flag, Blue</sym></wpt><wpt lat="10.320069" lon="123.928605"><time>2024-10-14T05:12:56Z</time><name>158</name><sym>Flag, Blue</sym></wpt><wpt lat="10.319975" lon="123.928833"><ele>13.159054</ele><time>2024-10-14T05:13:35Z</time><name>159</name><sym>Flag, Blue</sym></wpt><wpt lat="10.319917" lon="123.928999"><ele>13.164046</ele><time>2024-10-14T05:15:08Z</time><name>160</name><sym>Flag, Blue</sym></wpt><wpt lat="10.319827" lon="123.928948"><ele>13.891533</ele><time>2024-10-14T05:15:31Z</time><name>161</name><sym>Flag, Blue</sym></wpt><wpt lat="10.319819" lon="123.928940"><ele>12.963257</ele><time>2024-10-14T05:15:37Z</time><name>162</name><sym>Flag, Blue</sym></wpt><wpt lat="10.319769" lon="123.928918"><ele>13.756217</ele><time>2024-10-14T05:15:50Z</time><name>163</name><sym>Flag, Blue</sym></wpt><wpt lat="10.319696" lon="123.928893"><ele>14.237805</ele><time>2024-10-14T05:16:07Z</time><name>164</name><sym>Flag, Blue</sym></wpt><wpt lat="10.319616" lon="123.928834"><ele>14.307987</ele><time>2024-10-14T05:16:23Z</time><name>165</name><sym>Flag, Blue</sym></wpt><wpt lat="10.319600" lon="123.928804"><ele>14.806435</ele><time>2024-10-14T05:16:30Z</time><name>166</name><sym>Flag, Blue</sym></wpt><wpt lat="10.319547" lon="123.928759"><ele>15.254665</ele><time>2024-10-14T05:16:43Z</time><name>167</name><sym>Flag, Blue</sym></wpt><wpt lat="10.319444" lon="123.928723"><ele>15.793522</ele><time>2024-10-14T05:17:33Z</time><name>168</name><sym>Flag, Blue</sym></wpt><wpt lat="10.319329" lon="123.928667"><ele>16.687225</ele><time>2024-10-14T05:17:56Z</time><name>169</name><sym>Flag, Blue</sym></wpt><wpt lat="10.319257" lon="123.928641"><ele>17.598202</ele><time>2024-10-14T05:18:15Z</time><name>170</name><sym>Flag, Blue</sym></wpt><wpt lat="10.319243" lon="123.928643"><ele>18.456806</ele><time>2024-10-14T05:18:24Z</time><name>171</name><sym>Flag, Blue</sym></wpt><wpt lat="10.319180" lon="123.928596"><ele>20.966637</ele><time>2024-10-14T05:18:47Z</time><name>172</name><sym>Flag, Blue</sym></wpt><wpt lat="10.319179" lon="123.928560"><ele>21.088146</ele><time>2024-10-14T05:19:08Z</time><name>173</name><sym>Flag, Blue</sym></wpt><wpt lat="10.318801" lon="123.928358"><ele>20.619339</ele><time>2024-10-14T05:19:37Z</time><name>174</name><sym>Flag, Blue</sym></wpt><wpt lat="10.318803" lon="123.928341"><ele>19.799179</ele><time>2024-10-14T05:19:45Z</time><name>175</name><sym>Flag, Blue</sym></wpt><wpt lat="10.318782" lon="123.928319"><ele>19.135466</ele><time>2024-10-14T05:19:58Z</time><name>176</name><sym>Flag, Blue</sym></wpt><wpt lat="10.318711" lon="123.928267"><ele>18.182549</ele><time>2024-10-14T05:20:13Z</time><name>177</name><sym>Flag, Blue</sym></wpt><wpt lat="10.318534" lon="123.928177"><ele>17.022499</ele><time>2024-10-14T05:20:32Z</time><name>178</name><sym>Flag, Blue</sym></wpt><wpt lat="10.317933" lon="123.927769"><ele>16.084290</ele><time>2024-10-14T05:21:39Z</time><name>179</name><sym>Flag, Blue</sym></wpt><wpt lat="10.317942" lon="123.927743"><ele>16.360107</ele><time>2024-10-14T05:21:56Z</time><name>180</name><sym>Flag, Blue</sym></wpt><wpt lat="10.317799" lon="123.927841"><ele>17.527122</ele><time>2024-10-14T05:22:26Z</time><name>181</name><sym>Flag, Blue</sym></wpt><wpt lat="10.317391" lon="123.928108"><ele>18.382046</ele><time>2024-10-14T05:23:04Z</time><name>182</name><sym>Flag, Blue</sym></wpt><wpt lat="10.317051" lon="123.928410"><ele>16.550411</ele><time>2024-10-14T05:23:37Z</time><name>183</name><sym>Flag, Blue</sym></wpt><wpt lat="10.316918" lon="123.928535"><ele>15.322381</ele><time>2024-10-14T05:23:50Z</time><name>184</name><sym>Flag, Blue</sym></wpt><wpt lat="10.316863" lon="123.928588"><ele>16.276394</ele><time>2024-10-14T05:24:04Z</time><name>185</name><sym>Flag, Blue</sym></wpt><wpt lat="10.316882" lon="123.928611"><ele>15.338120</ele><time>2024-10-14T05:24:30Z</time><name>186</name><sym>Flag, Blue</sym></wpt><wpt lat="10.316852" lon="123.928618"><ele>15.855934</ele><time>2024-10-14T05:24:46Z</time><name>187</name><sym>Flag, Blue</sym></wpt><wpt lat="10.316300" lon="123.929032"><ele>16.711708</ele><time>2024-10-14T05:25:17Z</time><name>188</name><sym>Flag, Blue</sym></wpt><wpt lat="10.316291" lon="123.929049"><ele>16.231140</ele><time>2024-10-14T05:25:29Z</time><name>189</name><sym>Flag, Blue</sym></wpt><wpt lat="10.316198" lon="123.929133"><ele>16.891005</ele><time>2024-10-14T05:25:47Z</time><name>190</name><sym>Flag, Blue</sym></wpt><wpt lat="10.316178" lon="123.929154"><ele>17.317062</ele><time>2024-10-14T05:25:56Z</time><name>191</name><sym>Flag, Blue</sym></wpt><wpt lat="10.315917" lon="123.929390"><ele>16.729033</ele><time>2024-10-14T05:26:18Z</time><name>192</name><sym>Flag, Blue</sym></wpt><wpt lat="10.315810" lon="123.929497"><ele>15.617616</ele><time>2024-10-14T05:26:33Z</time><name>193</name><sym>Flag, Blue</sym></wpt><wpt lat="10.315704" lon="123.929586"><ele>16.842068</ele><time>2024-10-14T05:26:55Z</time><name>194</name><sym>Flag, Blue</sym></wpt><wpt lat="10.315601" lon="123.929660"><ele>15.461101</ele><time>2024-10-14T05:27:11Z</time><name>195</name><sym>Flag, Blue</sym></wpt><wpt lat="10.315592" lon="123.929662"><ele>14.280262</ele><time>2024-10-14T05:27:23Z</time><name>196</name><sym>Flag, Blue</sym></wpt><wpt lat="10.314499" lon="123.928656"><ele>10.929358</ele><time>2024-10-14T05:28:29Z</time><name>197</name><sym>Flag, Blue</sym></wpt><wpt lat="10.314063" lon="123.928069"><ele>14.392376</ele><time>2024-10-14T05:29:07Z</time><name>198</name><sym>Flag, Blue</sym></wpt><wpt lat="10.313973" lon="123.928004"><ele>15.837401</ele><time>2024-10-14T05:29:34Z</time><name>199</name><sym>Flag, Blue</sym></wpt><wpt lat="10.313910" lon="123.927921"><ele>14.320977</ele><time>2024-10-14T05:29:53Z</time><name>200</name><sym>Flag, Blue</sym></wpt><wpt lat="10.313893" lon="123.927890"><ele>14.084774</ele><time>2024-10-14T05:30:10Z</time><name>201</name><sym>Flag, Blue</sym></wpt><wpt lat="10.313860" lon="123.927837"><ele>15.137974</ele><time>2024-10-14T05:30:26Z</time><name>202</name><sym>Flag, Blue</sym></wpt><wpt lat="10.313604" lon="123.927457"><ele>14.453213</ele><time>2024-10-14T05:30:56Z</time><name>203</name><sym>Flag, Blue</sym></wpt><wpt lat="10.312687" lon="123.926229"><ele>11.814102</ele><time>2024-10-14T05:32:10Z</time><name>204</name><sym>Flag, Blue</sym></wpt><wpt lat="10.312463" lon="123.926016"><ele>13.708142</ele><time>2024-10-14T05:32:30Z</time><name>205</name><sym>Flag, Blue</sym></wpt><wpt lat="10.312149" lon="123.925620"><ele>13.571453</ele><time>2024-10-14T05:33:01Z</time><name>206</name><sym>Flag, Blue</sym></wpt><wpt lat="10.312619" lon="123.924904"><ele>10.472327</ele><time>2024-10-14T05:33:52Z</time><name>207</name><sym>Flag, Blue</sym></wpt><wpt lat="10.312895" lon="123.924715"><ele>7.318804</ele><time>2024-10-14T05:34:21Z</time><name>208</name><sym>Flag, Blue</sym></wpt><wpt lat="10.313102" lon="123.924621"><ele>6.312808</ele><time>2024-10-14T05:34:58Z</time><name>209</name><sym>Flag, Blue</sym></wpt><wpt lat="10.313126" lon="123.924603"><ele>8.563763</ele><time>2024-10-14T05:35:07Z</time><name>210</name><sym>Flag, Blue</sym></wpt><wpt lat="10.313113" lon="123.924602"><ele>10.358578</ele><time>2024-10-14T05:35:24Z</time><name>211</name><sym>Flag, Blue</sym></wpt><wpt lat="10.313174" lon="123.924653"><ele>14.480793</ele><time>2024-10-14T05:35:46Z</time><name>212</name><sym>Flag, Blue</sym></wpt><wpt lat="10.313187" lon="123.924639"><ele>16.919407</ele><time>2024-10-14T05:35:56Z</time><name>213</name><sym>Flag, Blue</sym></wpt><wpt lat="10.313200" lon="123.924626"><ele>20.127140</ele><time>2024-10-14T05:36:12Z</time><name>214</name><sym>Flag, Blue</sym></wpt><wpt lat="10.313223" lon="123.924607"><ele>23.050465</ele><time>2024-10-14T05:36:20Z</time><name>215</name><sym>Flag, Blue</sym></wpt><wpt lat="10.313219" lon="123.924589"><ele>24.019161</ele><time>2024-10-14T05:36:30Z</time><name>216</name><sym>Flag, Blue</sym></wpt><wpt lat="10.313288" lon="123.924708"><ele>25.358929</ele><time>2024-10-14T05:36:54Z</time><name>217</name><sym>Flag, Blue</sym></wpt><wpt lat="10.313286" lon="123.924723"><ele>25.567341</ele><time>2024-10-14T05:37:02Z</time><name>218</name><sym>Flag, Blue</sym></wpt><wpt lat="10.313279" lon="123.924732"><ele>24.442654</ele><time>2024-10-14T05:37:16Z</time><name>219</name><sym>Flag, Blue</sym></wpt><wpt lat="10.313327" lon="123.924778"><ele>26.757633</ele><time>2024-10-14T05:37:40Z</time><name>220</name><sym>Flag, Blue</sym></wpt><wpt lat="10.313306" lon="123.924783"><ele>25.961788</ele><time>2024-10-14T05:37:49Z</time><name>221</name><sym>Flag, Blue</sym></wpt><wpt lat="10.313334" lon="123.924744"><ele>29.338825</ele><time>2024-10-14T05:38:05Z</time><name>222</name><sym>Flag, Blue</sym></wpt><wpt lat="10.313352" lon="123.924862"><ele>26.103416</ele><time>2024-10-14T05:38:31Z</time><name>223</name><sym>Flag, Blue</sym></wpt><wpt lat="10.313347" lon="123.924868"><ele>24.409279</ele><time>2024-10-14T05:38:39Z</time><name>224</name><sym>Flag, Blue</sym></wpt><wpt lat="10.313367" lon="123.924922"><ele>24.009821</ele><time>2024-10-14T05:38:54Z</time><name>225</name><sym>Flag, Blue</sym></wpt><wpt lat="10.313420" lon="123.924964"><ele>27.079395</ele><time>2024-10-14T05:39:17Z</time><name>226</name><sym>Flag, Blue</sym></wpt><wpt lat="10.313506" lon="123.925073"><ele>23.766497</ele><time>2024-10-14T05:39:45Z</time><name>227</name><sym>Flag, Blue</sym></wpt><wpt lat="10.313530" lon="123.925109"><ele>22.044468</ele><time>2024-10-14T05:39:54Z</time><name>228</name><sym>Flag, Blue</sym></wpt><wpt lat="10.313563" lon="123.925168"><ele>18.684782</ele><time>2024-10-14T05:40:10Z</time><name>229</name><sym>Flag, Blue</sym></wpt><wpt lat="10.313567" lon="123.925186"><ele>18.290798</ele><time>2024-10-14T05:40:19Z</time><name>230</name><sym>Flag, Blue</sym></wpt><wpt lat="10.313592" lon="123.925201"><ele>17.210293</ele><time>2024-10-14T05:40:37Z</time><name>231</name><sym>Flag, Blue</sym></wpt><wpt lat="10.313652" lon="123.925282"><ele>17.054066</ele><time>2024-10-14T05:40:53Z</time><name>232</name><sym>Flag, Blue</sym></wpt><wpt lat="10.313681" lon="123.925345"><ele>17.806126</ele><time>2024-10-14T05:41:09Z</time><name>233</name><sym>Flag, Blue</sym></wpt><wpt lat="10.313703" lon="123.925354"><ele>17.623211</ele><time>2024-10-14T05:41:21Z</time><name>234</name><sym>Flag, Blue</sym></wpt><wpt lat="10.313740" lon="123.925402"><ele>17.256853</ele><time>2024-10-14T05:41:37Z</time><name>235</name><sym>Flag, Blue</sym></wpt><wpt lat="10.313763" lon="123.925432"><ele>17.243286</ele><time>2024-10-14T05:41:52Z</time><name>236</name><sym>Flag, Blue</sym></wpt><wpt lat="10.313774" lon="123.925456"><ele>18.359253</ele><time>2024-10-14T05:42:11Z</time><name>237</name><sym>Flag, Blue</sym></wpt><wpt lat="10.314921" lon="123.926978"><ele>18.931423</ele><time>2024-10-14T05:43:26Z</time><name>238</name><sym>Flag, Blue</sym></wpt><wpt lat="10.314946" lon="123.926971"><ele>15.882187</ele><time>2024-10-14T05:43:50Z</time><name>239</name><sym>Flag, Blue</sym></wpt><wpt lat="10.314950" lon="123.926965"><ele>15.010216</ele><time>2024-10-14T05:44:03Z</time><name>240</name><sym>Flag, Blue</sym></wpt><wpt lat="10.316776" lon="123.929007"><ele>13.752870</ele><time>2024-10-14T05:47:06Z</time><name>241</name><sym>Flag, Blue</sym></wpt><wpt lat="10.316835" lon="123.929037"><ele>13.750285</ele><time>2024-10-14T05:47:28Z</time><name>242</name><sym>Flag, Blue</sym></wpt><wpt lat="10.316909" lon="123.929091"><ele>14.576692</ele><time>2024-10-14T05:47:46Z</time><name>243</name><sym>Flag, Blue</sym></wpt><wpt lat="10.316944" lon="123.929113"><ele>14.583195</ele><time>2024-10-14T05:47:53Z</time><name>244</name><sym>Flag, Blue</sym></wpt><wpt lat="10.317152" lon="123.929214"><ele>14.833455</ele><time>2024-10-14T05:48:13Z</time><name>245</name><sym>Flag, Blue</sym></wpt><wpt lat="10.317229" lon="123.929257"><ele>15.882786</ele><time>2024-10-14T05:48:33Z</time><name>246</name><sym>Flag, Blue</sym></wpt><wpt lat="10.317297" lon="123.929293"><ele>16.121260</ele><time>2024-10-14T05:48:52Z</time><name>247</name><sym>Flag, Blue</sym></wpt><wpt lat="10.317692" lon="123.929537"><ele>16.041233</ele><time>2024-10-14T05:49:15Z</time><name>248</name><sym>Flag, Blue</sym></wpt><wpt lat="10.317799" lon="123.929599"><ele>16.619089</ele><time>2024-10-14T05:49:29Z</time><name>249</name><sym>Flag, Blue</sym></wpt><wpt lat="10.317903" lon="123.929681"><ele>16.713476</ele><time>2024-10-14T05:49:42Z</time><name>250</name><sym>Flag, Blue</sym></wpt><wpt lat="10.317944" lon="123.929699"><ele>17.172424</ele><time>2024-10-14T05:49:49Z</time><name>251</name><sym>Flag, Blue</sym></wpt><wpt lat="10.317969" lon="123.929700"><ele>18.100189</ele><time>2024-10-14T05:50:03Z</time><name>252</name><sym>Flag, Blue</sym></wpt><wpt lat="10.318168" lon="123.929838"><ele>18.160835</ele><time>2024-10-14T05:50:20Z</time><name>253</name><sym>Flag, Blue</sym></wpt><wpt lat="10.318250" lon="123.929925"><ele>17.413368</ele><time>2024-10-14T05:50:37Z</time><name>254</name><sym>Flag, Blue</sym></wpt><wpt lat="10.318416" lon="123.930014"><ele>17.502821</ele><time>2024-10-14T05:50:55Z</time><name>255</name><sym>Flag, Blue</sym></wpt><wpt lat="10.318558" lon="123.930100"><ele>17.197834</ele><time>2024-10-14T05:51:11Z</time><name>256</name><sym>Flag, Blue</sym></wpt><wpt lat="10.318705" lon="123.930191"><ele>18.168159</ele><time>2024-10-14T05:51:29Z</time><name>257</name><sym>Flag, Blue</sym></wpt><wpt lat="10.318878" lon="123.930304"><ele>16.293808</ele><time>2024-10-14T05:51:48Z</time><name>258</name><sym>Flag, Blue</sym></wpt><wpt lat="10.319517" lon="123.930448"><ele>15.939546</ele><time>2024-10-14T05:52:30Z</time><name>259</name><sym>Flag, Blue</sym></wpt><wpt lat="10.319560" lon="123.930234"><ele>16.256662</ele><time>2024-10-14T05:52:50Z</time><name>260</name><sym>Flag, Blue</sym></wpt><wpt lat="10.319576" lon="123.930199"><ele>16.049316</ele><time>2024-10-14T05:53:01Z</time><name>261</name><sym>Flag, Blue</sym></wpt><wpt lat="10.319614" lon="123.930125"><ele>16.990372</ele><time>2024-10-14T05:53:16Z</time><name>262</name><sym>Flag, Blue</sym></wpt><wpt lat="10.319667" lon="123.929910"><ele>18.223579</ele><time>2024-10-14T05:53:34Z</time><name>263</name><sym>Flag, Blue</sym></wpt><wpt lat="10.319775" lon="123.929692"><ele>17.646536</ele><time>2024-10-14T05:53:55Z</time><name>264</name><sym>Flag, Blue</sym></wpt></gpx>