<?xml version="1.0" encoding="UTF-8" standalone="no" ?><gpx xmlns="http://www.topografix.com/GPX/1/1" xmlns:gpxx="http://www.garmin.com/xmlschemas/GpxExtensions/v3" xmlns:wptx1="http://www.garmin.com/xmlschemas/WaypointExtension/v1" xmlns:gpxtpx="http://www.garmin.com/xmlschemas/TrackPointExtension/v1" creator="eTrex 22x" version="1.1" xmlns:xsi="http://www.w3.org/2001/XMLSchema-instance" xsi:schemaLocation="http://www.topografix.com/GPX/1/1 http://www.topografix.com/GPX/1/1/gpx.xsd http://www.garmin.com/xmlschemas/GpxExtensions/v3 http://www8.garmin.com/xmlschemas/GpxExtensionsv3.xsd http://www.garmin.com/xmlschemas/TrackStatsExtension/v1 http://www8.garmin.com/xmlschemas/TrackStatsExtension.xsd http://www.garmin.com/xmlschemas/WaypointExtension/v1 http://www8.garmin.com/xmlschemas/WaypointExtensionv1.xsd http://www.garmin.com/xmlschemas/TrackPointExtension/v1 http://www.garmin.com/xmlschemas/TrackPointExtensionv1.xsd"><metadata><link href="http://www.garmin.com"><text>Garmin International</text></link><time>2024-10-10T03:24:25Z</time></metadata><wpt lat="10.315893" lon="123.924323"><time>2024-10-10T03:24:25Z</time><name>1452</name><sym>Flag, Blue</sym></wpt><wpt lat="10.322242" lon="123.923462"><ele>20.091667</ele><time>2024-10-10T03:24:49Z</time><name>1453</name><sym>Flag, Blue</sym></wpt><wpt lat="10.322196" lon="123.923417"><ele>20.630104</ele><time>2024-10-10T03:25:06Z</time><name>1454</name><sym>Flag, Blue</sym></wpt><wpt lat="10.322131" lon="123.923284"><ele>18.152695</ele><time>2024-10-10T03:25:38Z</time><name>1455</name><sym>Flag, Blue</sym></wpt><wpt lat="10.322205" lon="123.923328"><ele>15.449593</ele><time>2024-10-10T03:26:30Z</time><name>1456</name><sym>Flag, Blue</sym></wpt><wpt lat="10.322183" lon="123.923291"><ele>13.105656</ele><time>2024-10-10T03:26:56Z</time><name>1457</name><sym>Flag, Blue</sym></wpt><wpt lat="10.322368" lon="123.923176"><ele>16.118942</ele><time>2024-10-10T03:28:58Z</time><name>1458</name><sym>Flag, Blue</sym></wpt><wpt lat="10.322411" lon="123.923167"><ele>16.469841</ele><time>2024-10-10T03:29:14Z</time><name>1459</name><sym>Flag, Blue</sym></wpt><wpt lat="10.322453" lon="123.923166"><ele>16.967796</ele><time>2024-10-10T03:29:33Z</time><name>1460</name><sym>Flag, Blue</sym></wpt><wpt lat="10.322473" lon="123.923148"><ele>18.236202</ele><time>2024-10-10T03:30:29Z</time><name>1461</name><sym>Flag, Blue</sym></wpt><wpt lat="10.322468" lon="123.923118"><ele>20.129181</ele><time>2024-10-10T03:31:05Z</time><name>1462</name><sym>Flag, Blue</sym></wpt><wpt lat="10.322480" lon="123.923111"><ele>21.099464</ele><time>2024-10-10T03:31:15Z</time><name>1463</name><sym>Flag, Blue</sym></wpt><wpt lat="10.322493" lon="123.923102"><ele>21.870407</ele><time>2024-10-10T03:31:27Z</time><name>1464</name><sym>Flag, Blue</sym></wpt><wpt lat="10.322502" lon="123.923088"><ele>20.695961</ele><time>2024-10-10T03:31:38Z</time><name>1465</name><sym>Flag, Blue</sym></wpt><wpt lat="10.322530" lon="123.923110"><ele>19.995728</ele><time>2024-10-10T03:31:58Z</time><name>1466</name><sym>Flag, Blue</sym></wpt><wpt lat="10.322758" lon="123.923004"><ele>16.272472</ele><time>2024-10-10T03:33:04Z</time><name>1467</name><sym>Flag, Blue</sym></wpt><wpt lat="10.322793" lon="123.922962"><ele>13.194340</ele><time>2024-10-10T03:33:17Z</time><name>1468</name><sym>Flag, Blue</sym></wpt><wpt lat="10.322836" lon="123.922939"><ele>11.511265</ele><time>2024-10-10T03:33:32Z</time><name>1469</name><sym>Flag, Blue</sym></wpt><wpt lat="10.322884" lon="123.922930"><ele>12.189350</ele><time>2024-10-10T03:33:47Z</time><name>1470</name><sym>Flag, Blue</sym></wpt><wpt lat="10.322927" lon="123.922908"><ele>17.609417</ele><time>2024-10-10T03:34:02Z</time><name>1471</name><sym>Flag, Blue</sym></wpt><wpt lat="10.322949" lon="123.922849"><ele>18.694538</ele><time>2024-10-10T03:34:15Z</time><name>1472</name><sym>Flag, Blue</sym></wpt><wpt lat="10.322969" lon="123.922818"><ele>16.738171</ele><time>2024-10-10T03:34:26Z</time><name>1473</name><sym>Flag, Blue</sym></wpt><wpt lat="10.323051" lon="123.922766"><ele>17.247139</ele><time>2024-10-10T03:35:08Z</time><name>1474</name><sym>Flag, Blue</sym></wpt><wpt lat="10.323122" lon="123.922707"><ele>16.299706</ele><time>2024-10-10T03:35:28Z</time><name>1475</name><sym>Flag, Blue</sym></wpt><wpt lat="10.323235" lon="123.922657"><ele>16.283604</ele><time>2024-10-10T03:35:50Z</time><name>1476</name><sym>Flag, Blue</sym></wpt><wpt lat="10.323126" lon="123.922487"><ele>15.239674</ele><time>2024-10-10T03:36:54Z</time><name>1477</name><sym>Flag, Blue</sym></wpt><wpt lat="10.323093" lon="123.922434"><ele>21.584476</ele><time>2024-10-10T03:37:29Z</time><name>1478</name><sym>Flag, Blue</sym></wpt><wpt lat="10.322952" lon="123.922611"><ele>21.218628</ele><time>2024-10-10T03:38:48Z</time><name>1479</name><sym>Flag, Blue</sym></wpt><wpt lat="10.322995" lon="123.922750"><ele>20.575783</ele><time>2024-10-10T03:39:28Z</time><name>1480</name><sym>Flag, Blue</sym></wpt><wpt lat="10.322844" lon="123.922729"><ele>23.737896</ele><time>2024-10-10T03:40:42Z</time><name>1481</name><sym>Flag, Blue</sym></wpt><wpt lat="10.322802" lon="123.922752"><ele>22.992382</ele><time>2024-10-10T03:41:01Z</time><name>1482</name><sym>Flag, Blue</sym></wpt><wpt lat="10.322767" lon="123.922757"><ele>22.324657</ele><time>2024-10-10T03:41:13Z</time><name>1483</name><sym>Flag, Blue</sym></wpt><wpt lat="10.322732" lon="123.922772"><ele>21.702831</ele><time>2024-10-10T03:41:23Z</time><name>1484</name><sym>Flag, Blue</sym></wpt><wpt lat="10.322716" lon="123.922794"><ele>22.092670</ele><time>2024-10-10T03:41:35Z</time><name>1485</name><sym>Flag, Blue</sym></wpt><wpt lat="10.322683" lon="123.922817"><ele>21.829628</ele><time>2024-10-10T03:41:47Z</time><name>1486</name><sym>Flag, Blue</sym></wpt><wpt lat="10.322638" lon="123.922835"><ele>21.857285</ele><time>2024-10-10T03:42:02Z</time><name>1487</name><sym>Flag, Blue</sym></wpt><wpt lat="10.322618" lon="123.922900"><ele>20.111702</ele><time>2024-10-10T03:42:13Z</time><name>1488</name><sym>Flag, Blue</sym></wpt><wpt lat="10.322494" lon="123.923049"><ele>24.916363</ele><time>2024-10-10T03:42:45Z</time><name>1489</name><sym>Flag, Blue</sym></wpt><wpt lat="10.321725" lon="123.922906"><ele>28.647194</ele><time>2024-10-10T05:11:47Z</time><name>1490</name><sym>Flag, Blue</sym></wpt><wpt lat="10.321761" lon="123.922960"><ele>24.453308</ele><time>2024-10-10T05:12:05Z</time><name>1491</name><sym>Flag, Blue</sym></wpt><wpt lat="10.321175" lon="123.922313"><ele>12.463699</ele><time>2024-10-10T05:13:58Z</time><name>1492</name><sym>Flag, Blue</sym></wpt><wpt lat="10.320645" lon="123.921715"><ele>-4.932777</ele><time>2024-10-10T05:15:45Z</time><name>1493</name><sym>Flag, Blue</sym></wpt><wpt lat="10.320590" lon="123.921502"><ele>10.676899</ele><time>2024-10-10T05:16:36Z</time><name>1494</name><sym>Flag, Blue</sym></wpt><wpt lat="10.319832" lon="123.920882"><ele>2.622787</ele><time>2024-10-10T05:18:31Z</time><name>1495</name><sym>Flag, Blue</sym></wpt><wpt lat="10.319848" lon="123.920860"><ele>5.054413</ele><time>2024-10-10T05:18:40Z</time><name>1496</name><sym>Flag, Blue</sym></wpt><wpt lat="10.319850" lon="123.920837"><ele>7.765846</ele><time>2024-10-10T05:18:50Z</time><name>1497</name><sym>Flag, Blue</sym></wpt><wpt lat="10.319833" lon="123.920834"><ele>10.804878</ele><time>2024-10-10T05:18:59Z</time><name>1498</name><sym>Flag, Blue</sym></wpt><wpt lat="10.319823" lon="123.920821"><ele>12.842651</ele><time>2024-10-10T05:19:07Z</time><name>1499</name><sym>Flag, Blue</sym></wpt><wpt lat="10.319799" lon="123.920822"><ele>15.972298</ele><time>2024-10-10T05:19:16Z</time><name>1500</name><sym>Flag, Blue</sym></wpt><wpt lat="10.319784" lon="123.920809"><ele>16.342911</ele><time>2024-10-10T05:19:24Z</time><name>1501</name><sym>Flag, Blue</sym></wpt><wpt lat="10.319782" lon="123.920799"><ele>17.335266</ele><time>2024-10-10T05:19:33Z</time><name>1502</name><sym>Flag, Blue</sym></wpt><wpt lat="10.319780" lon="123.920784"><ele>19.171936</ele><time>2024-10-10T05:19:40Z</time><name>1503</name><sym>Flag, Blue</sym></wpt><wpt lat="10.319738" lon="123.920751"><ele>18.540329</ele><time>2024-10-10T05:19:52Z</time><name>1504</name><sym>Flag, Blue</sym></wpt><wpt lat="10.319722" lon="123.920709"><ele>17.796494</ele><time>2024-10-10T05:20:05Z</time><name>1505</name><sym>Flag, Blue</sym></wpt><wpt lat="10.319513" lon="123.920360"><ele>6.079567</ele><time>2024-10-10T05:20:53Z</time><name>1506</name><sym>Flag, Blue</sym></wpt><wpt lat="10.319248" lon="123.920129"><ele>11.113388</ele><time>2024-10-10T05:21:38Z</time><name>1507</name><sym>Flag, Blue</sym></wpt><wpt lat="10.319233" lon="123.920107"><ele>13.721313</ele><time>2024-10-10T05:21:50Z</time><name>1508</name><sym>Flag, Blue</sym></wpt><wpt lat="10.319206" lon="123.920078"><ele>14.229996</ele><time>2024-10-10T05:22:01Z</time><name>1509</name><sym>Flag, Blue</sym></wpt><wpt lat="10.319196" lon="123.920047"><ele>15.361206</ele><time>2024-10-10T05:22:11Z</time><name>1510</name><sym>Flag, Blue</sym></wpt><wpt lat="10.319180" lon="123.920028"><ele>16.055199</ele><time>2024-10-10T05:22:20Z</time><name>1511</name><sym>Flag, Blue</sym></wpt><wpt lat="10.319168" lon="123.920014"><ele>16.081688</ele><time>2024-10-10T05:22:33Z</time><name>1512</name><sym>Flag, Blue</sym></wpt><wpt lat="10.319158" lon="123.920005"><ele>16.752125</ele><time>2024-10-10T05:22:39Z</time><name>1513</name><sym>Flag, Blue</sym></wpt><wpt lat="10.319138" lon="123.919990"><ele>16.873949</ele><time>2024-10-10T05:22:47Z</time><name>1514</name><sym>Flag, Blue</sym></wpt><wpt lat="10.319128" lon="123.919990"><ele>16.114811</ele><time>2024-10-10T05:22:56Z</time><name>1515</name><sym>Flag, Blue</sym></wpt><wpt lat="10.319114" lon="123.919976"><ele>16.423481</ele><time>2024-10-10T05:23:05Z</time><name>1516</name><sym>Flag, Blue</sym></wpt><wpt lat="10.319357" lon="123.919988"><ele>9.908302</ele><time>2024-10-10T05:29:01Z</time><name>1517</name><sym>Flag, Blue</sym></wpt><wpt lat="10.320124" lon="123.920914"><ele>-2.979561</ele><time>2024-10-10T05:31:38Z</time><name>1518</name><sym>Flag, Blue</sym></wpt><wpt lat="10.320968" lon="123.921889"><ele>8.182877</ele><time>2024-10-10T05:34:14Z</time><name>1519</name><sym>Flag, Blue</sym></wpt><wpt lat="10.321335" lon="123.922349"><ele>14.601170</ele><time>2024-10-10T05:35:25Z</time><name>1520</name><sym>Flag, Blue</sym></wpt><wpt lat="10.321662" lon="123.922689"><ele>19.278122</ele><time>2024-10-10T05:36:28Z</time><name>1521</name><sym>Flag, Blue</sym></wpt><wpt lat="10.323128" lon="123.924473"><ele>20.130764</ele><time>2024-10-10T05:41:54Z</time><name>1522</name><sym>Flag, Blue</sym></wpt><wpt lat="10.323144" lon="123.924505"><ele>19.104153</ele><time>2024-10-10T05:42:10Z</time><name>1523</name><sym>Flag, Blue</sym></wpt><wpt lat="10.323153" lon="123.924494"><ele>19.370129</ele><time>2024-10-10T05:42:22Z</time><name>1524</name><sym>Flag, Blue</sym></wpt><wpt lat="10.323172" lon="123.924507"><ele>18.955006</ele><time>2024-10-10T05:42:33Z</time><name>1525</name><sym>Flag, Blue</sym></wpt><wpt lat="10.323183" lon="123.924514"><ele>19.789394</ele><time>2024-10-10T05:42:44Z</time><name>1526</name><sym>Flag, Blue</sym></wpt><wpt lat="10.323192" lon="123.924520"><ele>19.900463</ele><time>2024-10-10T05:42:52Z</time><name>1527</name><sym>Flag, Blue</sym></wpt><wpt lat="10.323286" lon="123.924420"><ele>19.110676</ele><time>2024-10-10T05:43:20Z</time><name>1528</name><sym>Flag, Blue</sym></wpt><wpt lat="10.323284" lon="123.924475"><ele>13.953388</ele><time>2024-10-10T05:43:35Z</time><name>1529</name><sym>Flag, Blue</sym></wpt><wpt lat="10.323283" lon="123.924497"><ele>14.634735</ele><time>2024-10-10T05:43:46Z</time><name>1530</name><sym>Flag, Blue</sym></wpt><wpt lat="10.323284" lon="123.924507"><ele>17.495590</ele><time>2024-10-10T05:44:04Z</time><name>1531</name><sym>Flag, Blue</sym></wpt><wpt lat="10.323278" lon="123.924514"><ele>18.046509</ele><time>2024-10-10T05:44:11Z</time><name>1532</name><sym>Flag, Blue</sym></wpt><wpt lat="10.323323" lon="123.924595"><ele>20.273125</ele><time>2024-10-10T05:44:27Z</time><name>1533</name><sym>Flag, Blue</sym></wpt><wpt lat="10.323323" lon="123.924596"><ele>19.501450</ele><time>2024-10-10T05:44:35Z</time><name>1534</name><sym>Flag, Blue</sym></wpt><wpt lat="10.323307" lon="123.924589"><ele>20.030918</ele><time>2024-10-10T05:44:43Z</time><name>1535</name><sym>Flag, Blue</sym></wpt><wpt lat="10.323318" lon="123.924602"><ele>20.147350</ele><time>2024-10-10T05:44:53Z</time><name>1536</name><sym>Flag, Blue</sym></wpt><wpt lat="10.323332" lon="123.924621"><ele>20.034199</ele><time>2024-10-10T05:45:00Z</time><name>1537</name><sym>Flag, Blue</sym></wpt><wpt lat="10.323421" lon="123.924732"><ele>16.304485</ele><time>2024-10-10T05:45:21Z</time><name>1538</name><sym>Flag, Blue</sym></wpt></gpx>