<?xml version="1.0" encoding="UTF-8" standalone="no" ?><gpx xmlns="http://www.topografix.com/GPX/1/1" xmlns:gpxx="http://www.garmin.com/xmlschemas/GpxExtensions/v3" xmlns:wptx1="http://www.garmin.com/xmlschemas/WaypointExtension/v1" xmlns:gpxtpx="http://www.garmin.com/xmlschemas/TrackPointExtension/v1" creator="eTrex 22x" version="1.1" xmlns:xsi="http://www.w3.org/2001/XMLSchema-instance" xsi:schemaLocation="http://www.topografix.com/GPX/1/1 http://www.topografix.com/GPX/1/1/gpx.xsd http://www.garmin.com/xmlschemas/GpxExtensions/v3 http://www8.garmin.com/xmlschemas/GpxExtensionsv3.xsd http://www.garmin.com/xmlschemas/TrackStatsExtension/v1 http://www8.garmin.com/xmlschemas/TrackStatsExtension.xsd http://www.garmin.com/xmlschemas/WaypointExtension/v1 http://www8.garmin.com/xmlschemas/WaypointExtensionv1.xsd http://www.garmin.com/xmlschemas/TrackPointExtension/v1 http://www.garmin.com/xmlschemas/TrackPointExtensionv1.xsd"><metadata><link href="http://www.garmin.com"><text>Garmin International</text></link><time>2024-09-19T01:47:26Z</time></metadata><wpt lat="10.362588" lon="123.949787"><time>2024-09-19T01:47:26Z</time><name>268</name><sym>Flag, Blue</sym></wpt><wpt lat="10.365289" lon="123.955449"><ele>35.394894</ele><time>2024-09-19T01:50:49Z</time><name>269</name><sym>Flag, Blue</sym></wpt><wpt lat="10.365289" lon="123.955399"><ele>34.689548</ele><time>2024-09-19T01:51:02Z</time><name>270</name><sym>Flag, Blue</sym></wpt><wpt lat="10.365330" lon="123.955304"><ele>35.934990</ele><time>2024-09-19T01:51:27Z</time><name>271</name><sym>Flag, Blue</sym></wpt><wpt lat="10.365334" lon="123.955298"><ele>38.554699</ele><time>2024-09-19T01:51:34Z</time><name>272</name><sym>Flag, Blue</sym></wpt><wpt lat="10.365326" lon="123.955194"><ele>40.616604</ele><time>2024-09-19T01:51:56Z</time><name>273</name><sym>Flag, Blue</sym></wpt><wpt lat="10.365283" lon="123.955103"><ele>37.890781</ele><time>2024-09-19T01:52:34Z</time><name>274</name><sym>Flag, Blue</sym></wpt><wpt lat="10.365256" lon="123.955100"><ele>39.394047</ele><time>2024-09-19T01:53:03Z</time><name>275</name><sym>Flag, Blue</sym></wpt><wpt lat="10.365232" lon="123.955186"><ele>35.783199</ele><time>2024-09-19T01:53:37Z</time><name>276</name><sym>Flag, Blue</sym></wpt><wpt lat="10.365350" lon="123.955560"><ele>36.647049</ele><time>2024-09-19T01:54:50Z</time><name>277</name><sym>Flag, Blue</sym></wpt><wpt lat="10.365279" lon="123.955578"><ele>34.343040</ele><time>2024-09-19T01:55:29Z</time><name>278</name><sym>Flag, Blue</sym></wpt><wpt lat="10.365290" lon="123.955568"><ele>34.783379</ele><time>2024-09-19T01:55:56Z</time><name>279</name><sym>Flag, Blue</sym></wpt><wpt lat="10.365271" lon="123.955667"><ele>26.419014</ele><time>2024-09-19T01:57:08Z</time><name>280</name><sym>Flag, Blue</sym></wpt><wpt lat="10.365212" lon="123.955722"><ele>25.822769</ele><time>2024-09-19T01:57:32Z</time><name>281</name><sym>Flag, Blue</sym></wpt><wpt lat="10.365103" lon="123.955848"><ele>26.088064</ele><time>2024-09-19T01:58:13Z</time><name>282</name><sym>Flag, Blue</sym></wpt><wpt lat="10.365029" lon="123.955992"><ele>28.478065</ele><time>2024-09-19T01:58:49Z</time><name>283</name><sym>Flag, Blue</sym></wpt><wpt lat="10.364967" lon="123.956132"><ele>35.868317</ele><time>2024-09-19T01:59:33Z</time><name>284</name><sym>Flag, Blue</sym></wpt><wpt lat="10.364984" lon="123.956240"><ele>36.640560</ele><time>2024-09-19T02:00:00Z</time><name>285</name><sym>Flag, Blue</sym></wpt><wpt lat="10.364997" lon="123.956231"><ele>38.301098</ele><time>2024-09-19T02:00:11Z</time><name>286</name><sym>Flag, Blue</sym></wpt><wpt lat="10.365028" lon="123.956228"><ele>38.870579</ele><time>2024-09-19T02:00:22Z</time><name>287</name><sym>Flag, Blue</sym></wpt><wpt lat="10.364974" lon="123.956243"><ele>39.646435</ele><time>2024-09-19T02:00:48Z</time><name>288</name><sym>Flag, Blue</sym></wpt><wpt lat="10.364905" lon="123.956216"><ele>38.368473</ele><time>2024-09-19T02:01:22Z</time><name>289</name><sym>Flag, Blue</sym></wpt><wpt lat="10.364820" lon="123.956255"><ele>41.429127</ele><time>2024-09-19T02:01:37Z</time><name>290</name><sym>Flag, Blue</sym></wpt><wpt lat="10.364799" lon="123.956276"><ele>43.163746</ele><time>2024-09-19T02:01:56Z</time><name>291</name><sym>Flag, Blue</sym></wpt><wpt lat="10.364781" lon="123.956356"><ele>44.400757</ele><time>2024-09-19T02:02:22Z</time><name>292</name><sym>Flag, Blue</sym></wpt><wpt lat="10.364799" lon="123.956388"><ele>42.897034</ele><time>2024-09-19T02:02:37Z</time><name>293</name><sym>Flag, Blue</sym></wpt><wpt lat="10.364731" lon="123.956460"><ele>38.426483</ele><time>2024-09-19T02:03:09Z</time><name>294</name><sym>Flag, Blue</sym></wpt><wpt lat="10.364626" lon="123.956666"><ele>38.915066</ele><time>2024-09-19T02:04:04Z</time><name>295</name><sym>Flag, Blue</sym></wpt><wpt lat="10.364627" lon="123.956401"><ele>39.320877</ele><time>2024-09-19T02:04:58Z</time><name>296</name><sym>Flag, Blue</sym></wpt><wpt lat="10.364609" lon="123.956390"><ele>39.633011</ele><time>2024-09-19T02:05:16Z</time><name>297</name><sym>Flag, Blue</sym></wpt><wpt lat="10.364566" lon="123.956389"><ele>38.563744</ele><time>2024-09-19T02:05:30Z</time><name>298</name><sym>Flag, Blue</sym></wpt><wpt lat="10.364538" lon="123.956392"><ele>38.849926</ele><time>2024-09-19T02:05:48Z</time><name>299</name><sym>Flag, Blue</sym></wpt><wpt lat="10.364533" lon="123.956339"><ele>37.705006</ele><time>2024-09-19T02:06:06Z</time><name>300</name><sym>Flag, Blue</sym></wpt><wpt lat="10.364272" lon="123.956524"><ele>35.683876</ele><time>2024-09-19T02:07:16Z</time><name>301</name><sym>Flag, Blue</sym></wpt><wpt lat="10.364250" lon="123.956540"><ele>36.270851</ele><time>2024-09-19T02:07:33Z</time><name>302</name><sym>Flag, Blue</sym></wpt><wpt lat="10.364257" lon="123.956574"><ele>38.012962</ele><time>2024-09-19T02:07:57Z</time><name>303</name><sym>Flag, Blue</sym></wpt><wpt lat="10.364233" lon="123.956569"><ele>38.732460</ele><time>2024-09-19T02:08:08Z</time><name>304</name><sym>Flag, Blue</sym></wpt><wpt lat="10.364230" lon="123.956577"><ele>38.139946</ele><time>2024-09-19T02:08:21Z</time><name>305</name><sym>Flag, Blue</sym></wpt><wpt lat="10.364231" lon="123.956604"><ele>41.227585</ele><time>2024-09-19T02:08:42Z</time><name>306</name><sym>Flag, Blue</sym></wpt><wpt lat="10.364228" lon="123.956608"><ele>40.148888</ele><time>2024-09-19T02:08:56Z</time><name>307</name><sym>Flag, Blue</sym></wpt><wpt lat="10.364224" lon="123.956592"><ele>38.688015</ele><time>2024-09-19T02:09:03Z</time><name>308</name><sym>Flag, Blue</sym></wpt><wpt lat="10.364219" lon="123.956596"><ele>38.661411</ele><time>2024-09-19T02:09:16Z</time><name>309</name><sym>Flag, Blue</sym></wpt><wpt lat="10.364229" lon="123.956624"><ele>38.309513</ele><time>2024-09-19T02:09:25Z</time><name>310</name><sym>Flag, Blue</sym></wpt><wpt lat="10.364198" lon="123.956603"><ele>37.913013</ele><time>2024-09-19T02:09:43Z</time><name>311</name><sym>Flag, Blue</sym></wpt><wpt lat="10.364215" lon="123.956614"><ele>37.857090</ele><time>2024-09-19T02:09:55Z</time><name>312</name><sym>Flag, Blue</sym></wpt><wpt lat="10.364222" lon="123.956604"><ele>36.170292</ele><time>2024-09-19T02:10:07Z</time><name>313</name><sym>Flag, Blue</sym></wpt><wpt lat="10.364208" lon="123.956596"><ele>35.357502</ele><time>2024-09-19T02:10:19Z</time><name>314</name><sym>Flag, Blue</sym></wpt><wpt lat="10.364221" lon="123.956592"><ele>35.179798</ele><time>2024-09-19T02:10:26Z</time><name>315</name><sym>Flag, Blue</sym></wpt><wpt lat="10.364221" lon="123.956588"><ele>32.974621</ele><time>2024-09-19T02:10:34Z</time><name>316</name><sym>Flag, Blue</sym></wpt><wpt lat="10.364196" lon="123.956593"><ele>36.830669</ele><time>2024-09-19T02:10:51Z</time><name>317</name><sym>Flag, Blue</sym></wpt><wpt lat="10.364192" lon="123.956614"><ele>39.073967</ele><time>2024-09-19T02:10:59Z</time><name>318</name><sym>Flag, Blue</sym></wpt><wpt lat="10.364176" lon="123.956602"><ele>40.841125</ele><time>2024-09-19T02:11:10Z</time><name>319</name><sym>Flag, Blue</sym></wpt><wpt lat="10.364189" lon="123.956572"><ele>42.468941</ele><time>2024-09-19T02:11:24Z</time><name>320</name><sym>Flag, Blue</sym></wpt><wpt lat="10.364154" lon="123.956600"><ele>45.877434</ele><time>2024-09-19T02:11:41Z</time><name>321</name><sym>Flag, Blue</sym></wpt><wpt lat="10.364137" lon="123.956529"><ele>45.422989</ele><time>2024-09-19T02:12:03Z</time><name>322</name><sym>Flag, Blue</sym></wpt><wpt lat="10.364130" lon="123.956531"><ele>45.783012</ele><time>2024-09-19T02:12:09Z</time><name>323</name><sym>Flag, Blue</sym></wpt><wpt lat="10.364121" lon="123.956508"><ele>41.947823</ele><time>2024-09-19T02:12:20Z</time><name>324</name><sym>Flag, Blue</sym></wpt><wpt lat="10.364114" lon="123.956518"><ele>41.696556</ele><time>2024-09-19T02:12:32Z</time><name>325</name><sym>Flag, Blue</sym></wpt><wpt lat="10.364116" lon="123.956512"><ele>40.679985</ele><time>2024-09-19T02:12:45Z</time><name>326</name><sym>Flag, Blue</sym></wpt><wpt lat="10.364123" lon="123.956506"><ele>40.026443</ele><time>2024-09-19T02:12:57Z</time><name>327</name><sym>Flag, Blue</sym></wpt><wpt lat="10.364114" lon="123.956493"><ele>40.590645</ele><time>2024-09-19T02:13:09Z</time><name>328</name><sym>Flag, Blue</sym></wpt><wpt lat="10.364123" lon="123.956471"><ele>39.771172</ele><time>2024-09-19T02:13:18Z</time><name>329</name><sym>Flag, Blue</sym></wpt><wpt lat="10.364117" lon="123.956466"><ele>40.588783</ele><time>2024-09-19T02:13:31Z</time><name>330</name><sym>Flag, Blue</sym></wpt><wpt lat="10.364123" lon="123.956469"><ele>40.942833</ele><time>2024-09-19T02:13:42Z</time><name>331</name><sym>Flag, Blue</sym></wpt><wpt lat="10.364129" lon="123.956494"><ele>41.296021</ele><time>2024-09-19T02:13:51Z</time><name>332</name><sym>Flag, Blue</sym></wpt><wpt lat="10.364145" lon="123.956488"><ele>39.124081</ele><time>2024-09-19T02:14:01Z</time><name>333</name><sym>Flag, Blue</sym></wpt><wpt lat="10.364140" lon="123.956435"><ele>45.930943</ele><time>2024-09-19T02:14:25Z</time><name>334</name><sym>Flag, Blue</sym></wpt><wpt lat="10.364135" lon="123.956428"><ele>48.428219</ele><time>2024-09-19T02:14:33Z</time><name>335</name><sym>Flag, Blue</sym></wpt><wpt lat="10.364180" lon="123.956363"><ele>45.403339</ele><time>2024-09-19T02:14:55Z</time><name>336</name><sym>Flag, Blue</sym></wpt><wpt lat="10.364176" lon="123.956356"><ele>44.924824</ele><time>2024-09-19T02:15:03Z</time><name>337</name><sym>Flag, Blue</sym></wpt><wpt lat="10.364174" lon="123.956378"><ele>44.797398</ele><time>2024-09-19T02:15:14Z</time><name>338</name><sym>Flag, Blue</sym></wpt><wpt lat="10.364187" lon="123.956361"><ele>43.451466</ele><time>2024-09-19T02:15:23Z</time><name>339</name><sym>Flag, Blue</sym></wpt><wpt lat="10.364179" lon="123.956366"><ele>42.861576</ele><time>2024-09-19T02:15:30Z</time><name>340</name><sym>Flag, Blue</sym></wpt><wpt lat="10.364188" lon="123.956351"><ele>43.865070</ele><time>2024-09-19T02:15:41Z</time><name>341</name><sym>Flag, Blue</sym></wpt><wpt lat="10.364179" lon="123.956328"><ele>45.020115</ele><time>2024-09-19T02:15:50Z</time><name>342</name><sym>Flag, Blue</sym></wpt><wpt lat="10.364176" lon="123.956335"><ele>46.970890</ele><time>2024-09-19T02:15:58Z</time><name>343</name><sym>Flag, Blue</sym></wpt><wpt lat="10.364173" lon="123.956350"><ele>49.096138</ele><time>2024-09-19T02:16:19Z</time><name>344</name><sym>Flag, Blue</sym></wpt><wpt lat="10.364191" lon="123.956285"><ele>47.923409</ele><time>2024-09-19T02:16:56Z</time><name>345</name><sym>Flag, Blue</sym></wpt><wpt lat="10.364182" lon="123.956293"><ele>47.506599</ele><time>2024-09-19T02:17:09Z</time><name>346</name><sym>Flag, Blue</sym></wpt><wpt lat="10.364177" lon="123.956283"><ele>47.665550</ele><time>2024-09-19T02:17:16Z</time><name>347</name><sym>Flag, Blue</sym></wpt><wpt lat="10.364162" lon="123.956309"><ele>49.626156</ele><time>2024-09-19T02:17:33Z</time><name>348</name><sym>Flag, Blue</sym></wpt><wpt lat="10.364161" lon="123.956305"><ele>50.540497</ele><time>2024-09-19T02:17:38Z</time><name>349</name><sym>Flag, Blue</sym></wpt><wpt lat="10.364282" lon="123.956259"><ele>44.613911</ele><time>2024-09-19T02:18:19Z</time><name>350</name><sym>Flag, Blue</sym></wpt><wpt lat="10.364285" lon="123.956259"><ele>42.456348</ele><time>2024-09-19T02:18:35Z</time><name>351</name><sym>Flag, Blue</sym></wpt><wpt lat="10.364311" lon="123.956289"><ele>41.373363</ele><time>2024-09-19T02:18:58Z</time><name>352</name><sym>Flag, Blue</sym></wpt><wpt lat="10.364331" lon="123.956285"><ele>40.900116</ele><time>2024-09-19T02:19:09Z</time><name>353</name><sym>Flag, Blue</sym></wpt><wpt lat="10.364332" lon="123.956277"><ele>40.327065</ele><time>2024-09-19T02:19:19Z</time><name>354</name><sym>Flag, Blue</sym></wpt><wpt lat="10.364338" lon="123.956277"><ele>40.913994</ele><time>2024-09-19T02:19:25Z</time><name>355</name><sym>Flag, Blue</sym></wpt><wpt lat="10.364336" lon="123.956262"><ele>42.526588</ele><time>2024-09-19T02:19:35Z</time><name>356</name><sym>Flag, Blue</sym></wpt><wpt lat="10.364338" lon="123.956262"><ele>43.560295</ele><time>2024-09-19T02:19:46Z</time><name>357</name><sym>Flag, Blue</sym></wpt><wpt lat="10.364364" lon="123.956276"><ele>46.258236</ele><time>2024-09-19T02:20:05Z</time><name>358</name><sym>Flag, Blue</sym></wpt><wpt lat="10.364370" lon="123.956257"><ele>46.367306</ele><time>2024-09-19T02:20:19Z</time><name>359</name><sym>Flag, Blue</sym></wpt><wpt lat="10.364342" lon="123.956312"><ele>47.295498</ele><time>2024-09-19T02:20:42Z</time><name>360</name><sym>Flag, Blue</sym></wpt><wpt lat="10.364334" lon="123.956317"><ele>46.254543</ele><time>2024-09-19T02:20:51Z</time><name>361</name><sym>Flag, Blue</sym></wpt><wpt lat="10.364335" lon="123.956323"><ele>46.371384</ele><time>2024-09-19T02:21:01Z</time><name>362</name><sym>Flag, Blue</sym></wpt><wpt lat="10.364348" lon="123.956329"><ele>46.366455</ele><time>2024-09-19T02:21:08Z</time><name>363</name><sym>Flag, Blue</sym></wpt><wpt lat="10.364364" lon="123.956320"><ele>47.034088</ele><time>2024-09-19T02:21:17Z</time><name>364</name><sym>Flag, Blue</sym></wpt><wpt lat="10.364351" lon="123.956300"><ele>47.948395</ele><time>2024-09-19T02:21:25Z</time><name>365</name><sym>Flag, Blue</sym></wpt><wpt lat="10.364351" lon="123.956303"><ele>48.876442</ele><time>2024-09-19T02:21:34Z</time><name>366</name><sym>Flag, Blue</sym></wpt><wpt lat="10.364357" lon="123.956311"><ele>48.173893</ele><time>2024-09-19T02:21:59Z</time><name>367</name><sym>Flag, Blue</sym></wpt><wpt lat="10.364368" lon="123.956315"><ele>48.227985</ele><time>2024-09-19T02:22:07Z</time><name>368</name><sym>Flag, Blue</sym></wpt><wpt lat="10.364385" lon="123.956328"><ele>48.526234</ele><time>2024-09-19T02:22:15Z</time><name>369</name><sym>Flag, Blue</sym></wpt><wpt lat="10.364390" lon="123.956310"><ele>49.465054</ele><time>2024-09-19T02:22:23Z</time><name>370</name><sym>Flag, Blue</sym></wpt><wpt lat="10.364416" lon="123.956289"><ele>48.406551</ele><time>2024-09-19T02:22:37Z</time><name>371</name><sym>Flag, Blue</sym></wpt><wpt lat="10.364432" lon="123.956271"><ele>48.557667</ele><time>2024-09-19T02:22:48Z</time><name>372</name><sym>Flag, Blue</sym></wpt><wpt lat="10.364415" lon="123.956300"><ele>47.864258</ele><time>2024-09-19T02:23:01Z</time><name>373</name><sym>Flag, Blue</sym></wpt><wpt lat="10.364431" lon="123.956303"><ele>40.901405</ele><time>2024-09-19T02:23:12Z</time><name>374</name><sym>Flag, Blue</sym></wpt><wpt lat="10.364443" lon="123.956306"><ele>38.874939</ele><time>2024-09-19T02:23:21Z</time><name>375</name><sym>Flag, Blue</sym></wpt><wpt lat="10.364403" lon="123.956324"><ele>38.384628</ele><time>2024-09-19T02:23:43Z</time><name>376</name><sym>Flag, Blue</sym></wpt><wpt lat="10.364422" lon="123.956318"><ele>36.884216</ele><time>2024-09-19T02:23:52Z</time><name>377</name><sym>Flag, Blue</sym></wpt><wpt lat="10.364412" lon="123.956316"><ele>37.120667</ele><time>2024-09-19T02:24:08Z</time><name>378</name><sym>Flag, Blue</sym></wpt><wpt lat="10.364400" lon="123.956315"><ele>37.188797</ele><time>2024-09-19T02:24:17Z</time><name>379</name><sym>Flag, Blue</sym></wpt><wpt lat="10.364367" lon="123.956316"><ele>36.832405</ele><time>2024-09-19T02:24:32Z</time><name>380</name><sym>Flag, Blue</sym></wpt><wpt lat="10.364353" lon="123.956297"><ele>39.958328</ele><time>2024-09-19T02:24:55Z</time><name>381</name><sym>Flag, Blue</sym></wpt><wpt lat="10.364335" lon="123.956315"><ele>42.398273</ele><time>2024-09-19T02:25:17Z</time><name>382</name><sym>Flag, Blue</sym></wpt><wpt lat="10.364590" lon="123.956316"><ele>38.866154</ele><time>2024-09-19T02:28:21Z</time><name>383</name><sym>Flag, Blue</sym></wpt><wpt lat="10.364571" lon="123.956311"><ele>38.536518</ele><time>2024-09-19T02:28:34Z</time><name>384</name><sym>Flag, Blue</sym></wpt><wpt lat="10.364450" lon="123.956252"><ele>37.859413</ele><time>2024-09-19T02:29:08Z</time><name>385</name><sym>Flag, Blue</sym></wpt><wpt lat="10.364432" lon="123.956238"><ele>38.442558</ele><time>2024-09-19T02:29:26Z</time><name>386</name><sym>Flag, Blue</sym></wpt><wpt lat="10.364428" lon="123.956242"><ele>37.920341</ele><time>2024-09-19T02:29:39Z</time><name>387</name><sym>Flag, Blue</sym></wpt><wpt lat="10.364423" lon="123.956263"><ele>36.900322</ele><time>2024-09-19T02:29:53Z</time><name>388</name><sym>Flag, Blue</sym></wpt><wpt lat="10.364401" lon="123.956248"><ele>36.719971</ele><time>2024-09-19T02:30:07Z</time><name>389</name><sym>Flag, Blue</sym></wpt><wpt lat="10.364410" lon="123.956222"><ele>36.762680</ele><time>2024-09-19T02:30:18Z</time><name>390</name><sym>Flag, Blue</sym></wpt><wpt lat="10.364384" lon="123.956211"><ele>38.443146</ele><time>2024-09-19T02:30:29Z</time><name>391</name><sym>Flag, Blue</sym></wpt><wpt lat="10.364301" lon="123.956203"><ele>40.136162</ele><time>2024-09-19T02:30:52Z</time><name>392</name><sym>Flag, Blue</sym></wpt><wpt lat="10.364280" lon="123.956210"><ele>37.893440</ele><time>2024-09-19T02:31:02Z</time><name>393</name><sym>Flag, Blue</sym></wpt><wpt lat="10.363942" lon="123.956288"><ele>32.286766</ele><time>2024-09-19T02:32:24Z</time><name>394</name><sym>Flag, Blue</sym></wpt><wpt lat="10.363925" lon="123.956343"><ele>32.701256</ele><time>2024-09-19T02:32:52Z</time><name>395</name><sym>Flag, Blue</sym></wpt><wpt lat="10.363927" lon="123.956371"><ele>34.522709</ele><time>2024-09-19T02:33:04Z</time><name>396</name><sym>Flag, Blue</sym></wpt><wpt lat="10.363906" lon="123.956466"><ele>35.093143</ele><time>2024-09-19T02:33:29Z</time><name>397</name><sym>Flag, Blue</sym></wpt><wpt lat="10.363803" lon="123.956774"><ele>29.569099</ele><time>2024-09-19T02:34:24Z</time><name>398</name><sym>Flag, Blue</sym></wpt><wpt lat="10.363915" lon="123.956899"><ele>28.133789</ele><time>2024-09-19T02:34:59Z</time><name>399</name><sym>Flag, Blue</sym></wpt><wpt lat="10.363466" lon="123.956388"><ele>29.098499</ele><time>2024-09-19T02:37:01Z</time><name>400</name><sym>Flag, Blue</sym></wpt><wpt lat="10.363510" lon="123.956233"><ele>25.060032</ele><time>2024-09-19T02:37:30Z</time><name>401</name><sym>Flag, Blue</sym></wpt><wpt lat="10.363642" lon="123.955771"><ele>24.038174</ele><time>2024-09-19T02:39:03Z</time><name>402</name><sym>Flag, Blue</sym></wpt><wpt lat="10.363835" lon="123.955746"><ele>28.929138</ele><time>2024-09-19T02:40:37Z</time><name>403</name><sym>Flag, Blue</sym></wpt><wpt lat="10.364135" lon="123.955669"><ele>30.261528</ele><time>2024-09-19T02:41:37Z</time><name>404</name><sym>Flag, Blue</sym></wpt><wpt lat="10.364347" lon="123.955570"><ele>28.766983</ele><time>2024-09-19T02:42:30Z</time><name>405</name><sym>Flag, Blue</sym></wpt><wpt lat="10.364357" lon="123.955538"><ele>28.291016</ele><time>2024-09-19T02:42:46Z</time><name>406</name><sym>Flag, Blue</sym></wpt><wpt lat="10.364427" lon="123.955492"><ele>29.751186</ele><time>2024-09-19T02:43:12Z</time><name>407</name><sym>Flag, Blue</sym></wpt><wpt lat="10.364410" lon="123.955463"><ele>30.498577</ele><time>2024-09-19T02:43:28Z</time><name>408</name><sym>Flag, Blue</sym></wpt><wpt lat="10.364443" lon="123.955420"><ele>31.374699</ele><time>2024-09-19T02:43:45Z</time><name>409</name><sym>Flag, Blue</sym></wpt><wpt lat="10.364462" lon="123.955383"><ele>31.068798</ele><time>2024-09-19T02:43:59Z</time><name>410</name><sym>Flag, Blue</sym></wpt><wpt lat="10.364465" lon="123.955356"><ele>32.098240</ele><time>2024-09-19T02:44:23Z</time><name>411</name><sym>Flag, Blue</sym></wpt><wpt lat="10.364501" lon="123.955321"><ele>34.850117</ele><time>2024-09-19T02:44:53Z</time><name>412</name><sym>Flag, Blue</sym></wpt><wpt lat="10.364522" lon="123.955286"><ele>36.958065</ele><time>2024-09-19T02:45:09Z</time><name>413</name><sym>Flag, Blue</sym></wpt><wpt lat="10.364551" lon="123.955268"><ele>37.102722</ele><time>2024-09-19T02:45:35Z</time><name>414</name><sym>Flag, Blue</sym></wpt><wpt lat="10.364566" lon="123.955230"><ele>37.205654</ele><time>2024-09-19T02:45:41Z</time><name>415</name><sym>Flag, Blue</sym></wpt><wpt lat="10.364646" lon="123.955144"><ele>36.570820</ele><time>2024-09-19T02:46:05Z</time><name>416</name><sym>Flag, Blue</sym></wpt><wpt lat="10.364743" lon="123.955194"><ele>37.108444</ele><time>2024-09-19T02:46:32Z</time><name>417</name><sym>Flag, Blue</sym></wpt><wpt lat="10.364886" lon="123.955276"><ele>39.855408</ele><time>2024-09-19T02:46:56Z</time><name>418</name><sym>Flag, Blue</sym></wpt><wpt lat="10.364830" lon="123.955378"><ele>38.574154</ele><time>2024-09-19T02:47:32Z</time><name>419</name><sym>Flag, Blue</sym></wpt><wpt lat="10.364793" lon="123.955440"><ele>37.355312</ele><time>2024-09-19T02:47:48Z</time><name>420</name><sym>Flag, Blue</sym></wpt><wpt lat="10.364702" lon="123.955532"><ele>33.721729</ele><time>2024-09-19T02:48:15Z</time><name>421</name><sym>Flag, Blue</sym></wpt><wpt lat="10.364684" lon="123.955630"><ele>26.679440</ele><time>2024-09-19T02:48:46Z</time><name>422</name><sym>Flag, Blue</sym></wpt><wpt lat="10.364691" lon="123.955644"><ele>27.255827</ele><time>2024-09-19T02:48:53Z</time><name>423</name><sym>Flag, Blue</sym></wpt><wpt lat="10.364641" lon="123.955704"><ele>34.685295</ele><time>2024-09-19T02:49:21Z</time><name>424</name><sym>Flag, Blue</sym></wpt><wpt lat="10.364701" lon="123.955877"><ele>31.122250</ele><time>2024-09-19T02:50:23Z</time><name>425</name><sym>Flag, Blue</sym></wpt><wpt lat="10.364682" lon="123.955897"><ele>29.524624</ele><time>2024-09-19T02:50:36Z</time><name>426</name><sym>Flag, Blue</sym></wpt><wpt lat="10.364654" lon="123.955866"><ele>29.735924</ele><time>2024-09-19T02:50:59Z</time><name>427</name><sym>Flag, Blue</sym></wpt><wpt lat="10.364614" lon="123.955835"><ele>30.177814</ele><time>2024-09-19T02:51:14Z</time><name>428</name><sym>Flag, Blue</sym></wpt><wpt lat="10.364582" lon="123.955816"><ele>30.224686</ele><time>2024-09-19T02:51:23Z</time><name>429</name><sym>Flag, Blue</sym></wpt><wpt lat="10.364559" lon="123.955774"><ele>34.026199</ele><time>2024-09-19T02:51:51Z</time><name>430</name><sym>Flag, Blue</sym></wpt><wpt lat="10.364546" lon="123.955732"><ele>33.832874</ele><time>2024-09-19T02:52:31Z</time><name>431</name><sym>Flag, Blue</sym></wpt><wpt lat="10.364468" lon="123.955742"><ele>36.999779</ele><time>2024-09-19T02:54:12Z</time><name>432</name><sym>Flag, Blue</sym></wpt><wpt lat="10.364389" lon="123.955858"><ele>32.140068</ele><time>2024-09-19T02:58:55Z</time><name>433</name><sym>Flag, Blue</sym></wpt><wpt lat="10.364450" lon="123.955871"><ele>34.797005</ele><time>2024-09-19T02:59:42Z</time><name>434</name><sym>Flag, Blue</sym></wpt><wpt lat="10.364457" lon="123.955876"><ele>34.546471</ele><time>2024-09-19T02:59:48Z</time><name>435</name><sym>Flag, Blue</sym></wpt><wpt lat="10.364455" lon="123.955905"><ele>35.322094</ele><time>2024-09-19T03:00:09Z</time><name>436</name><sym>Flag, Blue</sym></wpt><wpt lat="10.364443" lon="123.955897"><ele>34.093616</ele><time>2024-09-19T03:00:20Z</time><name>437</name><sym>Flag, Blue</sym></wpt><wpt lat="10.364485" lon="123.955955"><ele>33.838818</ele><time>2024-09-19T03:00:44Z</time><name>438</name><sym>Flag, Blue</sym></wpt><wpt lat="10.364473" lon="123.955963"><ele>34.166416</ele><time>2024-09-19T03:00:53Z</time><name>439</name><sym>Flag, Blue</sym></wpt><wpt lat="10.364473" lon="123.955936"><ele>33.719540</ele><time>2024-09-19T03:01:00Z</time><name>440</name><sym>Flag, Blue</sym></wpt><wpt lat="10.364466" lon="123.955944"><ele>32.830311</ele><time>2024-09-19T03:01:10Z</time><name>441</name><sym>Flag, Blue</sym></wpt><wpt lat="10.364454" lon="123.955939"><ele>33.619251</ele><time>2024-09-19T03:01:20Z</time><name>442</name><sym>Flag, Blue</sym></wpt><wpt lat="10.364449" lon="123.955930"><ele>32.118961</ele><time>2024-09-19T03:01:29Z</time><name>443</name><sym>Flag, Blue</sym></wpt><wpt lat="10.364459" lon="123.955949"><ele>31.521816</ele><time>2024-09-19T03:01:41Z</time><name>444</name><sym>Flag, Blue</sym></wpt><wpt lat="10.364471" lon="123.955961"><ele>32.583317</ele><time>2024-09-19T03:01:50Z</time><name>445</name><sym>Flag, Blue</sym></wpt><wpt lat="10.364477" lon="123.955991"><ele>31.875431</ele><time>2024-09-19T03:02:08Z</time><name>446</name><sym>Flag, Blue</sym></wpt><wpt lat="10.364440" lon="123.955967"><ele>32.455891</ele><time>2024-09-19T03:02:39Z</time><name>447</name><sym>Flag, Blue</sym></wpt><wpt lat="10.364412" lon="123.955982"><ele>34.627644</ele><time>2024-09-19T03:02:51Z</time><name>448</name><sym>Flag, Blue</sym></wpt><wpt lat="10.364444" lon="123.955952"><ele>34.702740</ele><time>2024-09-19T03:03:03Z</time><name>449</name><sym>Flag, Blue</sym></wpt><wpt lat="10.364615" lon="123.956074"><ele>36.709080</ele><time>2024-09-19T03:04:38Z</time><name>450</name><sym>Flag, Blue</sym></wpt><wpt lat="10.364545" lon="123.956128"><ele>37.715916</ele><time>2024-09-19T03:05:01Z</time><name>451</name><sym>Flag, Blue</sym></wpt><wpt lat="10.364490" lon="123.956151"><ele>36.292774</ele><time>2024-09-19T03:05:30Z</time><name>452</name><sym>Flag, Blue</sym></wpt><wpt lat="10.364472" lon="123.956114"><ele>37.776970</ele><time>2024-09-19T03:06:04Z</time><name>453</name><sym>Flag, Blue</sym></wpt><wpt lat="10.364461" lon="123.956129"><ele>36.568474</ele><time>2024-09-19T03:06:19Z</time><name>454</name><sym>Flag, Blue</sym></wpt><wpt lat="10.365830" lon="123.955214"><ele>35.308193</ele><time>2024-09-19T03:24:01Z</time><name>455</name><sym>Flag, Blue</sym></wpt><wpt lat="10.365829" lon="123.955219"><ele>34.811031</ele><time>2024-09-19T03:24:19Z</time><name>456</name><sym>Flag, Blue</sym></wpt><wpt lat="10.366089" lon="123.955325"><ele>35.860256</ele><time>2024-09-19T03:25:37Z</time><name>457</name><sym>Flag, Blue</sym></wpt><wpt lat="10.366127" lon="123.955338"><ele>36.793987</ele><time>2024-09-19T03:25:51Z</time><name>458</name><sym>Flag, Blue</sym></wpt><wpt lat="10.366120" lon="123.955332"><ele>35.239208</ele><time>2024-09-19T03:26:11Z</time><name>459</name><sym>Flag, Blue</sym></wpt><wpt lat="10.366207" lon="123.955335"><ele>35.197659</ele><time>2024-09-19T03:26:35Z</time><name>460</name><sym>Flag, Blue</sym></wpt><wpt lat="10.366349" lon="123.955199"><ele>36.183529</ele><time>2024-09-19T03:27:20Z</time><name>461</name><sym>Flag, Blue</sym></wpt><wpt lat="10.366600" lon="123.954819"><ele>35.174774</ele><time>2024-09-19T03:28:39Z</time><name>462</name><sym>Flag, Blue</sym></wpt><wpt lat="10.366727" lon="123.954582"><ele>41.151924</ele><time>2024-09-19T03:30:03Z</time><name>463</name><sym>Flag, Blue</sym></wpt><wpt lat="10.366726" lon="123.954569"><ele>41.133690</ele><time>2024-09-19T03:30:17Z</time><name>464</name><sym>Flag, Blue</sym></wpt><wpt lat="10.367107" lon="123.954266"><ele>45.142410</ele><time>2024-09-19T03:32:15Z</time><name>465</name><sym>Flag, Blue</sym></wpt><wpt lat="10.368396" lon="123.953999"><ele>34.531853</ele><time>2024-09-19T03:36:31Z</time><name>466</name><sym>Flag, Blue</sym></wpt><wpt lat="10.368407" lon="123.953986"><ele>36.157005</ele><time>2024-09-19T03:36:50Z</time><name>467</name><sym>Flag, Blue</sym></wpt><wpt lat="10.368453" lon="123.953967"><ele>39.198921</ele><time>2024-09-19T03:37:04Z</time><name>468</name><sym>Flag, Blue</sym></wpt><wpt lat="10.368453" lon="123.953915"><ele>40.728676</ele><time>2024-09-19T03:37:24Z</time><name>469</name><sym>Flag, Blue</sym></wpt><wpt lat="10.368447" lon="123.953853"><ele>40.225822</ele><time>2024-09-19T03:37:43Z</time><name>470</name><sym>Flag, Blue</sym></wpt><wpt lat="10.368345" lon="123.953789"><ele>32.686127</ele><time>2024-09-19T03:39:45Z</time><name>471</name><sym>Flag, Blue</sym></wpt><wpt lat="10.368317" lon="123.953722"><ele>39.749439</ele><time>2024-09-19T03:40:57Z</time><name>472</name><sym>Flag, Blue</sym></wpt><wpt lat="10.368221" lon="123.953724"><ele>41.664570</ele><time>2024-09-19T03:41:26Z</time><name>473</name><sym>Flag, Blue</sym></wpt><wpt lat="10.367942" lon="123.953505"><ele>30.885059</ele><time>2024-09-19T03:42:30Z</time><name>474</name><sym>Flag, Blue</sym></wpt><wpt lat="10.367989" lon="123.953505"><ele>39.312695</ele><time>2024-09-19T03:42:43Z</time><name>475</name><sym>Flag, Blue</sym></wpt><wpt lat="10.367989" lon="123.953458"><ele>39.908314</ele><time>2024-09-19T03:43:01Z</time><name>476</name><sym>Flag, Blue</sym></wpt><wpt lat="10.368022" lon="123.953478"><ele>46.516270</ele><time>2024-09-19T03:43:40Z</time><name>477</name><sym>Flag, Blue</sym></wpt><wpt lat="10.368001" lon="123.953499"><ele>43.186634</ele><time>2024-09-19T03:44:09Z</time><name>478</name><sym>Flag, Blue</sym></wpt><wpt lat="10.368014" lon="123.953435"><ele>40.912998</ele><time>2024-09-19T03:44:25Z</time><name>479</name><sym>Flag, Blue</sym></wpt><wpt lat="10.368047" lon="123.953461"><ele>39.896259</ele><time>2024-09-19T03:44:40Z</time><name>480</name><sym>Flag, Blue</sym></wpt><wpt lat="10.368037" lon="123.953447"><ele>41.744694</ele><time>2024-09-19T03:44:52Z</time><name>481</name><sym>Flag, Blue</sym></wpt><wpt lat="10.368049" lon="123.953441"><ele>42.212654</ele><time>2024-09-19T03:45:07Z</time><name>482</name><sym>Flag, Blue</sym></wpt><wpt lat="10.368052" lon="123.953452"><ele>44.329796</ele><time>2024-09-19T03:45:25Z</time><name>483</name><sym>Flag, Blue</sym></wpt><wpt lat="10.368065" lon="123.953476"><ele>44.708946</ele><time>2024-09-19T03:45:39Z</time><name>484</name><sym>Flag, Blue</sym></wpt><wpt lat="10.368016" lon="123.953506"><ele>43.486576</ele><time>2024-09-19T03:46:03Z</time><name>485</name><sym>Flag, Blue</sym></wpt><wpt lat="10.368054" lon="123.953439"><ele>39.226982</ele><time>2024-09-19T03:47:46Z</time><name>486</name><sym>Flag, Blue</sym></wpt><wpt lat="10.368035" lon="123.953497"><ele>40.218071</ele><time>2024-09-19T03:48:43Z</time><name>487</name><sym>Flag, Blue</sym></wpt><wpt lat="10.368051" lon="123.953506"><ele>41.802910</ele><time>2024-09-19T03:49:02Z</time><name>488</name><sym>Flag, Blue</sym></wpt><wpt lat="10.368141" lon="123.953420"><ele>37.662956</ele><time>2024-09-19T03:49:31Z</time><name>489</name><sym>Flag, Blue</sym></wpt><wpt lat="10.368227" lon="123.953200"><ele>32.007225</ele><time>2024-09-19T03:50:06Z</time><name>490</name><sym>Flag, Blue</sym></wpt><wpt lat="10.368076" lon="123.953449"><ele>35.934315</ele><time>2024-09-19T03:51:22Z</time><name>491</name><sym>Flag, Blue</sym></wpt><wpt lat="10.368097" lon="123.953433"><ele>40.576817</ele><time>2024-09-19T03:51:55Z</time><name>492</name><sym>Flag, Blue</sym></wpt><wpt lat="10.368128" lon="123.953471"><ele>40.400307</ele><time>2024-09-19T03:52:11Z</time><name>493</name><sym>Flag, Blue</sym></wpt><wpt lat="10.368150" lon="123.953462"><ele>38.984856</ele><time>2024-09-19T03:52:31Z</time><name>494</name><sym>Flag, Blue</sym></wpt><wpt lat="10.368142" lon="123.953425"><ele>40.969185</ele><time>2024-09-19T03:52:48Z</time><name>495</name><sym>Flag, Blue</sym></wpt><wpt lat="10.368092" lon="123.953542"><ele>42.915314</ele><time>2024-09-19T03:53:29Z</time><name>496</name><sym>Flag, Blue</sym></wpt><wpt lat="10.368070" lon="123.953566"><ele>41.789539</ele><time>2024-09-19T03:54:07Z</time><name>497</name><sym>Flag, Blue</sym></wpt><wpt lat="10.368090" lon="123.953542"><ele>35.706333</ele><time>2024-09-19T03:54:29Z</time><name>498</name><sym>Flag, Blue</sym></wpt><wpt lat="10.368112" lon="123.953501"><ele>36.602535</ele><time>2024-09-19T03:55:04Z</time><name>499</name><sym>Flag, Blue</sym></wpt><wpt lat="10.368117" lon="123.953527"><ele>32.731411</ele><time>2024-09-19T03:55:17Z</time><name>500</name><sym>Flag, Blue</sym></wpt><wpt lat="10.368129" lon="123.953516"><ele>32.842953</ele><time>2024-09-19T03:55:33Z</time><name>501</name><sym>Flag, Blue</sym></wpt><wpt lat="10.368146" lon="123.953487"><ele>32.847958</ele><time>2024-09-19T03:55:51Z</time><name>502</name><sym>Flag, Blue</sym></wpt><wpt lat="10.368217" lon="123.953493"><time>2024-09-19T05:28:45Z</time><name>503</name><sym>Flag, Blue</sym></wpt><wpt lat="10.367586" lon="123.952458"><ele>25.660320</ele><time>2024-09-19T05:32:10Z</time><name>504</name><sym>Flag, Blue</sym></wpt><wpt lat="10.367540" lon="123.952441"><ele>27.571907</ele><time>2024-09-19T05:32:43Z</time><name>505</name><sym>Flag, Blue</sym></wpt><wpt lat="10.367516" lon="123.952422"><ele>28.734171</ele><time>2024-09-19T05:32:51Z</time><name>506</name><sym>Flag, Blue</sym></wpt><wpt lat="10.367493" lon="123.952378"><ele>31.900192</ele><time>2024-09-19T05:33:03Z</time><name>507</name><sym>Flag, Blue</sym></wpt><wpt lat="10.367483" lon="123.952364"><ele>33.313683</ele><time>2024-09-19T05:33:14Z</time><name>508</name><sym>Flag, Blue</sym></wpt><wpt lat="10.367476" lon="123.952371"><ele>33.713772</ele><time>2024-09-19T05:33:25Z</time><name>509</name><sym>Flag, Blue</sym></wpt><wpt lat="10.367458" lon="123.952350"><ele>33.055721</ele><time>2024-09-19T05:33:41Z</time><name>510</name><sym>Flag, Blue</sym></wpt><wpt lat="10.367310" lon="123.952239"><ele>31.515789</ele><time>2024-09-19T05:34:07Z</time><name>511</name><sym>Flag, Blue</sym></wpt><wpt lat="10.367305" lon="123.952238"><ele>32.873043</ele><time>2024-09-19T05:34:13Z</time><name>512</name><sym>Flag, Blue</sym></wpt><wpt lat="10.367230" lon="123.952203"><ele>35.324429</ele><time>2024-09-19T05:34:58Z</time><name>513</name><sym>Flag, Blue</sym></wpt><wpt lat="10.367058" lon="123.952082"><ele>36.822197</ele><time>2024-09-19T05:35:53Z</time><name>514</name><sym>Flag, Blue</sym></wpt><wpt lat="10.366769" lon="123.951864"><ele>41.130817</ele><time>2024-09-19T05:37:25Z</time><name>515</name><sym>Flag, Blue</sym></wpt><wpt lat="10.366689" lon="123.952105"><ele>39.196953</ele><time>2024-09-19T05:39:05Z</time><name>516</name><sym>Flag, Blue</sym></wpt><wpt lat="10.366587" lon="123.952013"><ele>44.326038</ele><time>2024-09-19T05:40:10Z</time><name>517</name><sym>Flag, Blue</sym></wpt><wpt lat="10.366569" lon="123.952058"><ele>42.302338</ele><time>2024-09-19T05:40:28Z</time><name>518</name><sym>Flag, Blue</sym></wpt><wpt lat="10.367347" lon="123.952750"><ele>49.199650</ele><time>2024-09-19T05:42:56Z</time><name>519</name><sym>Flag, Blue</sym></wpt><wpt lat="10.367346" lon="123.952753"><ele>48.638481</ele><time>2024-09-19T05:43:09Z</time><name>520</name><sym>Flag, Blue</sym></wpt><wpt lat="10.367369" lon="123.952777"><ele>47.431160</ele><time>2024-09-19T05:43:21Z</time><name>521</name><sym>Flag, Blue</sym></wpt><wpt lat="10.367429" lon="123.952850"><ele>44.705956</ele><time>2024-09-19T05:43:42Z</time><name>522</name><sym>Flag, Blue</sym></wpt><wpt lat="10.367465" lon="123.952868"><ele>43.535378</ele><time>2024-09-19T05:43:54Z</time><name>523</name><sym>Flag, Blue</sym></wpt><wpt lat="10.367466" lon="123.952873"><ele>44.297409</ele><time>2024-09-19T05:44:20Z</time><name>524</name><sym>Flag, Blue</sym></wpt><wpt lat="10.367492" lon="123.952888"><ele>45.974182</ele><time>2024-09-19T05:44:27Z</time><name>525</name><sym>Flag, Blue</sym></wpt><wpt lat="10.367500" lon="123.952910"><ele>47.942257</ele><time>2024-09-19T05:44:43Z</time><name>526</name><sym>Flag, Blue</sym></wpt><wpt lat="10.367492" lon="123.952930"><ele>47.462002</ele><time>2024-09-19T05:44:56Z</time><name>527</name><sym>Flag, Blue</sym></wpt><wpt lat="10.367590" lon="123.952996"><ele>50.350983</ele><time>2024-09-19T05:45:24Z</time><name>528</name><sym>Flag, Blue</sym></wpt><wpt lat="10.367119" lon="123.953293"><ele>52.810749</ele><time>2024-09-19T05:47:12Z</time><name>529</name><sym>Flag, Blue</sym></wpt><wpt lat="10.367103" lon="123.953324"><ele>53.461914</ele><time>2024-09-19T05:47:23Z</time><name>530</name><sym>Flag, Blue</sym></wpt><wpt lat="10.366810" lon="123.953664"><ele>48.740673</ele><time>2024-09-19T05:49:09Z</time><name>531</name><sym>Flag, Blue</sym></wpt><wpt lat="10.366862" lon="123.953798"><ele>49.442173</ele><time>2024-09-19T05:50:02Z</time><name>532</name><sym>Flag, Blue</sym></wpt><wpt lat="10.366962" lon="123.953961"><ele>48.441650</ele><time>2024-09-19T05:50:55Z</time><name>533</name><sym>Flag, Blue</sym></wpt><wpt lat="10.367482" lon="123.953187"><ele>46.393467</ele><time>2024-09-19T05:54:37Z</time><name>534</name><sym>Flag, Blue</sym></wpt><wpt lat="10.367479" lon="123.953180"><ele>46.592709</ele><time>2024-09-19T05:54:43Z</time><name>535</name><sym>Flag, Blue</sym></wpt><wpt lat="10.367514" lon="123.953123"><ele>45.862289</ele><time>2024-09-19T05:55:06Z</time><name>536</name><sym>Flag, Blue</sym></wpt><wpt lat="10.367495" lon="123.953001"><ele>43.624718</ele><time>2024-09-19T05:55:45Z</time><name>537</name><sym>Flag, Blue</sym></wpt><wpt lat="10.367332" lon="123.952795"><ele>48.721622</ele><time>2024-09-19T05:57:03Z</time><name>538</name><sym>Flag, Blue</sym></wpt><wpt lat="10.367274" lon="123.952790"><ele>41.892006</ele><time>2024-09-19T05:58:02Z</time><name>539</name><sym>Flag, Blue</sym></wpt><wpt lat="10.367253" lon="123.952737"><ele>44.881969</ele><time>2024-09-19T05:58:24Z</time><name>540</name><sym>Flag, Blue</sym></wpt><wpt lat="10.366568" lon="123.951891"><ele>44.852116</ele><time>2024-09-19T06:02:23Z</time><name>541</name><sym>Flag, Blue</sym></wpt><wpt lat="10.366582" lon="123.951856"><ele>47.238781</ele><time>2024-09-19T06:02:40Z</time><name>542</name><sym>Flag, Blue</sym></wpt><wpt lat="10.366605" lon="123.951831"><ele>47.427784</ele><time>2024-09-19T06:02:54Z</time><name>543</name><sym>Flag, Blue</sym></wpt><wpt lat="10.366569" lon="123.951790"><ele>45.895046</ele><time>2024-09-19T06:03:31Z</time><name>544</name><sym>Flag, Blue</sym></wpt><wpt lat="10.366552" lon="123.951748"><ele>44.274586</ele><time>2024-09-19T06:03:50Z</time><name>545</name><sym>Flag, Blue</sym></wpt><wpt lat="10.366399" lon="123.951643"><ele>41.431648</ele><time>2024-09-19T06:04:49Z</time><name>546</name><sym>Flag, Blue</sym></wpt><wpt lat="10.366400" lon="123.951630"><ele>41.523300</ele><time>2024-09-19T06:04:58Z</time><name>547</name><sym>Flag, Blue</sym></wpt><wpt lat="10.366280" lon="123.951574"><ele>45.054607</ele><time>2024-09-19T06:05:40Z</time><name>548</name><sym>Flag, Blue</sym></wpt><wpt lat="10.366261" lon="123.951553"><ele>45.403065</ele><time>2024-09-19T06:05:53Z</time><name>549</name><sym>Flag, Blue</sym></wpt><wpt lat="10.366237" lon="123.951482"><ele>50.126812</ele><time>2024-09-19T06:06:17Z</time><name>550</name><sym>Flag, Blue</sym></wpt><wpt lat="10.366223" lon="123.951458"><ele>50.751938</ele><time>2024-09-19T06:06:28Z</time><name>551</name><sym>Flag, Blue</sym></wpt><wpt lat="10.366156" lon="123.951408"><ele>53.504562</ele><time>2024-09-19T06:06:54Z</time><name>552</name><sym>Flag, Blue</sym></wpt><wpt lat="10.365885" lon="123.951267"><ele>60.699535</ele><time>2024-09-19T06:08:02Z</time><name>553</name><sym>Flag, Blue</sym></wpt><wpt lat="10.365877" lon="123.951261"><ele>61.979786</ele><time>2024-09-19T06:08:10Z</time><name>554</name><sym>Flag, Blue</sym></wpt><wpt lat="10.365882" lon="123.951249"><ele>61.714230</ele><time>2024-09-19T06:08:17Z</time><name>555</name><sym>Flag, Blue</sym></wpt><wpt lat="10.365033" lon="123.950678"><ele>51.831142</ele><time>2024-09-19T06:11:43Z</time><name>556</name><sym>Flag, Blue</sym></wpt><wpt lat="10.364992" lon="123.950662"><ele>52.083302</ele><time>2024-09-19T06:12:09Z</time><name>557</name><sym>Flag, Blue</sym></wpt><wpt lat="10.364769" lon="123.950500"><ele>52.015312</ele><time>2024-09-19T06:18:44Z</time><name>558</name><sym>Flag, Blue</sym></wpt><wpt lat="10.364749" lon="123.950485"><ele>53.788963</ele><time>2024-09-19T06:18:56Z</time><name>559</name><sym>Flag, Blue</sym></wpt><wpt lat="10.363642" lon="123.950057"><ele>46.146366</ele><time>2024-09-19T06:22:46Z</time><name>560</name><sym>Flag, Blue</sym></wpt><wpt lat="10.363521" lon="123.950014"><ele>43.919498</ele><time>2024-09-19T06:23:16Z</time><name>561</name><sym>Flag, Blue</sym></wpt><wpt lat="10.363377" lon="123.949988"><ele>42.213928</ele><time>2024-09-19T06:23:58Z</time><name>562</name><sym>Flag, Blue</sym></wpt><wpt lat="10.363244" lon="123.949962"><ele>42.249756</ele><time>2024-09-19T06:24:20Z</time><name>563</name><sym>Flag, Blue</sym></wpt><wpt lat="10.363186" lon="123.949963"><ele>42.568371</ele><time>2024-09-19T06:24:32Z</time><name>564</name><sym>Flag, Blue</sym></wpt><wpt lat="10.363105" lon="123.949972"><ele>43.143135</ele><time>2024-09-19T06:25:04Z</time><name>565</name><sym>Flag, Blue</sym></wpt><wpt lat="10.363094" lon="123.949959"><ele>44.268539</ele><time>2024-09-19T06:25:10Z</time><name>566</name><sym>Flag, Blue</sym></wpt><wpt lat="10.363053" lon="123.949926"><ele>46.187206</ele><time>2024-09-19T06:25:35Z</time><name>567</name><sym>Flag, Blue</sym></wpt><wpt lat="10.363056" lon="123.949943"><ele>46.017567</ele><time>2024-09-19T06:25:50Z</time><name>568</name><sym>Flag, Blue</sym></wpt><wpt lat="10.363045" lon="123.949930"><ele>46.310986</ele><time>2024-09-19T06:26:05Z</time><name>569</name><sym>Flag, Blue</sym></wpt><wpt lat="10.363043" lon="123.949929"><ele>47.055721</ele><time>2024-09-19T06:26:18Z</time><name>570</name><sym>Flag, Blue</sym></wpt><wpt lat="10.363044" lon="123.949924"><ele>46.697865</ele><time>2024-09-19T06:26:24Z</time><name>571</name><sym>Flag, Blue</sym></wpt><wpt lat="10.363031" lon="123.949936"><ele>44.687698</ele><time>2024-09-19T06:26:47Z</time><name>572</name><sym>Flag, Blue</sym></wpt><wpt lat="10.363003" lon="123.949940"><ele>44.367191</ele><time>2024-09-19T06:26:56Z</time><name>573</name><sym>Flag, Blue</sym></wpt><wpt lat="10.362983" lon="123.949936"><ele>44.519588</ele><time>2024-09-19T06:27:01Z</time><name>574</name><sym>Flag, Blue</sym></wpt><wpt lat="10.362965" lon="123.949929"><ele>44.111340</ele><time>2024-09-19T06:27:07Z</time><name>575</name><sym>Flag, Blue</sym></wpt></gpx>