<?xml version="1.0" encoding="UTF-8" standalone="no" ?><gpx xmlns="http://www.topografix.com/GPX/1/1" xmlns:gpxx="http://www.garmin.com/xmlschemas/GpxExtensions/v3" xmlns:wptx1="http://www.garmin.com/xmlschemas/WaypointExtension/v1" xmlns:gpxtpx="http://www.garmin.com/xmlschemas/TrackPointExtension/v1" creator="eTrex 22x" version="1.1" xmlns:xsi="http://www.w3.org/2001/XMLSchema-instance" xsi:schemaLocation="http://www.topografix.com/GPX/1/1 http://www.topografix.com/GPX/1/1/gpx.xsd http://www.garmin.com/xmlschemas/GpxExtensions/v3 http://www8.garmin.com/xmlschemas/GpxExtensionsv3.xsd http://www.garmin.com/xmlschemas/TrackStatsExtension/v1 http://www8.garmin.com/xmlschemas/TrackStatsExtension.xsd http://www.garmin.com/xmlschemas/WaypointExtension/v1 http://www8.garmin.com/xmlschemas/WaypointExtensionv1.xsd http://www.garmin.com/xmlschemas/TrackPointExtension/v1 http://www.garmin.com/xmlschemas/TrackPointExtensionv1.xsd"><metadata><link href="http://www.garmin.com"><text>Garmin International</text></link><time>2024-09-20T02:08:46Z</time></metadata><wpt lat="10.368353" lon="123.953448"><ele>45.457439</ele><time>2024-09-20T02:08:46Z</time><name>576</name><sym>Flag, Blue</sym></wpt><wpt lat="10.368288" lon="123.953505"><ele>35.848152</ele><time>2024-09-20T02:10:00Z</time><name>577</name><sym>Flag, Blue</sym></wpt><wpt lat="10.368299" lon="123.953500"><ele>34.749763</ele><time>2024-09-20T02:10:14Z</time><name>578</name><sym>Flag, Blue</sym></wpt><wpt lat="10.368309" lon="123.953506"><ele>33.409462</ele><time>2024-09-20T02:10:26Z</time><name>579</name><sym>Flag, Blue</sym></wpt><wpt lat="10.368318" lon="123.953512"><ele>35.061790</ele><time>2024-09-20T02:10:34Z</time><name>580</name><sym>Flag, Blue</sym></wpt><wpt lat="10.368315" lon="123.953519"><ele>36.517532</ele><time>2024-09-20T02:10:49Z</time><name>581</name><sym>Flag, Blue</sym></wpt><wpt lat="10.368316" lon="123.953518"><ele>36.069832</ele><time>2024-09-20T02:10:58Z</time><name>582</name><sym>Flag, Blue</sym></wpt><wpt lat="10.368319" lon="123.953515"><ele>36.550087</ele><time>2024-09-20T02:11:12Z</time><name>583</name><sym>Flag, Blue</sym></wpt><wpt lat="10.368354" lon="123.953517"><ele>36.961601</ele><time>2024-09-20T02:11:37Z</time><name>584</name><sym>Flag, Blue</sym></wpt><wpt lat="10.368366" lon="123.953509"><ele>36.934311</ele><time>2024-09-20T02:12:03Z</time><name>585</name><sym>Flag, Blue</sym></wpt><wpt lat="10.368373" lon="123.953510"><ele>35.366409</ele><time>2024-09-20T02:12:14Z</time><name>586</name><sym>Flag, Blue</sym></wpt><wpt lat="10.368360" lon="123.953537"><ele>32.180363</ele><time>2024-09-20T02:12:46Z</time><name>587</name><sym>Flag, Blue</sym></wpt><wpt lat="10.368393" lon="123.953531"><ele>32.719082</ele><time>2024-09-20T02:13:07Z</time><name>588</name><sym>Flag, Blue</sym></wpt><wpt lat="10.368453" lon="123.953521"><ele>33.691628</ele><time>2024-09-20T02:13:47Z</time><name>589</name><sym>Flag, Blue</sym></wpt><wpt lat="10.368409" lon="123.953468"><ele>30.672302</ele><time>2024-09-20T02:14:09Z</time><name>590</name><sym>Flag, Blue</sym></wpt><wpt lat="10.368429" lon="123.953421"><ele>30.091667</ele><time>2024-09-20T02:14:29Z</time><name>591</name><sym>Flag, Blue</sym></wpt><wpt lat="10.368468" lon="123.953374"><ele>29.863106</ele><time>2024-09-20T02:14:46Z</time><name>592</name><sym>Flag, Blue</sym></wpt><wpt lat="10.368486" lon="123.953337"><ele>31.904694</ele><time>2024-09-20T02:15:04Z</time><name>593</name><sym>Flag, Blue</sym></wpt><wpt lat="10.368395" lon="123.953449"><ele>28.179840</ele><time>2024-09-20T02:15:32Z</time><name>594</name><sym>Flag, Blue</sym></wpt><wpt lat="10.368382" lon="123.953406"><ele>29.565830</ele><time>2024-09-20T02:15:59Z</time><name>595</name><sym>Flag, Blue</sym></wpt><wpt lat="10.368394" lon="123.953399"><ele>28.824230</ele><time>2024-09-20T02:16:07Z</time><name>596</name><sym>Flag, Blue</sym></wpt><wpt lat="10.368341" lon="123.953405"><ele>30.071423</ele><time>2024-09-20T02:16:31Z</time><name>597</name><sym>Flag, Blue</sym></wpt><wpt lat="10.368332" lon="123.953403"><ele>30.312218</ele><time>2024-09-20T02:16:38Z</time><name>598</name><sym>Flag, Blue</sym></wpt><wpt lat="10.368348" lon="123.953410"><ele>33.544304</ele><time>2024-09-20T02:17:12Z</time><name>599</name><sym>Flag, Blue</sym></wpt><wpt lat="10.368352" lon="123.953404"><ele>32.157799</ele><time>2024-09-20T02:17:23Z</time><name>600</name><sym>Flag, Blue</sym></wpt><wpt lat="10.368348" lon="123.953400"><ele>32.207840</ele><time>2024-09-20T02:17:38Z</time><name>601</name><sym>Flag, Blue</sym></wpt><wpt lat="10.368330" lon="123.953584"><ele>31.638924</ele><time>2024-09-20T02:19:23Z</time><name>602</name><sym>Flag, Blue</sym></wpt><wpt lat="10.368492" lon="123.953717"><ele>30.431179</ele><time>2024-09-20T02:21:11Z</time><name>603</name><sym>Flag, Blue</sym></wpt><wpt lat="10.368488" lon="123.953713"><ele>30.452007</ele><time>2024-09-20T02:21:17Z</time><name>604</name><sym>Flag, Blue</sym></wpt><wpt lat="10.368491" lon="123.953668"><ele>30.721447</ele><time>2024-09-20T02:21:38Z</time><name>605</name><sym>Flag, Blue</sym></wpt><wpt lat="10.368494" lon="123.953587"><ele>29.877453</ele><time>2024-09-20T02:22:10Z</time><name>606</name><sym>Flag, Blue</sym></wpt><wpt lat="10.368523" lon="123.953520"><ele>29.688061</ele><time>2024-09-20T02:22:25Z</time><name>607</name><sym>Flag, Blue</sym></wpt><wpt lat="10.368515" lon="123.953502"><ele>29.597218</ele><time>2024-09-20T02:22:37Z</time><name>608</name><sym>Flag, Blue</sym></wpt><wpt lat="10.368507" lon="123.953497"><ele>29.582561</ele><time>2024-09-20T02:22:44Z</time><name>609</name><sym>Flag, Blue</sym></wpt><wpt lat="10.368541" lon="123.953481"><ele>30.456966</ele><time>2024-09-20T02:23:01Z</time><name>610</name><sym>Flag, Blue</sym></wpt><wpt lat="10.368512" lon="123.953470"><ele>30.205059</ele><time>2024-09-20T02:23:15Z</time><name>611</name><sym>Flag, Blue</sym></wpt><wpt lat="10.368506" lon="123.953447"><ele>30.176250</ele><time>2024-09-20T02:23:24Z</time><name>612</name><sym>Flag, Blue</sym></wpt><wpt lat="10.368507" lon="123.953457"><ele>29.530743</ele><time>2024-09-20T02:23:32Z</time><name>613</name><sym>Flag, Blue</sym></wpt><wpt lat="10.368543" lon="123.953444"><ele>29.779228</ele><time>2024-09-20T02:23:47Z</time><name>614</name><sym>Flag, Blue</sym></wpt><wpt lat="10.368547" lon="123.953428"><ele>31.275917</ele><time>2024-09-20T02:23:58Z</time><name>615</name><sym>Flag, Blue</sym></wpt><wpt lat="10.368571" lon="123.953411"><ele>32.278259</ele><time>2024-09-20T02:24:10Z</time><name>616</name><sym>Flag, Blue</sym></wpt><wpt lat="10.368578" lon="123.953388"><ele>32.240700</ele><time>2024-09-20T02:24:22Z</time><name>617</name><sym>Flag, Blue</sym></wpt><wpt lat="10.368580" lon="123.953373"><ele>31.563782</ele><time>2024-09-20T02:24:33Z</time><name>618</name><sym>Flag, Blue</sym></wpt><wpt lat="10.368578" lon="123.953383"><time>2024-09-20T02:25:55Z</time><name>619</name><sym>Flag, Blue</sym></wpt><wpt lat="10.368607" lon="123.953425"><ele>39.695194</ele><time>2024-09-20T02:26:05Z</time><name>620</name><sym>Flag, Blue</sym></wpt><wpt lat="10.368574" lon="123.953518"><ele>38.888042</ele><time>2024-09-20T02:26:41Z</time><name>621</name><sym>Flag, Blue</sym></wpt><wpt lat="10.369686" lon="123.953096"><ele>26.737923</ele><time>2024-09-20T03:15:06Z</time><name>622</name><sym>Flag, Blue</sym></wpt><wpt lat="10.369680" lon="123.953090"><ele>27.110447</ele><time>2024-09-20T03:15:19Z</time><name>623</name><sym>Flag, Blue</sym></wpt><wpt lat="10.369347" lon="123.953121"><ele>29.377514</ele><time>2024-09-20T03:19:16Z</time><name>624</name><sym>Flag, Blue</sym></wpt><wpt lat="10.369271" lon="123.953118"><ele>29.116096</ele><time>2024-09-20T03:19:33Z</time><name>625</name><sym>Flag, Blue</sym></wpt><wpt lat="10.369266" lon="123.953110"><ele>28.940205</ele><time>2024-09-20T03:19:39Z</time><name>626</name><sym>Flag, Blue</sym></wpt><wpt lat="10.369046" lon="123.953070"><ele>28.312733</ele><time>2024-09-20T03:20:35Z</time><name>627</name><sym>Flag, Blue</sym></wpt><wpt lat="10.369010" lon="123.953072"><ele>29.450825</ele><time>2024-09-20T03:20:51Z</time><name>628</name><sym>Flag, Blue</sym></wpt><wpt lat="10.368968" lon="123.953057"><ele>30.045460</ele><time>2024-09-20T03:21:07Z</time><name>629</name><sym>Flag, Blue</sym></wpt><wpt lat="10.368813" lon="123.953026"><ele>27.985718</ele><time>2024-09-20T03:21:39Z</time><name>630</name><sym>Flag, Blue</sym></wpt><wpt lat="10.368554" lon="123.952893"><ele>29.270218</ele><time>2024-09-20T03:22:26Z</time><name>631</name><sym>Flag, Blue</sym></wpt><wpt lat="10.368521" lon="123.952868"><ele>28.728119</ele><time>2024-09-20T03:22:47Z</time><name>632</name><sym>Flag, Blue</sym></wpt><wpt lat="10.368378" lon="123.952785"><ele>30.213303</ele><time>2024-09-20T03:23:39Z</time><name>633</name><sym>Flag, Blue</sym></wpt><wpt lat="10.368378" lon="123.952784"><ele>29.516991</ele><time>2024-09-20T03:23:44Z</time><name>634</name><sym>Flag, Blue</sym></wpt><wpt lat="10.368290" lon="123.952700"><ele>29.843262</ele><time>2024-09-20T03:24:11Z</time><name>635</name><sym>Flag, Blue</sym></wpt><wpt lat="10.368291" lon="123.952693"><ele>30.367039</ele><time>2024-09-20T03:24:25Z</time><name>636</name><sym>Flag, Blue</sym></wpt><wpt lat="10.368127" lon="123.952610"><ele>30.082829</ele><time>2024-09-20T03:24:57Z</time><name>637</name><sym>Flag, Blue</sym></wpt><wpt lat="10.367984" lon="123.952510"><ele>32.128944</ele><time>2024-09-20T03:25:34Z</time><name>638</name><sym>Flag, Blue</sym></wpt><wpt lat="10.367717" lon="123.952382"><ele>35.262177</ele><time>2024-09-20T03:27:22Z</time><name>639</name><sym>Flag, Blue</sym></wpt><wpt lat="10.367611" lon="123.952306"><ele>40.244614</ele><time>2024-09-20T03:29:27Z</time><name>640</name><sym>Flag, Blue</sym></wpt><wpt lat="10.367588" lon="123.952273"><ele>40.830963</ele><time>2024-09-20T03:29:47Z</time><name>641</name><sym>Flag, Blue</sym></wpt><wpt lat="10.366919" lon="123.951852"><ele>44.651588</ele><time>2024-09-20T03:33:07Z</time><name>642</name><sym>Flag, Blue</sym></wpt></gpx>