<?xml version="1.0" encoding="UTF-8" standalone="no" ?><gpx xmlns="http://www.topografix.com/GPX/1/1" xmlns:gpxx="http://www.garmin.com/xmlschemas/GpxExtensions/v3" xmlns:wptx1="http://www.garmin.com/xmlschemas/WaypointExtension/v1" xmlns:gpxtpx="http://www.garmin.com/xmlschemas/TrackPointExtension/v1" creator="eTrex 22x" version="1.1" xmlns:xsi="http://www.w3.org/2001/XMLSchema-instance" xsi:schemaLocation="http://www.topografix.com/GPX/1/1 http://www.topografix.com/GPX/1/1/gpx.xsd http://www.garmin.com/xmlschemas/GpxExtensions/v3 http://www8.garmin.com/xmlschemas/GpxExtensionsv3.xsd http://www.garmin.com/xmlschemas/TrackStatsExtension/v1 http://www8.garmin.com/xmlschemas/TrackStatsExtension.xsd http://www.garmin.com/xmlschemas/WaypointExtension/v1 http://www8.garmin.com/xmlschemas/WaypointExtensionv1.xsd http://www.garmin.com/xmlschemas/TrackPointExtension/v1 http://www.garmin.com/xmlschemas/TrackPointExtensionv1.xsd"><metadata><link href="http://www.garmin.com"><text>Garmin International</text></link><time>2024-09-04T01:24:45Z</time></metadata><wpt lat="10.365091" lon="123.942745"><ele>10.795414</ele><time>2024-09-04T01:24:45Z</time><name>1383</name><sym>Flag, Blue</sym></wpt><wpt lat="10.365021" lon="123.942952"><ele>19.607914</ele><time>2024-09-04T01:26:10Z</time><name>1384</name><sym>Flag, Blue</sym></wpt><wpt lat="10.365095" lon="123.942697"><ele>26.072075</ele><time>2024-09-04T01:27:01Z</time><name>1385</name><sym>Flag, Blue</sym></wpt><wpt lat="10.365340" lon="123.942662"><ele>23.774536</ele><time>2024-09-04T01:27:46Z</time><name>1386</name><sym>Flag, Blue</sym></wpt><wpt lat="10.365451" lon="123.942640"><ele>30.872028</ele><time>2024-09-04T01:28:40Z</time><name>1387</name><sym>Flag, Blue</sym></wpt><wpt lat="10.365480" lon="123.942668"><ele>33.054890</ele><time>2024-09-04T01:28:56Z</time><name>1388</name><sym>Flag, Blue</sym></wpt><wpt lat="10.365472" lon="123.942657"><ele>35.358624</ele><time>2024-09-04T01:29:13Z</time><name>1389</name><sym>Flag, Blue</sym></wpt><wpt lat="10.365480" lon="123.942678"><ele>35.588490</ele><time>2024-09-04T01:29:46Z</time><name>1390</name><sym>Flag, Blue</sym></wpt><wpt lat="10.365489" lon="123.942680"><ele>33.908360</ele><time>2024-09-04T01:29:55Z</time><name>1391</name><sym>Flag, Blue</sym></wpt><wpt lat="10.365591" lon="123.942635"><ele>33.262531</ele><time>2024-09-04T01:30:18Z</time><name>1392</name><sym>Flag, Blue</sym></wpt><wpt lat="10.365595" lon="123.942645"><ele>33.669289</ele><time>2024-09-04T01:30:33Z</time><name>1393</name><sym>Flag, Blue</sym></wpt><wpt lat="10.365633" lon="123.942664"><ele>33.792084</ele><time>2024-09-04T01:30:51Z</time><name>1394</name><sym>Flag, Blue</sym></wpt><wpt lat="10.365639" lon="123.942666"><ele>34.313240</ele><time>2024-09-04T01:30:59Z</time><name>1395</name><sym>Flag, Blue</sym></wpt><wpt lat="10.365693" lon="123.942645"><ele>34.273338</ele><time>2024-09-04T01:31:19Z</time><name>1396</name><sym>Flag, Blue</sym></wpt><wpt lat="10.365760" lon="123.942663"><ele>34.230549</ele><time>2024-09-04T01:31:47Z</time><name>1397</name><sym>Flag, Blue</sym></wpt><wpt lat="10.365770" lon="123.942668"><ele>34.249393</ele><time>2024-09-04T01:31:59Z</time><name>1398</name><sym>Flag, Blue</sym></wpt><wpt lat="10.365768" lon="123.942703"><ele>33.464554</ele><time>2024-09-04T01:32:23Z</time><name>1399</name><sym>Flag, Blue</sym></wpt><wpt lat="10.365760" lon="123.942699"><ele>33.327797</ele><time>2024-09-04T01:32:44Z</time><name>1400</name><sym>Flag, Blue</sym></wpt><wpt lat="10.365866" lon="123.942703"><ele>36.749683</ele><time>2024-09-04T01:34:28Z</time><name>1401</name><sym>Flag, Blue</sym></wpt><wpt lat="10.365930" lon="123.942711"><ele>34.800007</ele><time>2024-09-04T01:35:04Z</time><name>1402</name><sym>Flag, Blue</sym></wpt><wpt lat="10.365966" lon="123.942658"><ele>35.617901</ele><time>2024-09-04T01:35:28Z</time><name>1403</name><sym>Flag, Blue</sym></wpt><wpt lat="10.366033" lon="123.942666"><ele>34.950245</ele><time>2024-09-04T01:36:05Z</time><name>1404</name><sym>Flag, Blue</sym></wpt><wpt lat="10.366122" lon="123.942720"><ele>33.580566</ele><time>2024-09-04T01:36:44Z</time><name>1405</name><sym>Flag, Blue</sym></wpt><wpt lat="10.366125" lon="123.942703"><ele>35.132225</ele><time>2024-09-04T01:37:09Z</time><name>1406</name><sym>Flag, Blue</sym></wpt><wpt lat="10.366140" lon="123.942691"><ele>35.013519</ele><time>2024-09-04T01:37:20Z</time><name>1407</name><sym>Flag, Blue</sym></wpt><wpt lat="10.366163" lon="123.942683"><ele>33.832375</ele><time>2024-09-04T01:38:03Z</time><name>1408</name><sym>Flag, Blue</sym></wpt><wpt lat="10.366151" lon="123.942716"><ele>33.715080</ele><time>2024-09-04T01:38:19Z</time><name>1409</name><sym>Flag, Blue</sym></wpt><wpt lat="10.366210" lon="123.942710"><ele>34.236408</ele><time>2024-09-04T01:38:35Z</time><name>1410</name><sym>Flag, Blue</sym></wpt><wpt lat="10.366264" lon="123.942709"><ele>34.016041</ele><time>2024-09-04T01:38:49Z</time><name>1411</name><sym>Flag, Blue</sym></wpt><wpt lat="10.366313" lon="123.942697"><ele>33.887749</ele><time>2024-09-04T01:39:37Z</time><name>1412</name><sym>Flag, Blue</sym></wpt><wpt lat="10.366505" lon="123.942728"><ele>29.503456</ele><time>2024-09-04T01:40:11Z</time><name>1413</name><sym>Flag, Blue</sym></wpt><wpt lat="10.366541" lon="123.942639"><ele>31.272411</ele><time>2024-09-04T01:40:40Z</time><name>1414</name><sym>Flag, Blue</sym></wpt><wpt lat="10.366531" lon="123.942596"><ele>30.325207</ele><time>2024-09-04T01:40:59Z</time><name>1415</name><sym>Flag, Blue</sym></wpt><wpt lat="10.366506" lon="123.942424"><ele>30.542305</ele><time>2024-09-04T01:41:28Z</time><name>1416</name><sym>Flag, Blue</sym></wpt><wpt lat="10.366513" lon="123.942397"><ele>30.709343</ele><time>2024-09-04T01:41:37Z</time><name>1417</name><sym>Flag, Blue</sym></wpt><wpt lat="10.366520" lon="123.942365"><ele>31.081184</ele><time>2024-09-04T01:41:48Z</time><name>1418</name><sym>Flag, Blue</sym></wpt><wpt lat="10.366537" lon="123.942349"><ele>31.637123</ele><time>2024-09-04T01:42:04Z</time><name>1419</name><sym>Flag, Blue</sym></wpt><wpt lat="10.366574" lon="123.942753"><ele>32.182747</ele><time>2024-09-04T01:44:00Z</time><name>1420</name><sym>Flag, Blue</sym></wpt><wpt lat="10.366724" lon="123.942654"><ele>26.634651</ele><time>2024-09-04T01:44:39Z</time><name>1421</name><sym>Flag, Blue</sym></wpt><wpt lat="10.366828" lon="123.942656"><ele>31.517853</ele><time>2024-09-04T01:45:03Z</time><name>1422</name><sym>Flag, Blue</sym></wpt><wpt lat="10.366891" lon="123.942651"><ele>33.959824</ele><time>2024-09-04T01:45:26Z</time><name>1423</name><sym>Flag, Blue</sym></wpt><wpt lat="10.366964" lon="123.942655"><ele>33.998154</ele><time>2024-09-04T01:45:43Z</time><name>1424</name><sym>Flag, Blue</sym></wpt><wpt lat="10.367004" lon="123.942652"><ele>32.549896</ele><time>2024-09-04T01:45:59Z</time><name>1425</name><sym>Flag, Blue</sym></wpt><wpt lat="10.367065" lon="123.942631"><ele>34.337574</ele><time>2024-09-04T01:46:28Z</time><name>1426</name><sym>Flag, Blue</sym></wpt><wpt lat="10.367119" lon="123.942626"><ele>33.526356</ele><time>2024-09-04T01:46:54Z</time><name>1427</name><sym>Flag, Blue</sym></wpt><wpt lat="10.367149" lon="123.942636"><ele>35.110760</ele><time>2024-09-04T01:47:46Z</time><name>1428</name><sym>Flag, Blue</sym></wpt><wpt lat="10.367164" lon="123.942642"><ele>35.497585</ele><time>2024-09-04T01:48:10Z</time><name>1429</name><sym>Flag, Blue</sym></wpt><wpt lat="10.367224" lon="123.942615"><ele>36.280403</ele><time>2024-09-04T01:48:33Z</time><name>1430</name><sym>Flag, Blue</sym></wpt><wpt lat="10.367247" lon="123.942616"><ele>35.783936</ele><time>2024-09-04T01:48:45Z</time><name>1431</name><sym>Flag, Blue</sym></wpt><wpt lat="10.367248" lon="123.942620"><ele>35.804466</ele><time>2024-09-04T01:48:52Z</time><name>1432</name><sym>Flag, Blue</sym></wpt><wpt lat="10.367266" lon="123.942687"><ele>35.841785</ele><time>2024-09-04T01:49:28Z</time><name>1433</name><sym>Flag, Blue</sym></wpt><wpt lat="10.367406" lon="123.942528"><ele>35.349163</ele><time>2024-09-04T01:50:23Z</time><name>1434</name><sym>Flag, Blue</sym></wpt><wpt lat="10.367426" lon="123.942527"><ele>37.484711</ele><time>2024-09-04T01:50:34Z</time><name>1435</name><sym>Flag, Blue</sym></wpt><wpt lat="10.367451" lon="123.942498"><ele>38.012657</ele><time>2024-09-04T01:50:55Z</time><name>1436</name><sym>Flag, Blue</sym></wpt><wpt lat="10.367488" lon="123.942481"><ele>39.446442</ele><time>2024-09-04T01:51:06Z</time><name>1437</name><sym>Flag, Blue</sym></wpt><wpt lat="10.367539" lon="123.942442"><ele>42.003132</ele><time>2024-09-04T01:51:38Z</time><name>1438</name><sym>Flag, Blue</sym></wpt><wpt lat="10.367532" lon="123.942426"><ele>43.478405</ele><time>2024-09-04T01:51:52Z</time><name>1439</name><sym>Flag, Blue</sym></wpt><wpt lat="10.367550" lon="123.942416"><ele>43.435207</ele><time>2024-09-04T01:52:07Z</time><name>1440</name><sym>Flag, Blue</sym></wpt><wpt lat="10.367617" lon="123.942432"><ele>40.331013</ele><time>2024-09-04T01:52:38Z</time><name>1441</name><sym>Flag, Blue</sym></wpt><wpt lat="10.367619" lon="123.942374"><ele>42.160076</ele><time>2024-09-04T01:53:03Z</time><name>1442</name><sym>Flag, Blue</sym></wpt><wpt lat="10.367684" lon="123.942263"><ele>39.016365</ele><time>2024-09-04T01:53:24Z</time><name>1443</name><sym>Flag, Blue</sym></wpt><wpt lat="10.367713" lon="123.942211"><ele>37.873894</ele><time>2024-09-04T01:53:37Z</time><name>1444</name><sym>Flag, Blue</sym></wpt><wpt lat="10.367787" lon="123.942179"><ele>38.185799</ele><time>2024-09-04T01:54:03Z</time><name>1445</name><sym>Flag, Blue</sym></wpt><wpt lat="10.367765" lon="123.942145"><ele>39.863144</ele><time>2024-09-04T01:54:13Z</time><name>1446</name><sym>Flag, Blue</sym></wpt><wpt lat="10.367829" lon="123.942034"><ele>40.742527</ele><time>2024-09-04T01:54:42Z</time><name>1447</name><sym>Flag, Blue</sym></wpt><wpt lat="10.367869" lon="123.941906"><ele>40.263340</ele><time>2024-09-04T01:55:15Z</time><name>1448</name><sym>Flag, Blue</sym></wpt><wpt lat="10.367888" lon="123.941671"><ele>38.891773</ele><time>2024-09-04T01:56:03Z</time><name>1449</name><sym>Flag, Blue</sym></wpt><wpt lat="10.367919" lon="123.941632"><ele>39.460934</ele><time>2024-09-04T01:56:14Z</time><name>1450</name><sym>Flag, Blue</sym></wpt><wpt lat="10.367938" lon="123.941595"><ele>40.035172</ele><time>2024-09-04T01:56:26Z</time><name>1451</name><sym>Flag, Blue</sym></wpt><wpt lat="10.367966" lon="123.941554"><ele>40.140747</ele><time>2024-09-04T01:56:48Z</time><name>1452</name><sym>Flag, Blue</sym></wpt><wpt lat="10.367983" lon="123.941517"><ele>39.399132</ele><time>2024-09-04T01:56:59Z</time><name>1453</name><sym>Flag, Blue</sym></wpt><wpt lat="10.368059" lon="123.941479"><ele>37.201790</ele><time>2024-09-04T01:58:21Z</time><name>1454</name><sym>Flag, Blue</sym></wpt><wpt lat="10.368058" lon="123.941472"><ele>37.529079</ele><time>2024-09-04T01:58:29Z</time><name>1455</name><sym>Flag, Blue</sym></wpt><wpt lat="10.368072" lon="123.941446"><ele>36.484325</ele><time>2024-09-04T01:59:04Z</time><name>1456</name><sym>Flag, Blue</sym></wpt><wpt lat="10.368071" lon="123.941441"><ele>36.757210</ele><time>2024-09-04T01:59:35Z</time><name>1457</name><sym>Flag, Blue</sym></wpt><wpt lat="10.368125" lon="123.941378"><ele>36.757462</ele><time>2024-09-04T02:00:10Z</time><name>1458</name><sym>Flag, Blue</sym></wpt><wpt lat="10.368101" lon="123.941364"><ele>37.727715</ele><time>2024-09-04T02:00:34Z</time><name>1459</name><sym>Flag, Blue</sym></wpt><wpt lat="10.368058" lon="123.941402"><ele>38.013458</ele><time>2024-09-04T02:00:50Z</time><name>1460</name><sym>Flag, Blue</sym></wpt><wpt lat="10.368094" lon="123.941364"><ele>39.789597</ele><time>2024-09-04T02:01:05Z</time><name>1461</name><sym>Flag, Blue</sym></wpt><wpt lat="10.368123" lon="123.941343"><ele>39.027321</ele><time>2024-09-04T02:01:19Z</time><name>1462</name><sym>Flag, Blue</sym></wpt><wpt lat="10.368163" lon="123.941320"><ele>38.418827</ele><time>2024-09-04T02:01:35Z</time><name>1463</name><sym>Flag, Blue</sym></wpt><wpt lat="10.368203" lon="123.941303"><ele>39.216694</ele><time>2024-09-04T02:01:52Z</time><name>1464</name><sym>Flag, Blue</sym></wpt><wpt lat="10.368378" lon="123.941179"><ele>36.359585</ele><time>2024-09-04T02:02:25Z</time><name>1465</name><sym>Flag, Blue</sym></wpt><wpt lat="10.368734" lon="123.940959"><ele>35.666348</ele><time>2024-09-04T02:03:24Z</time><name>1466</name><sym>Flag, Blue</sym></wpt><wpt lat="10.368758" lon="123.940953"><ele>37.783581</ele><time>2024-09-04T02:03:38Z</time><name>1467</name><sym>Flag, Blue</sym></wpt><wpt lat="10.368903" lon="123.940878"><ele>35.283394</ele><time>2024-09-04T02:04:18Z</time><name>1468</name><sym>Flag, Blue</sym></wpt><wpt lat="10.368928" lon="123.940831"><ele>36.630684</ele><time>2024-09-04T02:04:45Z</time><name>1469</name><sym>Flag, Blue</sym></wpt><wpt lat="10.369298" lon="123.940706"><ele>40.666161</ele><time>2024-09-04T02:05:59Z</time><name>1470</name><sym>Flag, Blue</sym></wpt><wpt lat="10.369437" lon="123.940658"><ele>40.338993</ele><time>2024-09-04T02:06:25Z</time><name>1471</name><sym>Flag, Blue</sym></wpt><wpt lat="10.369463" lon="123.940648"><ele>40.282635</ele><time>2024-09-04T02:06:38Z</time><name>1472</name><sym>Flag, Blue</sym></wpt><wpt lat="10.369742" lon="123.940523"><ele>41.259117</ele><time>2024-09-04T02:07:36Z</time><name>1473</name><sym>Flag, Blue</sym></wpt><wpt lat="10.369748" lon="123.940523"><ele>41.258659</ele><time>2024-09-04T02:07:47Z</time><name>1474</name><sym>Flag, Blue</sym></wpt><wpt lat="10.369771" lon="123.940474"><ele>41.181099</ele><time>2024-09-04T02:08:04Z</time><name>1475</name><sym>Flag, Blue</sym></wpt><wpt lat="10.369793" lon="123.940494"><ele>41.238861</ele><time>2024-09-04T02:08:31Z</time><name>1476</name><sym>Flag, Blue</sym></wpt><wpt lat="10.369866" lon="123.940436"><ele>41.402496</ele><time>2024-09-04T02:08:56Z</time><name>1477</name><sym>Flag, Blue</sym></wpt><wpt lat="10.369961" lon="123.940413"><ele>43.990814</ele><time>2024-09-04T02:09:37Z</time><name>1478</name><sym>Flag, Blue</sym></wpt><wpt lat="10.370005" lon="123.940398"><ele>44.211853</ele><time>2024-09-04T02:09:51Z</time><name>1479</name><sym>Flag, Blue</sym></wpt><wpt lat="10.370028" lon="123.940377"><ele>43.857582</ele><time>2024-09-04T02:10:09Z</time><name>1480</name><sym>Flag, Blue</sym></wpt><wpt lat="10.370333" lon="123.940241"><ele>41.452572</ele><time>2024-09-04T02:11:09Z</time><name>1481</name><sym>Flag, Blue</sym></wpt><wpt lat="10.370417" lon="123.940123"><ele>51.931286</ele><time>2024-09-04T02:13:48Z</time><name>1482</name><sym>Flag, Blue</sym></wpt><wpt lat="10.370422" lon="123.940072"><ele>52.074379</ele><time>2024-09-04T02:14:11Z</time><name>1483</name><sym>Flag, Blue</sym></wpt><wpt lat="10.370513" lon="123.940048"><ele>50.985207</ele><time>2024-09-04T02:14:44Z</time><name>1484</name><sym>Flag, Blue</sym></wpt><wpt lat="10.370537" lon="123.939997"><ele>49.864967</ele><time>2024-09-04T02:14:58Z</time><name>1485</name><sym>Flag, Blue</sym></wpt><wpt lat="10.370550" lon="123.939977"><ele>51.365776</ele><time>2024-09-04T02:15:11Z</time><name>1486</name><sym>Flag, Blue</sym></wpt><wpt lat="10.370586" lon="123.939969"><ele>51.960899</ele><time>2024-09-04T02:15:22Z</time><name>1487</name><sym>Flag, Blue</sym></wpt><wpt lat="10.370893" lon="123.939547"><ele>56.992466</ele><time>2024-09-04T02:16:54Z</time><name>1488</name><sym>Flag, Blue</sym></wpt><wpt lat="10.370945" lon="123.939376"><ele>55.564503</ele><time>2024-09-04T02:17:32Z</time><name>1489</name><sym>Flag, Blue</sym></wpt><wpt lat="10.370941" lon="123.939357"><ele>55.720356</ele><time>2024-09-04T02:17:43Z</time><name>1490</name><sym>Flag, Blue</sym></wpt><wpt lat="10.370969" lon="123.939365"><ele>57.232777</ele><time>2024-09-04T02:17:54Z</time><name>1491</name><sym>Flag, Blue</sym></wpt><wpt lat="10.370988" lon="123.939336"><ele>58.881092</ele><time>2024-09-04T02:18:19Z</time><name>1492</name><sym>Flag, Blue</sym></wpt><wpt lat="10.370987" lon="123.939324"><ele>57.950310</ele><time>2024-09-04T02:18:29Z</time><name>1493</name><sym>Flag, Blue</sym></wpt><wpt lat="10.371037" lon="123.939339"><ele>58.547379</ele><time>2024-09-04T02:18:51Z</time><name>1494</name><sym>Flag, Blue</sym></wpt><wpt lat="10.371051" lon="123.939232"><ele>62.386497</ele><time>2024-09-04T02:19:17Z</time><name>1495</name><sym>Flag, Blue</sym></wpt><wpt lat="10.371303" lon="123.939027"><ele>56.952244</ele><time>2024-09-04T02:38:06Z</time><name>1496</name><sym>Flag, Blue</sym></wpt><wpt lat="10.371398" lon="123.939126"><ele>58.126308</ele><time>2024-09-04T02:38:30Z</time><name>1497</name><sym>Flag, Blue</sym></wpt><wpt lat="10.371423" lon="123.939156"><ele>61.657619</ele><time>2024-09-04T02:38:48Z</time><name>1498</name><sym>Flag, Blue</sym></wpt><wpt lat="10.371430" lon="123.939203"><ele>64.123184</ele><time>2024-09-04T02:39:01Z</time><name>1499</name><sym>Flag, Blue</sym></wpt><wpt lat="10.371514" lon="123.939323"><ele>63.159054</ele><time>2024-09-04T02:39:26Z</time><name>1500</name><sym>Flag, Blue</sym></wpt><wpt lat="10.371637" lon="123.939455"><ele>58.807240</ele><time>2024-09-04T02:39:55Z</time><name>1501</name><sym>Flag, Blue</sym></wpt><wpt lat="10.371731" lon="123.939596"><ele>57.128582</ele><time>2024-09-04T02:40:23Z</time><name>1502</name><sym>Flag, Blue</sym></wpt><wpt lat="10.371775" lon="123.939717"><ele>56.146252</ele><time>2024-09-04T02:40:50Z</time><name>1503</name><sym>Flag, Blue</sym></wpt><wpt lat="10.371808" lon="123.939752"><ele>54.541180</ele><time>2024-09-04T02:41:05Z</time><name>1504</name><sym>Flag, Blue</sym></wpt><wpt lat="10.371741" lon="123.939746"><ele>51.913044</ele><time>2024-09-04T02:41:30Z</time><name>1505</name><sym>Flag, Blue</sym></wpt><wpt lat="10.371738" lon="123.939767"><ele>54.510487</ele><time>2024-09-04T02:41:41Z</time><name>1506</name><sym>Flag, Blue</sym></wpt><wpt lat="10.371877" lon="123.939835"><ele>52.478153</ele><time>2024-09-04T02:42:05Z</time><name>1507</name><sym>Flag, Blue</sym></wpt><wpt lat="10.371951" lon="123.939948"><ele>49.548069</ele><time>2024-09-04T02:42:39Z</time><name>1508</name><sym>Flag, Blue</sym></wpt><wpt lat="10.371960" lon="123.939957"><ele>47.652485</ele><time>2024-09-04T02:42:48Z</time><name>1509</name><sym>Flag, Blue</sym></wpt><wpt lat="10.371419" lon="123.939252"><ele>59.553429</ele><time>2024-09-04T02:45:27Z</time><name>1510</name><sym>Flag, Blue</sym></wpt><wpt lat="10.371166" lon="123.938989"><ele>49.564217</ele><time>2024-09-04T02:46:21Z</time><name>1511</name><sym>Flag, Blue</sym></wpt><wpt lat="10.371173" lon="123.938974"><ele>50.564232</ele><time>2024-09-04T02:46:37Z</time><name>1512</name><sym>Flag, Blue</sym></wpt><wpt lat="10.371209" lon="123.938878"><ele>51.928215</ele><time>2024-09-04T02:46:59Z</time><name>1513</name><sym>Flag, Blue</sym></wpt><wpt lat="10.371170" lon="123.938880"><ele>53.347260</ele><time>2024-09-04T02:47:20Z</time><name>1514</name><sym>Flag, Blue</sym></wpt><wpt lat="10.371286" lon="123.938566"><ele>58.475986</ele><time>2024-09-04T02:48:12Z</time><name>1515</name><sym>Flag, Blue</sym></wpt><wpt lat="10.371210" lon="123.938521"><ele>57.902885</ele><time>2024-09-04T02:48:35Z</time><name>1516</name><sym>Flag, Blue</sym></wpt><wpt lat="10.371250" lon="123.938425"><ele>57.670654</ele><time>2024-09-04T02:48:53Z</time><name>1517</name><sym>Flag, Blue</sym></wpt><wpt lat="10.371403" lon="123.938250"><ele>61.520008</ele><time>2024-09-04T02:49:24Z</time><name>1518</name><sym>Flag, Blue</sym></wpt><wpt lat="10.371398" lon="123.938210"><ele>60.630054</ele><time>2024-09-04T02:49:36Z</time><name>1519</name><sym>Flag, Blue</sym></wpt><wpt lat="10.371436" lon="123.938116"><ele>57.940731</ele><time>2024-09-04T02:49:55Z</time><name>1520</name><sym>Flag, Blue</sym></wpt><wpt lat="10.371457" lon="123.938083"><ele>54.740818</ele><time>2024-09-04T02:50:05Z</time><name>1521</name><sym>Flag, Blue</sym></wpt><wpt lat="10.371491" lon="123.938053"><ele>52.957767</ele><time>2024-09-04T02:50:19Z</time><name>1522</name><sym>Flag, Blue</sym></wpt><wpt lat="10.371527" lon="123.938105"><ele>53.510494</ele><time>2024-09-04T02:50:35Z</time><name>1523</name><sym>Flag, Blue</sym></wpt><wpt lat="10.371709" lon="123.938007"><ele>57.285938</ele><time>2024-09-04T02:51:08Z</time><name>1524</name><sym>Flag, Blue</sym></wpt><wpt lat="10.372079" lon="123.937703"><ele>67.672203</ele><time>2024-09-04T02:52:07Z</time><name>1525</name><sym>Flag, Blue</sym></wpt><wpt lat="10.372153" lon="123.937592"><ele>65.803825</ele><time>2024-09-04T02:52:32Z</time><name>1526</name><sym>Flag, Blue</sym></wpt><wpt lat="10.372379" lon="123.937489"><ele>70.738365</ele><time>2024-09-04T02:53:08Z</time><name>1527</name><sym>Flag, Blue</sym></wpt><wpt lat="10.372403" lon="123.937529"><ele>69.146729</ele><time>2024-09-04T02:53:49Z</time><name>1528</name><sym>Flag, Blue</sym></wpt><wpt lat="10.372529" lon="123.937508"><ele>73.413467</ele><time>2024-09-04T02:55:52Z</time><name>1529</name><sym>Flag, Blue</sym></wpt><wpt lat="10.372523" lon="123.937502"><ele>73.004196</ele><time>2024-09-04T02:55:59Z</time><name>1530</name><sym>Flag, Blue</sym></wpt><wpt lat="10.372555" lon="123.937487"><ele>74.072617</ele><time>2024-09-04T02:56:13Z</time><name>1531</name><sym>Flag, Blue</sym></wpt><wpt lat="10.372504" lon="123.937442"><ele>68.571144</ele><time>2024-09-04T02:56:29Z</time><name>1532</name><sym>Flag, Blue</sym></wpt><wpt lat="10.372611" lon="123.937452"><ele>65.285896</ele><time>2024-09-04T02:56:46Z</time><name>1533</name><sym>Flag, Blue</sym></wpt><wpt lat="10.372748" lon="123.937463"><ele>71.614174</ele><time>2024-09-04T02:57:05Z</time><name>1534</name><sym>Flag, Blue</sym></wpt><wpt lat="10.372794" lon="123.937464"><ele>76.291618</ele><time>2024-09-04T02:57:19Z</time><name>1535</name><sym>Flag, Blue</sym></wpt><wpt lat="10.372968" lon="123.937436"><ele>76.304001</ele><time>2024-09-04T02:57:48Z</time><name>1536</name><sym>Flag, Blue</sym></wpt><wpt lat="10.373129" lon="123.937476"><ele>73.657715</ele><time>2024-09-04T02:58:15Z</time><name>1537</name><sym>Flag, Blue</sym></wpt><wpt lat="10.373145" lon="123.937448"><ele>72.886215</ele><time>2024-09-04T02:58:24Z</time><name>1538</name><sym>Flag, Blue</sym></wpt><wpt lat="10.373173" lon="123.937456"><ele>72.737740</ele><time>2024-09-04T02:58:31Z</time><name>1539</name><sym>Flag, Blue</sym></wpt><wpt lat="10.373245" lon="123.937457"><ele>74.687241</ele><time>2024-09-04T02:58:44Z</time><name>1540</name><sym>Flag, Blue</sym></wpt><wpt lat="10.373867" lon="123.937103"><ele>82.973320</ele><time>2024-09-04T02:59:55Z</time><name>1541</name><sym>Flag, Blue</sym></wpt><wpt lat="10.373865" lon="123.936992"><ele>84.740005</ele><time>2024-09-04T03:00:29Z</time><name>1542</name><sym>Flag, Blue</sym></wpt><wpt lat="10.374125" lon="123.936881"><ele>80.194214</ele><time>2024-09-04T03:01:09Z</time><name>1543</name><sym>Flag, Blue</sym></wpt><wpt lat="10.374154" lon="123.936853"><ele>79.176468</ele><time>2024-09-04T03:01:26Z</time><name>1544</name><sym>Flag, Blue</sym></wpt><wpt lat="10.374204" lon="123.936715"><ele>80.047173</ele><time>2024-09-04T03:01:48Z</time><name>1545</name><sym>Flag, Blue</sym></wpt><wpt lat="10.374294" lon="123.936712"><ele>81.518646</ele><time>2024-09-04T03:02:08Z</time><name>1546</name><sym>Flag, Blue</sym></wpt><wpt lat="10.374319" lon="123.936631"><ele>81.069336</ele><time>2024-09-04T03:02:29Z</time><name>1547</name><sym>Flag, Blue</sym></wpt><wpt lat="10.374399" lon="123.936661"><ele>81.005318</ele><time>2024-09-04T03:02:45Z</time><name>1548</name><sym>Flag, Blue</sym></wpt><wpt lat="10.374481" lon="123.936621"><ele>81.197304</ele><time>2024-09-04T03:03:00Z</time><name>1549</name><sym>Flag, Blue</sym></wpt><wpt lat="10.374465" lon="123.936555"><ele>78.874901</ele><time>2024-09-04T03:03:11Z</time><name>1550</name><sym>Flag, Blue</sym></wpt><wpt lat="10.374533" lon="123.936610"><ele>79.611237</ele><time>2024-09-04T03:03:46Z</time><name>1551</name><sym>Flag, Blue</sym></wpt><wpt lat="10.374562" lon="123.936597"><ele>75.405869</ele><time>2024-09-04T03:03:58Z</time><name>1552</name><sym>Flag, Blue</sym></wpt><wpt lat="10.374608" lon="123.936577"><ele>75.289391</ele><time>2024-09-04T03:04:08Z</time><name>1553</name><sym>Flag, Blue</sym></wpt><wpt lat="10.374622" lon="123.936495"><ele>76.609276</ele><time>2024-09-04T03:04:23Z</time><name>1554</name><sym>Flag, Blue</sym></wpt><wpt lat="10.374681" lon="123.936445"><ele>77.435287</ele><time>2024-09-04T03:05:00Z</time><name>1555</name><sym>Flag, Blue</sym></wpt><wpt lat="10.374707" lon="123.936506"><ele>76.602905</ele><time>2024-09-04T03:05:15Z</time><name>1556</name><sym>Flag, Blue</sym></wpt><wpt lat="10.374763" lon="123.936469"><ele>77.433197</ele><time>2024-09-04T03:05:36Z</time><name>1557</name><sym>Flag, Blue</sym></wpt><wpt lat="10.374815" lon="123.936448"><ele>77.491470</ele><time>2024-09-04T03:05:50Z</time><name>1558</name><sym>Flag, Blue</sym></wpt><wpt lat="10.374843" lon="123.936438"><ele>78.029709</ele><time>2024-09-04T03:06:06Z</time><name>1559</name><sym>Flag, Blue</sym></wpt><wpt lat="10.374868" lon="123.936417"><ele>78.168076</ele><time>2024-09-04T03:06:19Z</time><name>1560</name><sym>Flag, Blue</sym></wpt><wpt lat="10.374910" lon="123.936399"><ele>78.649933</ele><time>2024-09-04T03:06:31Z</time><name>1561</name><sym>Flag, Blue</sym></wpt><wpt lat="10.374952" lon="123.936379"><ele>78.302765</ele><time>2024-09-04T03:06:46Z</time><name>1562</name><sym>Flag, Blue</sym></wpt><wpt lat="10.375028" lon="123.936332"><ele>79.223373</ele><time>2024-09-04T03:07:07Z</time><name>1563</name><sym>Flag, Blue</sym></wpt><wpt lat="10.375046" lon="123.936327"><ele>80.172539</ele><time>2024-09-04T03:07:26Z</time><name>1564</name><sym>Flag, Blue</sym></wpt><wpt lat="10.375056" lon="123.936320"><ele>79.566628</ele><time>2024-09-04T03:07:39Z</time><name>1565</name><sym>Flag, Blue</sym></wpt><wpt lat="10.375058" lon="123.936324"><ele>79.648827</ele><time>2024-09-04T03:07:47Z</time><name>1566</name><sym>Flag, Blue</sym></wpt><wpt lat="10.375135" lon="123.936333"><ele>79.308357</ele><time>2024-09-04T03:08:11Z</time><name>1567</name><sym>Flag, Blue</sym></wpt><wpt lat="10.375097" lon="123.936341"><ele>77.969063</ele><time>2024-09-04T03:08:39Z</time><name>1568</name><sym>Flag, Blue</sym></wpt><wpt lat="10.370162" lon="123.940047"><ele>46.243900</ele><time>2024-09-04T04:32:01Z</time><name>1569</name><sym>Flag, Blue</sym></wpt><wpt lat="10.367023" lon="123.941043"><ele>28.494164</ele><time>2024-09-04T04:40:39Z</time><name>1570</name><sym>Flag, Blue</sym></wpt><wpt lat="10.367034" lon="123.941038"><ele>31.800560</ele><time>2024-09-04T04:40:57Z</time><name>1571</name><sym>Flag, Blue</sym></wpt><wpt lat="10.367023" lon="123.941018"><ele>32.513428</ele><time>2024-09-04T04:41:14Z</time><name>1572</name><sym>Flag, Blue</sym></wpt><wpt lat="10.367022" lon="123.940974"><ele>36.923306</ele><time>2024-09-04T04:42:46Z</time><name>1573</name><sym>Flag, Blue</sym></wpt><wpt lat="10.367037" lon="123.940956"><ele>38.496910</ele><time>2024-09-04T04:43:07Z</time><name>1574</name><sym>Flag, Blue</sym></wpt><wpt lat="10.367049" lon="123.940929"><ele>41.082634</ele><time>2024-09-04T04:43:21Z</time><name>1575</name><sym>Flag, Blue</sym></wpt><wpt lat="10.367053" lon="123.941073"><ele>40.794235</ele><time>2024-09-04T04:43:40Z</time><name>1576</name><sym>Flag, Blue</sym></wpt><wpt lat="10.367090" lon="123.941042"><ele>38.406181</ele><time>2024-09-04T04:43:55Z</time><name>1577</name><sym>Flag, Blue</sym></wpt><wpt lat="10.367205" lon="123.941056"><ele>36.854729</ele><time>2024-09-04T04:44:16Z</time><name>1578</name><sym>Flag, Blue</sym></wpt><wpt lat="10.367261" lon="123.941027"><ele>37.067154</ele><time>2024-09-04T04:44:25Z</time><name>1579</name><sym>Flag, Blue</sym></wpt><wpt lat="10.367288" lon="123.940995"><ele>36.384613</ele><time>2024-09-04T04:44:41Z</time><name>1580</name><sym>Flag, Blue</sym></wpt><wpt lat="10.367456" lon="123.941070"><ele>32.214607</ele><time>2024-09-04T04:45:11Z</time><name>1581</name><sym>Flag, Blue</sym></wpt><wpt lat="10.367482" lon="123.941046"><ele>35.196060</ele><time>2024-09-04T04:45:34Z</time><name>1582</name><sym>Flag, Blue</sym></wpt><wpt lat="10.367488" lon="123.941030"><ele>34.553352</ele><time>2024-09-04T04:45:43Z</time><name>1583</name><sym>Flag, Blue</sym></wpt><wpt lat="10.367538" lon="123.940971"><ele>34.321030</ele><time>2024-09-04T04:45:59Z</time><name>1584</name><sym>Flag, Blue</sym></wpt><wpt lat="10.367577" lon="123.940955"><ele>36.063099</ele><time>2024-09-04T04:46:10Z</time><name>1585</name><sym>Flag, Blue</sym></wpt><wpt lat="10.367600" lon="123.940902"><ele>35.848904</ele><time>2024-09-04T04:46:21Z</time><name>1586</name><sym>Flag, Blue</sym></wpt><wpt lat="10.367710" lon="123.940742"><ele>37.044628</ele><time>2024-09-04T04:46:45Z</time><name>1587</name><sym>Flag, Blue</sym></wpt><wpt lat="10.367734" lon="123.940746"><ele>37.480816</ele><time>2024-09-04T04:46:53Z</time><name>1588</name><sym>Flag, Blue</sym></wpt><wpt lat="10.367740" lon="123.940726"><ele>38.288353</ele><time>2024-09-04T04:47:04Z</time><name>1589</name><sym>Flag, Blue</sym></wpt><wpt lat="10.367758" lon="123.940696"><ele>39.220657</ele><time>2024-09-04T04:47:14Z</time><name>1590</name><sym>Flag, Blue</sym></wpt><wpt lat="10.367974" lon="123.940470"><ele>36.477058</ele><time>2024-09-04T04:47:49Z</time><name>1591</name><sym>Flag, Blue</sym></wpt><wpt lat="10.367988" lon="123.940434"><ele>36.679672</ele><time>2024-09-04T04:47:59Z</time><name>1592</name><sym>Flag, Blue</sym></wpt></gpx>