<?xml version="1.0" encoding="UTF-8"?>
<kml xmlns="http://www.opengis.net/kml/2.2" xmlns:gx="http://www.google.com/kml/ext/2.2" xmlns:kml="http://www.opengis.net/kml/2.2" xmlns:atom="http://www.w3.org/2005/Atom">
<Document>
	<name>GPS device</name>
	<open>1</open>
	<snippet>Created Fri Aug 16 09:31:56 2024</snippet>
	<LookAt>
		<gx:TimeSpan>
			<begin>2024-08-14T23:47:42Z</begin>
			<end>2024-08-15T03:16:37Z</end>
		</gx:TimeSpan>
		<longitude>123.970878</longitude>
		<latitude>10.340646</latitude>
		<altitude>0</altitude>
		<heading>0</heading>
		<tilt>0</tilt>
		<range>1300</range>
	</LookAt>
	<StyleMap id="waypoint">
		<Pair>
			<key>normal</key>
			<styleUrl>#waypoint_n</styleUrl>
		</Pair>
		<Pair>
			<key>highlight</key>
			<styleUrl>#waypoint_h</styleUrl>
		</Pair>
	</StyleMap>
	<Style id="waypoint_h">
		<IconStyle>
			<scale>1.2</scale>
			<Icon>
				<href>https://maps.google.com/mapfiles/kml/pal4/icon61.png</href>
			</Icon>
		</IconStyle>
	</Style>
	<Style id="waypoint_n">
		<IconStyle>
			<Icon>
				<href>https://maps.google.com/mapfiles/kml/pal4/icon61.png</href>
			</Icon>
		</IconStyle>
	</Style>
	<Folder>
		<name>Waypoints</name>
		<open>1</open>
		<Placemark>
			<name>246</name>
			<TimeStamp><when>2024-08-14T23:47:42Z</when>
</TimeStamp>
			<styleUrl>#waypoint</styleUrl>
			<Point>
				<coordinates>123.971395,10.340549,30.95</coordinates>
			</Point>
		</Placemark>
		<Placemark>
			<name>247</name>
			<TimeStamp><when>2024-08-14T23:48:39Z</when>
</TimeStamp>
			<styleUrl>#waypoint</styleUrl>
			<Point>
				<coordinates>123.971414,10.340464,29.71</coordinates>
			</Point>
		</Placemark>
		<Placemark>
			<name>248</name>
			<TimeStamp><when>2024-08-14T23:49:14Z</when>
</TimeStamp>
			<styleUrl>#waypoint</styleUrl>
			<Point>
				<coordinates>123.971418,10.340421,28.74</coordinates>
			</Point>
		</Placemark>
		<Placemark>
			<name>249</name>
			<TimeStamp><when>2024-08-14T23:49:42Z</when>
</TimeStamp>
			<styleUrl>#waypoint</styleUrl>
			<Point>
				<coordinates>123.97141,10.340396,29.44</coordinates>
			</Point>
		</Placemark>
		<Placemark>
			<name>250</name>
			<TimeStamp><when>2024-08-14T23:50:02Z</when>
</TimeStamp>
			<styleUrl>#waypoint</styleUrl>
			<Point>
				<coordinates>123.971402,10.340345,29.31</coordinates>
			</Point>
		</Placemark>
		<Placemark>
			<name>251</name>
			<TimeStamp><when>2024-08-14T23:50:39Z</when>
</TimeStamp>
			<styleUrl>#waypoint</styleUrl>
			<Point>
				<coordinates>123.971404,10.340323,28.52</coordinates>
			</Point>
		</Placemark>
		<Placemark>
			<name>252</name>
			<TimeStamp><when>2024-08-14T23:51:00Z</when>
</TimeStamp>
			<styleUrl>#waypoint</styleUrl>
			<Point>
				<coordinates>123.971405,10.340283,28.84</coordinates>
			</Point>
		</Placemark>
		<Placemark>
			<name>253</name>
			<TimeStamp><when>2024-08-14T23:51:31Z</when>
</TimeStamp>
			<styleUrl>#waypoint</styleUrl>
			<Point>
				<coordinates>123.971408,10.340257,28.65</coordinates>
			</Point>
		</Placemark>
		<Placemark>
			<name>254</name>
			<TimeStamp><when>2024-08-14T23:51:54Z</when>
</TimeStamp>
			<styleUrl>#waypoint</styleUrl>
			<Point>
				<coordinates>123.971402,10.340205,28.24</coordinates>
			</Point>
		</Placemark>
		<Placemark>
			<name>255</name>
			<TimeStamp><when>2024-08-14T23:52:36Z</when>
</TimeStamp>
			<styleUrl>#waypoint</styleUrl>
			<Point>
				<coordinates>123.971361,10.34012,27.86</coordinates>
			</Point>
		</Placemark>
		<Placemark>
			<name>256</name>
			<TimeStamp><when>2024-08-14T23:52:51Z</when>
</TimeStamp>
			<styleUrl>#waypoint</styleUrl>
			<Point>
				<coordinates>123.971333,10.340073,27.62</coordinates>
			</Point>
		</Placemark>
		<Placemark>
			<name>257</name>
			<TimeStamp><when>2024-08-14T23:53:14Z</when>
</TimeStamp>
			<styleUrl>#waypoint</styleUrl>
			<Point>
				<coordinates>123.9713,10.340036,26.31</coordinates>
			</Point>
		</Placemark>
		<Placemark>
			<name>258</name>
			<TimeStamp><when>2024-08-14T23:53:33Z</when>
</TimeStamp>
			<styleUrl>#waypoint</styleUrl>
			<Point>
				<coordinates>123.971272,10.340002,27.36</coordinates>
			</Point>
		</Placemark>
		<Placemark>
			<name>259</name>
			<TimeStamp><when>2024-08-14T23:54:11Z</when>
</TimeStamp>
			<styleUrl>#waypoint</styleUrl>
			<Point>
				<coordinates>123.971244,10.339968,27.13</coordinates>
			</Point>
		</Placemark>
		<Placemark>
			<name>260</name>
			<TimeStamp><when>2024-08-14T23:54:29Z</when>
</TimeStamp>
			<styleUrl>#waypoint</styleUrl>
			<Point>
				<coordinates>123.971213,10.339925,27</coordinates>
			</Point>
		</Placemark>
		<Placemark>
			<name>261</name>
			<TimeStamp><when>2024-08-14T23:55:24Z</when>
</TimeStamp>
			<styleUrl>#waypoint</styleUrl>
			<Point>
				<coordinates>123.971174,10.339961,27.17</coordinates>
			</Point>
		</Placemark>
		<Placemark>
			<name>262</name>
			<TimeStamp><when>2024-08-14T23:55:43Z</when>
</TimeStamp>
			<styleUrl>#waypoint</styleUrl>
			<Point>
				<coordinates>123.971202,10.339998,27.34</coordinates>
			</Point>
		</Placemark>
		<Placemark>
			<name>263</name>
			<TimeStamp><when>2024-08-14T23:56:09Z</when>
</TimeStamp>
			<styleUrl>#waypoint</styleUrl>
			<Point>
				<coordinates>123.971236,10.340038,26.15</coordinates>
			</Point>
		</Placemark>
		<Placemark>
			<name>264</name>
			<TimeStamp><when>2024-08-14T23:56:30Z</when>
</TimeStamp>
			<styleUrl>#waypoint</styleUrl>
			<Point>
				<coordinates>123.971259,10.340075,26.91</coordinates>
			</Point>
		</Placemark>
		<Placemark>
			<name>265</name>
			<TimeStamp><when>2024-08-14T23:56:44Z</when>
</TimeStamp>
			<styleUrl>#waypoint</styleUrl>
			<Point>
				<coordinates>123.971278,10.340106,26.66</coordinates>
			</Point>
		</Placemark>
		<Placemark>
			<name>266</name>
			<TimeStamp><when>2024-08-14T23:57:43Z</when>
</TimeStamp>
			<styleUrl>#waypoint</styleUrl>
			<Point>
				<coordinates>123.971236,10.340145,27.38</coordinates>
			</Point>
		</Placemark>
		<Placemark>
			<name>267</name>
			<TimeStamp><when>2024-08-14T23:58:12Z</when>
</TimeStamp>
			<styleUrl>#waypoint</styleUrl>
			<Point>
				<coordinates>123.971209,10.340107,27.3</coordinates>
			</Point>
		</Placemark>
		<Placemark>
			<name>268</name>
			<TimeStamp><when>2024-08-14T23:58:51Z</when>
</TimeStamp>
			<styleUrl>#waypoint</styleUrl>
			<Point>
				<coordinates>123.971174,10.340063,25.89</coordinates>
			</Point>
		</Placemark>
		<Placemark>
			<name>269</name>
			<TimeStamp><when>2024-08-14T23:59:27Z</when>
</TimeStamp>
			<styleUrl>#waypoint</styleUrl>
			<Point>
				<coordinates>123.971156,10.340022,27.03</coordinates>
			</Point>
		</Placemark>
		<Placemark>
			<name>270</name>
			<TimeStamp><when>2024-08-15T00:01:17Z</when>
</TimeStamp>
			<styleUrl>#waypoint</styleUrl>
			<Point>
				<coordinates>123.971134,10.339984,25.24</coordinates>
			</Point>
		</Placemark>
		<Placemark>
			<name>271</name>
			<TimeStamp><when>2024-08-15T00:01:44Z</when>
</TimeStamp>
			<styleUrl>#waypoint</styleUrl>
			<Point>
				<coordinates>123.971099,10.340001,26.54</coordinates>
			</Point>
		</Placemark>
		<Placemark>
			<name>272</name>
			<TimeStamp><when>2024-08-15T00:02:00Z</when>
</TimeStamp>
			<styleUrl>#waypoint</styleUrl>
			<Point>
				<coordinates>123.971115,10.340045,26.75</coordinates>
			</Point>
		</Placemark>
		<Placemark>
			<name>273</name>
			<TimeStamp><when>2024-08-15T00:02:15Z</when>
</TimeStamp>
			<styleUrl>#waypoint</styleUrl>
			<Point>
				<coordinates>123.971137,10.340084,26.58</coordinates>
			</Point>
		</Placemark>
		<Placemark>
			<name>274</name>
			<TimeStamp><when>2024-08-15T00:02:38Z</when>
</TimeStamp>
			<styleUrl>#waypoint</styleUrl>
			<Point>
				<coordinates>123.971172,10.340139,26.64</coordinates>
			</Point>
		</Placemark>
		<Placemark>
			<name>275</name>
			<TimeStamp><when>2024-08-15T00:02:49Z</when>
</TimeStamp>
			<styleUrl>#waypoint</styleUrl>
			<Point>
				<coordinates>123.971191,10.340171,26.67</coordinates>
			</Point>
		</Placemark>
		<Placemark>
			<name>276</name>
			<TimeStamp><when>2024-08-15T00:03:19Z</when>
</TimeStamp>
			<styleUrl>#waypoint</styleUrl>
			<Point>
				<coordinates>123.971143,10.340209,26.73</coordinates>
			</Point>
		</Placemark>
		<Placemark>
			<name>277</name>
			<TimeStamp><when>2024-08-15T00:03:43Z</when>
</TimeStamp>
			<styleUrl>#waypoint</styleUrl>
			<Point>
				<coordinates>123.9711,10.340125,27.12</coordinates>
			</Point>
		</Placemark>
		<Placemark>
			<name>278</name>
			<TimeStamp><when>2024-08-15T00:04:10Z</when>
</TimeStamp>
			<styleUrl>#waypoint</styleUrl>
			<Point>
				<coordinates>123.97104,10.340028,26.93</coordinates>
			</Point>
		</Placemark>
		<Placemark>
			<name>279</name>
			<TimeStamp><when>2024-08-15T00:05:06Z</when>
</TimeStamp>
			<styleUrl>#waypoint</styleUrl>
			<Point>
				<coordinates>123.971185,10.340264,26.39</coordinates>
			</Point>
		</Placemark>
		<Placemark>
			<name>280</name>
			<TimeStamp><when>2024-08-15T00:05:36Z</when>
</TimeStamp>
			<styleUrl>#waypoint</styleUrl>
			<Point>
				<coordinates>123.97123,10.340237,26.13</coordinates>
			</Point>
		</Placemark>
		<Placemark>
			<name>281</name>
			<TimeStamp><when>2024-08-15T00:06:20Z</when>
</TimeStamp>
			<styleUrl>#waypoint</styleUrl>
			<Point>
				<coordinates>123.971373,10.34017,24.12</coordinates>
			</Point>
		</Placemark>
		<Placemark>
			<name>282</name>
			<TimeStamp><when>2024-08-15T00:07:11Z</when>
</TimeStamp>
			<styleUrl>#waypoint</styleUrl>
			<Point>
				<coordinates>123.971376,10.340229,24.01</coordinates>
			</Point>
		</Placemark>
		<Placemark>
			<name>283</name>
			<TimeStamp><when>2024-08-15T00:07:35Z</when>
</TimeStamp>
			<styleUrl>#waypoint</styleUrl>
			<Point>
				<coordinates>123.971319,10.340245,24.49</coordinates>
			</Point>
		</Placemark>
		<Placemark>
			<name>284</name>
			<TimeStamp><when>2024-08-15T00:08:18Z</when>
</TimeStamp>
			<styleUrl>#waypoint</styleUrl>
			<Point>
				<coordinates>123.97125,10.340281,24.92</coordinates>
			</Point>
		</Placemark>
		<Placemark>
			<name>285</name>
			<TimeStamp><when>2024-08-15T00:08:58Z</when>
</TimeStamp>
			<styleUrl>#waypoint</styleUrl>
			<Point>
				<coordinates>123.971197,10.340317,25.68</coordinates>
			</Point>
		</Placemark>
		<Placemark>
			<name>286</name>
			<TimeStamp><when>2024-08-15T00:09:24Z</when>
</TimeStamp>
			<styleUrl>#waypoint</styleUrl>
			<Point>
				<coordinates>123.971218,10.340358,25.64</coordinates>
			</Point>
		</Placemark>
		<Placemark>
			<name>287</name>
			<TimeStamp><when>2024-08-15T00:09:52Z</when>
</TimeStamp>
			<styleUrl>#waypoint</styleUrl>
			<Point>
				<coordinates>123.971279,10.340308,25.1</coordinates>
			</Point>
		</Placemark>
		<Placemark>
			<name>288</name>
			<TimeStamp><when>2024-08-15T00:10:07Z</when>
</TimeStamp>
			<styleUrl>#waypoint</styleUrl>
			<Point>
				<coordinates>123.971337,10.34028,24.63</coordinates>
			</Point>
		</Placemark>
		<Placemark>
			<name>289</name>
			<TimeStamp><when>2024-08-15T00:10:31Z</when>
</TimeStamp>
			<styleUrl>#waypoint</styleUrl>
			<Point>
				<coordinates>123.97138,10.340264,23.53</coordinates>
			</Point>
		</Placemark>
		<Placemark>
			<name>290</name>
			<TimeStamp><when>2024-08-15T00:10:47Z</when>
</TimeStamp>
			<styleUrl>#waypoint</styleUrl>
			<Point>
				<coordinates>123.971378,10.340306,23.87</coordinates>
			</Point>
		</Placemark>
		<Placemark>
			<name>291</name>
			<TimeStamp><when>2024-08-15T00:11:34Z</when>
</TimeStamp>
			<styleUrl>#waypoint</styleUrl>
			<Point>
				<coordinates>123.971338,10.340334,24.16</coordinates>
			</Point>
		</Placemark>
		<Placemark>
			<name>292</name>
			<TimeStamp><when>2024-08-15T00:11:51Z</when>
</TimeStamp>
			<styleUrl>#waypoint</styleUrl>
			<Point>
				<coordinates>123.971275,10.340371,24.98</coordinates>
			</Point>
		</Placemark>
		<Placemark>
			<name>293</name>
			<TimeStamp><when>2024-08-15T00:12:15Z</when>
</TimeStamp>
			<styleUrl>#waypoint</styleUrl>
			<Point>
				<coordinates>123.971245,10.340386,24.92</coordinates>
			</Point>
		</Placemark>
		<Placemark>
			<name>294</name>
			<TimeStamp><when>2024-08-15T00:12:37Z</when>
</TimeStamp>
			<styleUrl>#waypoint</styleUrl>
			<Point>
				<coordinates>123.971257,10.340439,24.78</coordinates>
			</Point>
		</Placemark>
		<Placemark>
			<name>295</name>
			<TimeStamp><when>2024-08-15T00:12:56Z</when>
</TimeStamp>
			<styleUrl>#waypoint</styleUrl>
			<Point>
				<coordinates>123.971295,10.340421,25.16</coordinates>
			</Point>
		</Placemark>
		<Placemark>
			<name>296</name>
			<TimeStamp><when>2024-08-15T00:13:38Z</when>
</TimeStamp>
			<styleUrl>#waypoint</styleUrl>
			<Point>
				<coordinates>123.971373,10.340352,22.19</coordinates>
			</Point>
		</Placemark>
		<Placemark>
			<name>297</name>
			<TimeStamp><when>2024-08-15T00:14:08Z</when>
</TimeStamp>
			<styleUrl>#waypoint</styleUrl>
			<Point>
				<coordinates>123.971372,10.340396,23.54</coordinates>
			</Point>
		</Placemark>
		<Placemark>
			<name>298</name>
			<TimeStamp><when>2024-08-15T00:14:55Z</when>
</TimeStamp>
			<styleUrl>#waypoint</styleUrl>
			<Point>
				<coordinates>123.971375,10.340444,24.13</coordinates>
			</Point>
		</Placemark>
		<Placemark>
			<name>299</name>
			<TimeStamp><when>2024-08-15T00:15:17Z</when>
</TimeStamp>
			<styleUrl>#waypoint</styleUrl>
			<Point>
				<coordinates>123.971322,10.34046,24.79</coordinates>
			</Point>
		</Placemark>
		<Placemark>
			<name>300</name>
			<TimeStamp><when>2024-08-15T00:15:31Z</when>
</TimeStamp>
			<styleUrl>#waypoint</styleUrl>
			<Point>
				<coordinates>123.971288,10.340478,25</coordinates>
			</Point>
		</Placemark>
		<Placemark>
			<name>301</name>
			<TimeStamp><when>2024-08-15T00:15:48Z</when>
</TimeStamp>
			<styleUrl>#waypoint</styleUrl>
			<Point>
				<coordinates>123.971303,10.340524,24.5</coordinates>
			</Point>
		</Placemark>
		<Placemark>
			<name>302</name>
			<TimeStamp><when>2024-08-15T00:16:03Z</when>
</TimeStamp>
			<styleUrl>#waypoint</styleUrl>
			<Point>
				<coordinates>123.971339,10.340508,24.4</coordinates>
			</Point>
		</Placemark>
		<Placemark>
			<name>303</name>
			<TimeStamp><when>2024-08-15T00:16:45Z</when>
</TimeStamp>
			<styleUrl>#waypoint</styleUrl>
			<Point>
				<coordinates>123.971363,10.340481,22.25</coordinates>
			</Point>
		</Placemark>
		<Placemark>
			<name>304</name>
			<TimeStamp><when>2024-08-15T00:17:36Z</when>
</TimeStamp>
			<styleUrl>#waypoint</styleUrl>
			<Point>
				<coordinates>123.971395,10.340606,23.73</coordinates>
			</Point>
		</Placemark>
		<Placemark>
			<name>305</name>
			<TimeStamp><when>2024-08-15T00:18:25Z</when>
</TimeStamp>
			<styleUrl>#waypoint</styleUrl>
			<Point>
				<coordinates>123.971373,10.340725,23.3</coordinates>
			</Point>
		</Placemark>
		<Placemark>
			<name>306</name>
			<TimeStamp><when>2024-08-15T00:18:49Z</when>
</TimeStamp>
			<styleUrl>#waypoint</styleUrl>
			<Point>
				<coordinates>123.971376,10.340792,23.81</coordinates>
			</Point>
		</Placemark>
		<Placemark>
			<name>307</name>
			<TimeStamp><when>2024-08-15T00:19:30Z</when>
</TimeStamp>
			<styleUrl>#waypoint</styleUrl>
			<Point>
				<coordinates>123.971357,10.340844,23.65</coordinates>
			</Point>
		</Placemark>
		<Placemark>
			<name>308</name>
			<TimeStamp><when>2024-08-15T00:19:55Z</when>
</TimeStamp>
			<styleUrl>#waypoint</styleUrl>
			<Point>
				<coordinates>123.971341,10.340908,24.17</coordinates>
			</Point>
		</Placemark>
		<Placemark>
			<name>309</name>
			<TimeStamp><when>2024-08-15T00:20:20Z</when>
</TimeStamp>
			<styleUrl>#waypoint</styleUrl>
			<Point>
				<coordinates>123.97132,10.340869,24.45</coordinates>
			</Point>
		</Placemark>
		<Placemark>
			<name>310</name>
			<TimeStamp><when>2024-08-15T00:20:44Z</when>
</TimeStamp>
			<styleUrl>#waypoint</styleUrl>
			<Point>
				<coordinates>123.971299,10.34081,24.83</coordinates>
			</Point>
		</Placemark>
		<Placemark>
			<name>311</name>
			<TimeStamp><when>2024-08-15T00:21:31Z</when>
</TimeStamp>
			<styleUrl>#waypoint</styleUrl>
			<Point>
				<coordinates>123.971329,10.340796,24.37</coordinates>
			</Point>
		</Placemark>
		<Placemark>
			<name>312</name>
			<TimeStamp><when>2024-08-15T00:22:52Z</when>
</TimeStamp>
			<styleUrl>#waypoint</styleUrl>
			<Point>
				<coordinates>123.971314,10.340751,24.01</coordinates>
			</Point>
		</Placemark>
		<Placemark>
			<name>313</name>
			<TimeStamp><when>2024-08-15T00:23:22Z</when>
</TimeStamp>
			<styleUrl>#waypoint</styleUrl>
			<Point>
				<coordinates>123.97133,10.340689,23.87</coordinates>
			</Point>
		</Placemark>
		<Placemark>
			<name>314</name>
			<TimeStamp><when>2024-08-15T00:23:38Z</when>
</TimeStamp>
			<styleUrl>#waypoint</styleUrl>
			<Point>
				<coordinates>123.97131,10.34065,23.7</coordinates>
			</Point>
		</Placemark>
		<Placemark>
			<name>315</name>
			<TimeStamp><when>2024-08-15T00:23:57Z</when>
</TimeStamp>
			<styleUrl>#waypoint</styleUrl>
			<Point>
				<coordinates>123.97127,10.340659,23.78</coordinates>
			</Point>
		</Placemark>
		<Placemark>
			<name>316</name>
			<TimeStamp><when>2024-08-15T00:24:11Z</when>
</TimeStamp>
			<styleUrl>#waypoint</styleUrl>
			<Point>
				<coordinates>123.971288,10.340705,23.56</coordinates>
			</Point>
		</Placemark>
		<Placemark>
			<name>317</name>
			<TimeStamp><when>2024-08-15T00:35:14Z</when>
</TimeStamp>
			<styleUrl>#waypoint</styleUrl>
			<Point>
				<coordinates>123.971297,10.340705,34.46</coordinates>
			</Point>
		</Placemark>
		<Placemark>
			<name>318</name>
			<TimeStamp><when>2024-08-15T00:35:36Z</when>
</TimeStamp>
			<styleUrl>#waypoint</styleUrl>
			<Point>
				<coordinates>123.971287,10.340771,28.58</coordinates>
			</Point>
		</Placemark>
		<Placemark>
			<name>319</name>
			<TimeStamp><when>2024-08-15T00:36:12Z</when>
</TimeStamp>
			<styleUrl>#waypoint</styleUrl>
			<Point>
				<coordinates>123.971287,10.340927,24.14</coordinates>
			</Point>
		</Placemark>
		<Placemark>
			<name>320</name>
			<TimeStamp><when>2024-08-15T00:36:39Z</when>
</TimeStamp>
			<styleUrl>#waypoint</styleUrl>
			<Point>
				<coordinates>123.971282,10.340881,22.38</coordinates>
			</Point>
		</Placemark>
		<Placemark>
			<name>321</name>
			<TimeStamp><when>2024-08-15T00:37:05Z</when>
</TimeStamp>
			<styleUrl>#waypoint</styleUrl>
			<Point>
				<coordinates>123.971255,10.34084,21.49</coordinates>
			</Point>
		</Placemark>
		<Placemark>
			<name>322</name>
			<TimeStamp><when>2024-08-15T00:37:28Z</when>
</TimeStamp>
			<styleUrl>#waypoint</styleUrl>
			<Point>
				<coordinates>123.971226,10.340792,21.55</coordinates>
			</Point>
		</Placemark>
		<Placemark>
			<name>323</name>
			<TimeStamp><when>2024-08-15T00:37:42Z</when>
</TimeStamp>
			<styleUrl>#waypoint</styleUrl>
			<Point>
				<coordinates>123.971213,10.340744,21.5</coordinates>
			</Point>
		</Placemark>
		<Placemark>
			<name>324</name>
			<TimeStamp><when>2024-08-15T00:37:56Z</when>
</TimeStamp>
			<styleUrl>#waypoint</styleUrl>
			<Point>
				<coordinates>123.971194,10.340694,21.26</coordinates>
			</Point>
		</Placemark>
		<Placemark>
			<name>325</name>
			<TimeStamp><when>2024-08-15T00:38:23Z</when>
</TimeStamp>
			<styleUrl>#waypoint</styleUrl>
			<Point>
				<coordinates>123.971183,10.340647,21</coordinates>
			</Point>
		</Placemark>
		<Placemark>
			<name>326</name>
			<TimeStamp><when>2024-08-15T00:38:38Z</when>
</TimeStamp>
			<styleUrl>#waypoint</styleUrl>
			<Point>
				<coordinates>123.971145,10.340659,21.8</coordinates>
			</Point>
		</Placemark>
		<Placemark>
			<name>327</name>
			<TimeStamp><when>2024-08-15T00:38:56Z</when>
</TimeStamp>
			<styleUrl>#waypoint</styleUrl>
			<Point>
				<coordinates>123.971155,10.3407,21.95</coordinates>
			</Point>
		</Placemark>
		<Placemark>
			<name>328</name>
			<TimeStamp><when>2024-08-15T00:39:09Z</when>
</TimeStamp>
			<styleUrl>#waypoint</styleUrl>
			<Point>
				<coordinates>123.971181,10.340758,22.18</coordinates>
			</Point>
		</Placemark>
		<Placemark>
			<name>329</name>
			<TimeStamp><when>2024-08-15T00:39:33Z</when>
</TimeStamp>
			<styleUrl>#waypoint</styleUrl>
			<Point>
				<coordinates>123.9712,10.340798,21.69</coordinates>
			</Point>
		</Placemark>
		<Placemark>
			<name>330</name>
			<TimeStamp><when>2024-08-15T00:39:53Z</when>
</TimeStamp>
			<styleUrl>#waypoint</styleUrl>
			<Point>
				<coordinates>123.971216,10.340851,21.76</coordinates>
			</Point>
		</Placemark>
		<Placemark>
			<name>331</name>
			<TimeStamp><when>2024-08-15T00:40:22Z</when>
</TimeStamp>
			<styleUrl>#waypoint</styleUrl>
			<Point>
				<coordinates>123.971234,10.340894,22.63</coordinates>
			</Point>
		</Placemark>
		<Placemark>
			<name>332</name>
			<TimeStamp><when>2024-08-15T00:40:42Z</when>
</TimeStamp>
			<styleUrl>#waypoint</styleUrl>
			<Point>
				<coordinates>123.971249,10.340947,22.23</coordinates>
			</Point>
		</Placemark>
		<Placemark>
			<name>333</name>
			<TimeStamp><when>2024-08-15T00:41:20Z</when>
</TimeStamp>
			<styleUrl>#waypoint</styleUrl>
			<Point>
				<coordinates>123.971203,10.340951,21.25</coordinates>
			</Point>
		</Placemark>
		<Placemark>
			<name>334</name>
			<TimeStamp><when>2024-08-15T00:41:41Z</when>
</TimeStamp>
			<styleUrl>#waypoint</styleUrl>
			<Point>
				<coordinates>123.971183,10.340911,22.36</coordinates>
			</Point>
		</Placemark>
		<Placemark>
			<name>335</name>
			<TimeStamp><when>2024-08-15T00:42:04Z</when>
</TimeStamp>
			<styleUrl>#waypoint</styleUrl>
			<Point>
				<coordinates>123.971164,10.340868,22.41</coordinates>
			</Point>
		</Placemark>
		<Placemark>
			<name>336</name>
			<TimeStamp><when>2024-08-15T00:42:29Z</when>
</TimeStamp>
			<styleUrl>#waypoint</styleUrl>
			<Point>
				<coordinates>123.971149,10.340821,22.35</coordinates>
			</Point>
		</Placemark>
		<Placemark>
			<name>337</name>
			<TimeStamp><when>2024-08-15T00:42:47Z</when>
</TimeStamp>
			<styleUrl>#waypoint</styleUrl>
			<Point>
				<coordinates>123.971134,10.340772,22.18</coordinates>
			</Point>
		</Placemark>
		<Placemark>
			<name>338</name>
			<TimeStamp><when>2024-08-15T00:44:22Z</when>
</TimeStamp>
			<styleUrl>#waypoint</styleUrl>
			<Point>
				<coordinates>123.97112,10.340725,20.9</coordinates>
			</Point>
		</Placemark>
		<Placemark>
			<name>339</name>
			<TimeStamp><when>2024-08-15T00:44:35Z</when>
</TimeStamp>
			<styleUrl>#waypoint</styleUrl>
			<Point>
				<coordinates>123.971105,10.340681,22.39</coordinates>
			</Point>
		</Placemark>
		<Placemark>
			<name>340</name>
			<TimeStamp><when>2024-08-15T00:45:03Z</when>
</TimeStamp>
			<styleUrl>#waypoint</styleUrl>
			<Point>
				<coordinates>123.971086,10.340733,22.76</coordinates>
			</Point>
		</Placemark>
		<Placemark>
			<name>341</name>
			<TimeStamp><when>2024-08-15T00:46:35Z</when>
</TimeStamp>
			<styleUrl>#waypoint</styleUrl>
			<Point>
				<coordinates>123.97109,10.340787,22.21</coordinates>
			</Point>
		</Placemark>
		<Placemark>
			<name>342</name>
			<TimeStamp><when>2024-08-15T00:46:48Z</when>
</TimeStamp>
			<styleUrl>#waypoint</styleUrl>
			<Point>
				<coordinates>123.97111,10.340824,22.6</coordinates>
			</Point>
		</Placemark>
		<Placemark>
			<name>343</name>
			<TimeStamp><when>2024-08-15T00:47:11Z</when>
</TimeStamp>
			<styleUrl>#waypoint</styleUrl>
			<Point>
				<coordinates>123.971128,10.340882,22.74</coordinates>
			</Point>
		</Placemark>
		<Placemark>
			<name>344</name>
			<TimeStamp><when>2024-08-15T00:47:25Z</when>
</TimeStamp>
			<styleUrl>#waypoint</styleUrl>
			<Point>
				<coordinates>123.971141,10.340927,22.48</coordinates>
			</Point>
		</Placemark>
		<Placemark>
			<name>345</name>
			<TimeStamp><when>2024-08-15T00:47:40Z</when>
</TimeStamp>
			<styleUrl>#waypoint</styleUrl>
			<Point>
				<coordinates>123.97115,10.340967,22.42</coordinates>
			</Point>
		</Placemark>
		<Placemark>
			<name>346</name>
			<TimeStamp><when>2024-08-15T00:47:57Z</when>
</TimeStamp>
			<styleUrl>#waypoint</styleUrl>
			<Point>
				<coordinates>123.971114,10.340993,22.46</coordinates>
			</Point>
		</Placemark>
		<Placemark>
			<name>347</name>
			<TimeStamp><when>2024-08-15T00:48:12Z</when>
</TimeStamp>
			<styleUrl>#waypoint</styleUrl>
			<Point>
				<coordinates>123.971094,10.340942,22.68</coordinates>
			</Point>
		</Placemark>
		<Placemark>
			<name>348</name>
			<TimeStamp><when>2024-08-15T00:48:28Z</when>
</TimeStamp>
			<styleUrl>#waypoint</styleUrl>
			<Point>
				<coordinates>123.971082,10.340894,23.11</coordinates>
			</Point>
		</Placemark>
		<Placemark>
			<name>349</name>
			<TimeStamp><when>2024-08-15T00:48:43Z</when>
</TimeStamp>
			<styleUrl>#waypoint</styleUrl>
			<Point>
				<coordinates>123.971068,10.340851,22.85</coordinates>
			</Point>
		</Placemark>
		<Placemark>
			<name>350</name>
			<TimeStamp><when>2024-08-15T00:48:56Z</when>
</TimeStamp>
			<styleUrl>#waypoint</styleUrl>
			<Point>
				<coordinates>123.971052,10.340801,22.87</coordinates>
			</Point>
		</Placemark>
		<Placemark>
			<name>351</name>
			<TimeStamp><when>2024-08-15T00:50:24Z</when>
</TimeStamp>
			<styleUrl>#waypoint</styleUrl>
			<Point>
				<coordinates>123.971221,10.341027,22.34</coordinates>
			</Point>
		</Placemark>
		<Placemark>
			<name>352</name>
			<TimeStamp><when>2024-08-15T00:51:04Z</when>
</TimeStamp>
			<styleUrl>#waypoint</styleUrl>
			<Point>
				<coordinates>123.97126,10.34101,22.44</coordinates>
			</Point>
		</Placemark>
		<Placemark>
			<name>353</name>
			<TimeStamp><when>2024-08-15T00:51:15Z</when>
</TimeStamp>
			<styleUrl>#waypoint</styleUrl>
			<Point>
				<coordinates>123.97127,10.34104,22.08</coordinates>
			</Point>
		</Placemark>
		<Placemark>
			<name>354</name>
			<TimeStamp><when>2024-08-15T00:51:43Z</when>
</TimeStamp>
			<styleUrl>#waypoint</styleUrl>
			<Point>
				<coordinates>123.971236,10.341086,21.95</coordinates>
			</Point>
		</Placemark>
		<Placemark>
			<name>355</name>
			<TimeStamp><when>2024-08-15T00:51:57Z</when>
</TimeStamp>
			<styleUrl>#waypoint</styleUrl>
			<Point>
				<coordinates>123.971191,10.341094,22.17</coordinates>
			</Point>
		</Placemark>
		<Placemark>
			<name>356</name>
			<TimeStamp><when>2024-08-15T00:52:11Z</when>
</TimeStamp>
			<styleUrl>#waypoint</styleUrl>
			<Point>
				<coordinates>123.971134,10.341105,22.74</coordinates>
			</Point>
		</Placemark>
		<Placemark>
			<name>357</name>
			<TimeStamp><when>2024-08-15T00:52:30Z</when>
</TimeStamp>
			<styleUrl>#waypoint</styleUrl>
			<Point>
				<coordinates>123.971119,10.341059,22.83</coordinates>
			</Point>
		</Placemark>
		<Placemark>
			<name>358</name>
			<TimeStamp><when>2024-08-15T00:53:13Z</when>
</TimeStamp>
			<styleUrl>#waypoint</styleUrl>
			<Point>
				<coordinates>123.971069,10.34107,21.11</coordinates>
			</Point>
		</Placemark>
		<Placemark>
			<name>359</name>
			<TimeStamp><when>2024-08-15T00:53:55Z</when>
</TimeStamp>
			<styleUrl>#waypoint</styleUrl>
			<Point>
				<coordinates>123.971081,10.341111,22.49</coordinates>
			</Point>
		</Placemark>
		<Placemark>
			<name>360</name>
			<TimeStamp><when>2024-08-15T00:54:09Z</when>
</TimeStamp>
			<styleUrl>#waypoint</styleUrl>
			<Point>
				<coordinates>123.971091,10.341168,22.64</coordinates>
			</Point>
		</Placemark>
		<Placemark>
			<name>361</name>
			<TimeStamp><when>2024-08-15T00:54:22Z</when>
</TimeStamp>
			<styleUrl>#waypoint</styleUrl>
			<Point>
				<coordinates>123.971046,10.341174,22.65</coordinates>
			</Point>
		</Placemark>
		<Placemark>
			<name>362</name>
			<TimeStamp><when>2024-08-15T00:54:32Z</when>
</TimeStamp>
			<styleUrl>#waypoint</styleUrl>
			<Point>
				<coordinates>123.97103,10.341132,22.87</coordinates>
			</Point>
		</Placemark>
		<Placemark>
			<name>363</name>
			<TimeStamp><when>2024-08-15T00:55:09Z</when>
</TimeStamp>
			<styleUrl>#waypoint</styleUrl>
			<Point>
				<coordinates>123.971014,10.341077,22.9</coordinates>
			</Point>
		</Placemark>
		<Placemark>
			<name>364</name>
			<TimeStamp><when>2024-08-15T00:55:24Z</when>
</TimeStamp>
			<styleUrl>#waypoint</styleUrl>
			<Point>
				<coordinates>123.970968,10.341085,22.84</coordinates>
			</Point>
		</Placemark>
		<Placemark>
			<name>365</name>
			<TimeStamp><when>2024-08-15T00:55:45Z</when>
</TimeStamp>
			<styleUrl>#waypoint</styleUrl>
			<Point>
				<coordinates>123.970976,10.341138,22.58</coordinates>
			</Point>
		</Placemark>
		<Placemark>
			<name>366</name>
			<TimeStamp><when>2024-08-15T00:55:57Z</when>
</TimeStamp>
			<styleUrl>#waypoint</styleUrl>
			<Point>
				<coordinates>123.970988,10.34119,21.64</coordinates>
			</Point>
		</Placemark>
		<Placemark>
			<name>367</name>
			<TimeStamp><when>2024-08-15T00:56:11Z</when>
</TimeStamp>
			<styleUrl>#waypoint</styleUrl>
			<Point>
				<coordinates>123.971006,10.341243,21.48</coordinates>
			</Point>
		</Placemark>
		<Placemark>
			<name>368</name>
			<TimeStamp><when>2024-08-15T00:56:29Z</when>
</TimeStamp>
			<styleUrl>#waypoint</styleUrl>
			<Point>
				<coordinates>123.971014,10.341298,22.41</coordinates>
			</Point>
		</Placemark>
		<Placemark>
			<name>369</name>
			<TimeStamp><when>2024-08-15T00:56:44Z</when>
</TimeStamp>
			<styleUrl>#waypoint</styleUrl>
			<Point>
				<coordinates>123.971021,10.341332,20.94</coordinates>
			</Point>
		</Placemark>
		<Placemark>
			<name>370</name>
			<TimeStamp><when>2024-08-15T00:57:04Z</when>
</TimeStamp>
			<styleUrl>#waypoint</styleUrl>
			<Point>
				<coordinates>123.970966,10.341348,22.1</coordinates>
			</Point>
		</Placemark>
		<Placemark>
			<name>371</name>
			<TimeStamp><when>2024-08-15T00:57:18Z</when>
</TimeStamp>
			<styleUrl>#waypoint</styleUrl>
			<Point>
				<coordinates>123.970953,10.341306,22.25</coordinates>
			</Point>
		</Placemark>
		<Placemark>
			<name>372</name>
			<TimeStamp><when>2024-08-15T00:57:38Z</when>
</TimeStamp>
			<styleUrl>#waypoint</styleUrl>
			<Point>
				<coordinates>123.97094,10.341245,22.11</coordinates>
			</Point>
		</Placemark>
		<Placemark>
			<name>373</name>
			<TimeStamp><when>2024-08-15T00:57:51Z</when>
</TimeStamp>
			<styleUrl>#waypoint</styleUrl>
			<Point>
				<coordinates>123.970933,10.341199,22.55</coordinates>
			</Point>
		</Placemark>
		<Placemark>
			<name>374</name>
			<TimeStamp><when>2024-08-15T00:58:04Z</when>
</TimeStamp>
			<styleUrl>#waypoint</styleUrl>
			<Point>
				<coordinates>123.97093,10.341145,22.79</coordinates>
			</Point>
		</Placemark>
		<Placemark>
			<name>375</name>
			<TimeStamp><when>2024-08-15T00:58:20Z</when>
</TimeStamp>
			<styleUrl>#waypoint</styleUrl>
			<Point>
				<coordinates>123.970914,10.341093,22.9</coordinates>
			</Point>
		</Placemark>
		<Placemark>
			<name>376</name>
			<TimeStamp><when>2024-08-15T00:58:31Z</when>
</TimeStamp>
			<styleUrl>#waypoint</styleUrl>
			<Point>
				<coordinates>123.970868,10.3411,22.86</coordinates>
			</Point>
		</Placemark>
		<Placemark>
			<name>377</name>
			<TimeStamp><when>2024-08-15T00:58:42Z</when>
</TimeStamp>
			<styleUrl>#waypoint</styleUrl>
			<Point>
				<coordinates>123.970877,10.341149,22.41</coordinates>
			</Point>
		</Placemark>
		<Placemark>
			<name>378</name>
			<TimeStamp><when>2024-08-15T00:58:53Z</when>
</TimeStamp>
			<styleUrl>#waypoint</styleUrl>
			<Point>
				<coordinates>123.970885,10.341202,20.95</coordinates>
			</Point>
		</Placemark>
		<Placemark>
			<name>379</name>
			<TimeStamp><when>2024-08-15T00:59:05Z</when>
</TimeStamp>
			<styleUrl>#waypoint</styleUrl>
			<Point>
				<coordinates>123.970896,10.341254,22.4</coordinates>
			</Point>
		</Placemark>
		<Placemark>
			<name>380</name>
			<TimeStamp><when>2024-08-15T00:59:20Z</when>
</TimeStamp>
			<styleUrl>#waypoint</styleUrl>
			<Point>
				<coordinates>123.970915,10.341305,22.31</coordinates>
			</Point>
		</Placemark>
		<Placemark>
			<name>381</name>
			<TimeStamp><when>2024-08-15T00:59:33Z</when>
</TimeStamp>
			<styleUrl>#waypoint</styleUrl>
			<Point>
				<coordinates>123.970915,10.341356,21.97</coordinates>
			</Point>
		</Placemark>
		<Placemark>
			<name>382</name>
			<TimeStamp><when>2024-08-15T00:59:47Z</when>
</TimeStamp>
			<styleUrl>#waypoint</styleUrl>
			<Point>
				<coordinates>123.970863,10.341366,21.84</coordinates>
			</Point>
		</Placemark>
		<Placemark>
			<name>383</name>
			<TimeStamp><when>2024-08-15T01:00:16Z</when>
</TimeStamp>
			<styleUrl>#waypoint</styleUrl>
			<Point>
				<coordinates>123.970841,10.341309,20.94</coordinates>
			</Point>
		</Placemark>
		<Placemark>
			<name>384</name>
			<TimeStamp><when>2024-08-15T01:00:34Z</when>
</TimeStamp>
			<styleUrl>#waypoint</styleUrl>
			<Point>
				<coordinates>123.970835,10.341256,22.26</coordinates>
			</Point>
		</Placemark>
		<Placemark>
			<name>385</name>
			<TimeStamp><when>2024-08-15T01:01:04Z</when>
</TimeStamp>
			<styleUrl>#waypoint</styleUrl>
			<Point>
				<coordinates>123.97083,10.341211,20.27</coordinates>
			</Point>
		</Placemark>
		<Placemark>
			<name>386</name>
			<TimeStamp><when>2024-08-15T01:01:35Z</when>
</TimeStamp>
			<styleUrl>#waypoint</styleUrl>
			<Point>
				<coordinates>123.970822,10.341151,22.92</coordinates>
			</Point>
		</Placemark>
		<Placemark>
			<name>387</name>
			<TimeStamp><when>2024-08-15T01:01:47Z</when>
</TimeStamp>
			<styleUrl>#waypoint</styleUrl>
			<Point>
				<coordinates>123.970819,10.341105,22.6</coordinates>
			</Point>
		</Placemark>
		<Placemark>
			<name>388</name>
			<TimeStamp><when>2024-08-15T01:01:57Z</when>
</TimeStamp>
			<styleUrl>#waypoint</styleUrl>
			<Point>
				<coordinates>123.970774,10.3411,23.05</coordinates>
			</Point>
		</Placemark>
		<Placemark>
			<name>389</name>
			<TimeStamp><when>2024-08-15T01:02:08Z</when>
</TimeStamp>
			<styleUrl>#waypoint</styleUrl>
			<Point>
				<coordinates>123.970775,10.341156,22.7</coordinates>
			</Point>
		</Placemark>
		<Placemark>
			<name>390</name>
			<TimeStamp><when>2024-08-15T01:02:21Z</when>
</TimeStamp>
			<styleUrl>#waypoint</styleUrl>
			<Point>
				<coordinates>123.970783,10.341206,22.04</coordinates>
			</Point>
		</Placemark>
		<Placemark>
			<name>391</name>
			<TimeStamp><when>2024-08-15T01:02:32Z</when>
</TimeStamp>
			<styleUrl>#waypoint</styleUrl>
			<Point>
				<coordinates>123.970788,10.341254,22.07</coordinates>
			</Point>
		</Placemark>
		<Placemark>
			<name>392</name>
			<TimeStamp><when>2024-08-15T01:02:52Z</when>
</TimeStamp>
			<styleUrl>#waypoint</styleUrl>
			<Point>
				<coordinates>123.970793,10.341316,21.82</coordinates>
			</Point>
		</Placemark>
		<Placemark>
			<name>393</name>
			<TimeStamp><when>2024-08-15T01:03:28Z</when>
</TimeStamp>
			<styleUrl>#waypoint</styleUrl>
			<Point>
				<coordinates>123.970731,10.341261,21.98</coordinates>
			</Point>
		</Placemark>
		<Placemark>
			<name>394</name>
			<TimeStamp><when>2024-08-15T01:03:48Z</when>
</TimeStamp>
			<styleUrl>#waypoint</styleUrl>
			<Point>
				<coordinates>123.970727,10.34121,22.14</coordinates>
			</Point>
		</Placemark>
		<Placemark>
			<name>395</name>
			<TimeStamp><when>2024-08-15T01:04:05Z</when>
</TimeStamp>
			<styleUrl>#waypoint</styleUrl>
			<Point>
				<coordinates>123.970717,10.341156,22.34</coordinates>
			</Point>
		</Placemark>
		<Placemark>
			<name>396</name>
			<TimeStamp><when>2024-08-15T01:04:23Z</when>
</TimeStamp>
			<styleUrl>#waypoint</styleUrl>
			<Point>
				<coordinates>123.970714,10.341107,22.34</coordinates>
			</Point>
		</Placemark>
		<Placemark>
			<name>397</name>
			<TimeStamp><when>2024-08-15T01:04:43Z</when>
</TimeStamp>
			<styleUrl>#waypoint</styleUrl>
			<Point>
				<coordinates>123.970665,10.341107,23.26</coordinates>
			</Point>
		</Placemark>
		<Placemark>
			<name>398</name>
			<TimeStamp><when>2024-08-15T01:04:57Z</when>
</TimeStamp>
			<styleUrl>#waypoint</styleUrl>
			<Point>
				<coordinates>123.970673,10.341156,22.27</coordinates>
			</Point>
		</Placemark>
		<Placemark>
			<name>399</name>
			<TimeStamp><when>2024-08-15T01:05:11Z</when>
</TimeStamp>
			<styleUrl>#waypoint</styleUrl>
			<Point>
				<coordinates>123.970675,10.341214,22.36</coordinates>
			</Point>
		</Placemark>
		<Placemark>
			<name>400</name>
			<TimeStamp><when>2024-08-15T01:05:33Z</when>
</TimeStamp>
			<styleUrl>#waypoint</styleUrl>
			<Point>
				<coordinates>123.970684,10.341242,22.15</coordinates>
			</Point>
		</Placemark>
		<Placemark>
			<name>401</name>
			<TimeStamp><when>2024-08-15T01:05:48Z</when>
</TimeStamp>
			<styleUrl>#waypoint</styleUrl>
			<Point>
				<coordinates>123.970643,10.341215,22.05</coordinates>
			</Point>
		</Placemark>
		<Placemark>
			<name>402</name>
			<TimeStamp><when>2024-08-15T01:06:03Z</when>
</TimeStamp>
			<styleUrl>#waypoint</styleUrl>
			<Point>
				<coordinates>123.970599,10.341183,22.02</coordinates>
			</Point>
		</Placemark>
		<Placemark>
			<name>403</name>
			<TimeStamp><when>2024-08-15T01:06:22Z</when>
</TimeStamp>
			<styleUrl>#waypoint</styleUrl>
			<Point>
				<coordinates>123.97061,10.34116,22.18</coordinates>
			</Point>
		</Placemark>
		<Placemark>
			<name>404</name>
			<TimeStamp><when>2024-08-15T01:06:37Z</when>
</TimeStamp>
			<styleUrl>#waypoint</styleUrl>
			<Point>
				<coordinates>123.970612,10.34112,22.32</coordinates>
			</Point>
		</Placemark>
		<Placemark>
			<name>405</name>
			<TimeStamp><when>2024-08-15T01:06:54Z</when>
</TimeStamp>
			<styleUrl>#waypoint</styleUrl>
			<Point>
				<coordinates>123.97057,10.341108,22.3</coordinates>
			</Point>
		</Placemark>
		<Placemark>
			<name>406</name>
			<TimeStamp><when>2024-08-15T01:07:25Z</when>
</TimeStamp>
			<styleUrl>#waypoint</styleUrl>
			<Point>
				<coordinates>123.970558,10.341162,21.95</coordinates>
			</Point>
		</Placemark>
		<Placemark>
			<name>407</name>
			<TimeStamp><when>2024-08-15T01:07:57Z</when>
</TimeStamp>
			<styleUrl>#waypoint</styleUrl>
			<Point>
				<coordinates>123.97051,10.341136,20.12</coordinates>
			</Point>
		</Placemark>
		<Placemark>
			<name>408</name>
			<TimeStamp><when>2024-08-15T01:08:24Z</when>
</TimeStamp>
			<styleUrl>#waypoint</styleUrl>
			<Point>
				<coordinates>123.970467,10.341107,21.2</coordinates>
			</Point>
		</Placemark>
		<Placemark>
			<name>409</name>
			<TimeStamp><when>2024-08-15T01:32:34Z</when>
</TimeStamp>
			<styleUrl>#waypoint</styleUrl>
			<Point>
				<coordinates>123.970352,10.341009,38.5</coordinates>
			</Point>
		</Placemark>
		<Placemark>
			<name>410</name>
			<TimeStamp><when>2024-08-15T01:33:12Z</when>
</TimeStamp>
			<styleUrl>#waypoint</styleUrl>
			<Point>
				<coordinates>123.970338,10.340958,37.82</coordinates>
			</Point>
		</Placemark>
		<Placemark>
			<name>411</name>
			<TimeStamp><when>2024-08-15T01:33:26Z</when>
</TimeStamp>
			<styleUrl>#waypoint</styleUrl>
			<Point>
				<coordinates>123.970343,10.340903,38.95</coordinates>
			</Point>
		</Placemark>
		<Placemark>
			<name>412</name>
			<TimeStamp><when>2024-08-15T01:33:37Z</when>
</TimeStamp>
			<styleUrl>#waypoint</styleUrl>
			<Point>
				<coordinates>123.970355,10.340863,38.8</coordinates>
			</Point>
		</Placemark>
		<Placemark>
			<name>413</name>
			<TimeStamp><when>2024-08-15T01:33:59Z</when>
</TimeStamp>
			<styleUrl>#waypoint</styleUrl>
			<Point>
				<coordinates>123.970363,10.340806,38.76</coordinates>
			</Point>
		</Placemark>
		<Placemark>
			<name>414</name>
			<TimeStamp><when>2024-08-15T01:34:22Z</when>
</TimeStamp>
			<styleUrl>#waypoint</styleUrl>
			<Point>
				<coordinates>123.970417,10.34077,37.89</coordinates>
			</Point>
		</Placemark>
		<Placemark>
			<name>415</name>
			<TimeStamp><when>2024-08-15T01:34:47Z</when>
</TimeStamp>
			<styleUrl>#waypoint</styleUrl>
			<Point>
				<coordinates>123.970407,10.340821,36.8</coordinates>
			</Point>
		</Placemark>
		<Placemark>
			<name>416</name>
			<TimeStamp><when>2024-08-15T01:35:06Z</when>
</TimeStamp>
			<styleUrl>#waypoint</styleUrl>
			<Point>
				<coordinates>123.970407,10.340874,38.32</coordinates>
			</Point>
		</Placemark>
		<Placemark>
			<name>417</name>
			<TimeStamp><when>2024-08-15T01:35:34Z</when>
</TimeStamp>
			<styleUrl>#waypoint</styleUrl>
			<Point>
				<coordinates>123.970399,10.340934,37.5</coordinates>
			</Point>
		</Placemark>
		<Placemark>
			<name>418</name>
			<TimeStamp><when>2024-08-15T01:35:45Z</when>
</TimeStamp>
			<styleUrl>#waypoint</styleUrl>
			<Point>
				<coordinates>123.970394,10.340977,36.82</coordinates>
			</Point>
		</Placemark>
		<Placemark>
			<name>419</name>
			<TimeStamp><when>2024-08-15T01:36:09Z</when>
</TimeStamp>
			<styleUrl>#waypoint</styleUrl>
			<Point>
				<coordinates>123.970389,10.341026,37.25</coordinates>
			</Point>
		</Placemark>
		<Placemark>
			<name>420</name>
			<TimeStamp><when>2024-08-15T01:36:27Z</when>
</TimeStamp>
			<styleUrl>#waypoint</styleUrl>
			<Point>
				<coordinates>123.970436,10.34103,37.8</coordinates>
			</Point>
		</Placemark>
		<Placemark>
			<name>421</name>
			<TimeStamp><when>2024-08-15T01:36:44Z</when>
</TimeStamp>
			<styleUrl>#waypoint</styleUrl>
			<Point>
				<coordinates>123.970448,10.340978,38.09</coordinates>
			</Point>
		</Placemark>
		<Placemark>
			<name>422</name>
			<TimeStamp><when>2024-08-15T01:37:02Z</when>
</TimeStamp>
			<styleUrl>#waypoint</styleUrl>
			<Point>
				<coordinates>123.970443,10.340927,37.95</coordinates>
			</Point>
		</Placemark>
		<Placemark>
			<name>423</name>
			<TimeStamp><when>2024-08-15T01:37:24Z</when>
</TimeStamp>
			<styleUrl>#waypoint</styleUrl>
			<Point>
				<coordinates>123.970444,10.340876,37.77</coordinates>
			</Point>
		</Placemark>
		<Placemark>
			<name>424</name>
			<TimeStamp><when>2024-08-15T01:37:37Z</when>
</TimeStamp>
			<styleUrl>#waypoint</styleUrl>
			<Point>
				<coordinates>123.970452,10.340819,37.97</coordinates>
			</Point>
		</Placemark>
		<Placemark>
			<name>425</name>
			<TimeStamp><when>2024-08-15T01:37:49Z</when>
</TimeStamp>
			<styleUrl>#waypoint</styleUrl>
			<Point>
				<coordinates>123.970454,10.340776,38.02</coordinates>
			</Point>
		</Placemark>
		<Placemark>
			<name>426</name>
			<TimeStamp><when>2024-08-15T01:38:13Z</when>
</TimeStamp>
			<styleUrl>#waypoint</styleUrl>
			<Point>
				<coordinates>123.970456,10.340726,37.91</coordinates>
			</Point>
		</Placemark>
		<Placemark>
			<name>427</name>
			<TimeStamp><when>2024-08-15T01:38:49Z</when>
</TimeStamp>
			<styleUrl>#waypoint</styleUrl>
			<Point>
				<coordinates>123.970495,10.340729,35.34</coordinates>
			</Point>
		</Placemark>
		<Placemark>
			<name>428</name>
			<TimeStamp><when>2024-08-15T01:39:09Z</when>
</TimeStamp>
			<styleUrl>#waypoint</styleUrl>
			<Point>
				<coordinates>123.970497,10.340783,36.98</coordinates>
			</Point>
		</Placemark>
		<Placemark>
			<name>429</name>
			<TimeStamp><when>2024-08-15T01:39:23Z</when>
</TimeStamp>
			<styleUrl>#waypoint</styleUrl>
			<Point>
				<coordinates>123.970499,10.340829,37.44</coordinates>
			</Point>
		</Placemark>
		<Placemark>
			<name>430</name>
			<TimeStamp><when>2024-08-15T01:39:42Z</when>
</TimeStamp>
			<styleUrl>#waypoint</styleUrl>
			<Point>
				<coordinates>123.970494,10.340885,37.07</coordinates>
			</Point>
		</Placemark>
		<Placemark>
			<name>431</name>
			<TimeStamp><when>2024-08-15T01:40:02Z</when>
</TimeStamp>
			<styleUrl>#waypoint</styleUrl>
			<Point>
				<coordinates>123.970496,10.340935,36.83</coordinates>
			</Point>
		</Placemark>
		<Placemark>
			<name>432</name>
			<TimeStamp><when>2024-08-15T01:40:12Z</when>
</TimeStamp>
			<styleUrl>#waypoint</styleUrl>
			<Point>
				<coordinates>123.97049,10.340984,34.31</coordinates>
			</Point>
		</Placemark>
		<Placemark>
			<name>433</name>
			<TimeStamp><when>2024-08-15T01:40:30Z</when>
</TimeStamp>
			<styleUrl>#waypoint</styleUrl>
			<Point>
				<coordinates>123.970484,10.341036,36.09</coordinates>
			</Point>
		</Placemark>
		<Placemark>
			<name>434</name>
			<TimeStamp><when>2024-08-15T01:40:48Z</when>
</TimeStamp>
			<styleUrl>#waypoint</styleUrl>
			<Point>
				<coordinates>123.970532,10.34104,35.83</coordinates>
			</Point>
		</Placemark>
		<Placemark>
			<name>435</name>
			<TimeStamp><when>2024-08-15T01:40:56Z</when>
</TimeStamp>
			<styleUrl>#waypoint</styleUrl>
			<Point>
				<coordinates>123.970533,10.340996,35.9</coordinates>
			</Point>
		</Placemark>
		<Placemark>
			<name>436</name>
			<TimeStamp><when>2024-08-15T01:41:06Z</when>
</TimeStamp>
			<styleUrl>#waypoint</styleUrl>
			<Point>
				<coordinates>123.970534,10.340941,36.08</coordinates>
			</Point>
		</Placemark>
		<Placemark>
			<name>437</name>
			<TimeStamp><when>2024-08-15T01:41:17Z</when>
</TimeStamp>
			<styleUrl>#waypoint</styleUrl>
			<Point>
				<coordinates>123.970538,10.340892,36.54</coordinates>
			</Point>
		</Placemark>
		<Placemark>
			<name>438</name>
			<TimeStamp><when>2024-08-15T01:41:27Z</when>
</TimeStamp>
			<styleUrl>#waypoint</styleUrl>
			<Point>
				<coordinates>123.970545,10.34084,36.47</coordinates>
			</Point>
		</Placemark>
		<Placemark>
			<name>439</name>
			<TimeStamp><when>2024-08-15T01:41:36Z</when>
</TimeStamp>
			<styleUrl>#waypoint</styleUrl>
			<Point>
				<coordinates>123.970545,10.340787,36.53</coordinates>
			</Point>
		</Placemark>
		<Placemark>
			<name>440</name>
			<TimeStamp><when>2024-08-15T01:42:08Z</when>
</TimeStamp>
			<styleUrl>#waypoint</styleUrl>
			<Point>
				<coordinates>123.970546,10.340738,36.69</coordinates>
			</Point>
		</Placemark>
		<Placemark>
			<name>441</name>
			<TimeStamp><when>2024-08-15T01:42:16Z</when>
</TimeStamp>
			<styleUrl>#waypoint</styleUrl>
			<Point>
				<coordinates>123.970574,10.340736,36.62</coordinates>
			</Point>
		</Placemark>
		<Placemark>
			<name>442</name>
			<TimeStamp><when>2024-08-15T01:42:29Z</when>
</TimeStamp>
			<styleUrl>#waypoint</styleUrl>
			<Point>
				<coordinates>123.97058,10.340777,36.94</coordinates>
			</Point>
		</Placemark>
		<Placemark>
			<name>443</name>
			<TimeStamp><when>2024-08-15T01:42:46Z</when>
</TimeStamp>
			<styleUrl>#waypoint</styleUrl>
			<Point>
				<coordinates>123.970586,10.340837,36.72</coordinates>
			</Point>
		</Placemark>
		<Placemark>
			<name>444</name>
			<TimeStamp><when>2024-08-15T01:42:55Z</when>
</TimeStamp>
			<styleUrl>#waypoint</styleUrl>
			<Point>
				<coordinates>123.970582,10.340891,36.54</coordinates>
			</Point>
		</Placemark>
		<Placemark>
			<name>445</name>
			<TimeStamp><when>2024-08-15T01:43:10Z</when>
</TimeStamp>
			<styleUrl>#waypoint</styleUrl>
			<Point>
				<coordinates>123.970582,10.340943,35.44</coordinates>
			</Point>
		</Placemark>
		<Placemark>
			<name>446</name>
			<TimeStamp><when>2024-08-15T01:43:20Z</when>
</TimeStamp>
			<styleUrl>#waypoint</styleUrl>
			<Point>
				<coordinates>123.970581,10.340991,35.72</coordinates>
			</Point>
		</Placemark>
		<Placemark>
			<name>447</name>
			<TimeStamp><when>2024-08-15T01:43:34Z</when>
</TimeStamp>
			<styleUrl>#waypoint</styleUrl>
			<Point>
				<coordinates>123.970579,10.341035,33.7</coordinates>
			</Point>
		</Placemark>
		<Placemark>
			<name>448</name>
			<TimeStamp><when>2024-08-15T01:43:53Z</when>
</TimeStamp>
			<styleUrl>#waypoint</styleUrl>
			<Point>
				<coordinates>123.970619,10.341048,35.24</coordinates>
			</Point>
		</Placemark>
		<Placemark>
			<name>449</name>
			<TimeStamp><when>2024-08-15T01:44:04Z</when>
</TimeStamp>
			<styleUrl>#waypoint</styleUrl>
			<Point>
				<coordinates>123.970626,10.340995,35.83</coordinates>
			</Point>
		</Placemark>
		<Placemark>
			<name>450</name>
			<TimeStamp><when>2024-08-15T01:44:24Z</when>
</TimeStamp>
			<styleUrl>#waypoint</styleUrl>
			<Point>
				<coordinates>123.970623,10.340938,35.65</coordinates>
			</Point>
		</Placemark>
		<Placemark>
			<name>451</name>
			<TimeStamp><when>2024-08-15T01:44:36Z</when>
</TimeStamp>
			<styleUrl>#waypoint</styleUrl>
			<Point>
				<coordinates>123.970619,10.340886,35.71</coordinates>
			</Point>
		</Placemark>
		<Placemark>
			<name>452</name>
			<TimeStamp><when>2024-08-15T01:44:52Z</when>
</TimeStamp>
			<styleUrl>#waypoint</styleUrl>
			<Point>
				<coordinates>123.970621,10.340835,35.95</coordinates>
			</Point>
		</Placemark>
		<Placemark>
			<name>453</name>
			<TimeStamp><when>2024-08-15T01:45:02Z</when>
</TimeStamp>
			<styleUrl>#waypoint</styleUrl>
			<Point>
				<coordinates>123.970619,10.340789,35.4</coordinates>
			</Point>
		</Placemark>
		<Placemark>
			<name>454</name>
			<TimeStamp><when>2024-08-15T01:45:23Z</when>
</TimeStamp>
			<styleUrl>#waypoint</styleUrl>
			<Point>
				<coordinates>123.970619,10.340738,34.85</coordinates>
			</Point>
		</Placemark>
		<Placemark>
			<name>455</name>
			<TimeStamp><when>2024-08-15T01:45:59Z</when>
</TimeStamp>
			<styleUrl>#waypoint</styleUrl>
			<Point>
				<coordinates>123.970706,10.340733,34.3</coordinates>
			</Point>
		</Placemark>
		<Placemark>
			<name>456</name>
			<TimeStamp><when>2024-08-15T01:46:13Z</when>
</TimeStamp>
			<styleUrl>#waypoint</styleUrl>
			<Point>
				<coordinates>123.970706,10.340784,35.02</coordinates>
			</Point>
		</Placemark>
		<Placemark>
			<name>457</name>
			<TimeStamp><when>2024-08-15T01:46:28Z</when>
</TimeStamp>
			<styleUrl>#waypoint</styleUrl>
			<Point>
				<coordinates>123.970714,10.340842,35.47</coordinates>
			</Point>
		</Placemark>
		<Placemark>
			<name>458</name>
			<TimeStamp><when>2024-08-15T01:46:52Z</when>
</TimeStamp>
			<styleUrl>#waypoint</styleUrl>
			<Point>
				<coordinates>123.970715,10.340881,35.38</coordinates>
			</Point>
		</Placemark>
		<Placemark>
			<name>459</name>
			<TimeStamp><when>2024-08-15T01:47:11Z</when>
</TimeStamp>
			<styleUrl>#waypoint</styleUrl>
			<Point>
				<coordinates>123.97072,10.340938,34.82</coordinates>
			</Point>
		</Placemark>
		<Placemark>
			<name>460</name>
			<TimeStamp><when>2024-08-15T01:47:21Z</when>
</TimeStamp>
			<styleUrl>#waypoint</styleUrl>
			<Point>
				<coordinates>123.970723,10.340989,34.9</coordinates>
			</Point>
		</Placemark>
		<Placemark>
			<name>461</name>
			<TimeStamp><when>2024-08-15T01:47:34Z</when>
</TimeStamp>
			<styleUrl>#waypoint</styleUrl>
			<Point>
				<coordinates>123.970725,10.341038,34.98</coordinates>
			</Point>
		</Placemark>
		<Placemark>
			<name>462</name>
			<TimeStamp><when>2024-08-15T01:47:48Z</when>
</TimeStamp>
			<styleUrl>#waypoint</styleUrl>
			<Point>
				<coordinates>123.970766,10.341035,35.11</coordinates>
			</Point>
		</Placemark>
		<Placemark>
			<name>463</name>
			<TimeStamp><when>2024-08-15T01:47:57Z</when>
</TimeStamp>
			<styleUrl>#waypoint</styleUrl>
			<Point>
				<coordinates>123.970769,10.340987,34.27</coordinates>
			</Point>
		</Placemark>
		<Placemark>
			<name>464</name>
			<TimeStamp><when>2024-08-15T01:48:08Z</when>
</TimeStamp>
			<styleUrl>#waypoint</styleUrl>
			<Point>
				<coordinates>123.970762,10.340933,34.8</coordinates>
			</Point>
		</Placemark>
		<Placemark>
			<name>465</name>
			<TimeStamp><when>2024-08-15T01:48:21Z</when>
</TimeStamp>
			<styleUrl>#waypoint</styleUrl>
			<Point>
				<coordinates>123.970753,10.340881,35</coordinates>
			</Point>
		</Placemark>
		<Placemark>
			<name>466</name>
			<TimeStamp><when>2024-08-15T01:48:31Z</when>
</TimeStamp>
			<styleUrl>#waypoint</styleUrl>
			<Point>
				<coordinates>123.970751,10.340828,34.9</coordinates>
			</Point>
		</Placemark>
		<Placemark>
			<name>467</name>
			<TimeStamp><when>2024-08-15T01:48:51Z</when>
</TimeStamp>
			<styleUrl>#waypoint</styleUrl>
			<Point>
				<coordinates>123.97075,10.340784,34.81</coordinates>
			</Point>
		</Placemark>
		<Placemark>
			<name>468</name>
			<TimeStamp><when>2024-08-15T01:49:01Z</when>
</TimeStamp>
			<styleUrl>#waypoint</styleUrl>
			<Point>
				<coordinates>123.970742,10.340728,34.66</coordinates>
			</Point>
		</Placemark>
		<Placemark>
			<name>469</name>
			<TimeStamp><when>2024-08-15T01:49:10Z</when>
</TimeStamp>
			<styleUrl>#waypoint</styleUrl>
			<Point>
				<coordinates>123.970777,10.340722,34.61</coordinates>
			</Point>
		</Placemark>
		<Placemark>
			<name>470</name>
			<TimeStamp><when>2024-08-15T01:50:01Z</when>
</TimeStamp>
			<styleUrl>#waypoint</styleUrl>
			<Point>
				<coordinates>123.970799,10.340782,34.56</coordinates>
			</Point>
		</Placemark>
		<Placemark>
			<name>471</name>
			<TimeStamp><when>2024-08-15T01:50:15Z</when>
</TimeStamp>
			<styleUrl>#waypoint</styleUrl>
			<Point>
				<coordinates>123.970804,10.340831,34.28</coordinates>
			</Point>
		</Placemark>
		<Placemark>
			<name>472</name>
			<TimeStamp><when>2024-08-15T01:50:38Z</when>
</TimeStamp>
			<styleUrl>#waypoint</styleUrl>
			<Point>
				<coordinates>123.970811,10.34088,34.1</coordinates>
			</Point>
		</Placemark>
		<Placemark>
			<name>473</name>
			<TimeStamp><when>2024-08-15T01:50:51Z</when>
</TimeStamp>
			<styleUrl>#waypoint</styleUrl>
			<Point>
				<coordinates>123.97082,10.340932,34.48</coordinates>
			</Point>
		</Placemark>
		<Placemark>
			<name>474</name>
			<TimeStamp><when>2024-08-15T01:51:01Z</when>
</TimeStamp>
			<styleUrl>#waypoint</styleUrl>
			<Point>
				<coordinates>123.970823,10.340984,34.2</coordinates>
			</Point>
		</Placemark>
		<Placemark>
			<name>475</name>
			<TimeStamp><when>2024-08-15T01:51:28Z</when>
</TimeStamp>
			<styleUrl>#waypoint</styleUrl>
			<Point>
				<coordinates>123.970821,10.341037,33.71</coordinates>
			</Point>
		</Placemark>
		<Placemark>
			<name>476</name>
			<TimeStamp><when>2024-08-15T01:51:52Z</when>
</TimeStamp>
			<styleUrl>#waypoint</styleUrl>
			<Point>
				<coordinates>123.970857,10.341031,33.62</coordinates>
			</Point>
		</Placemark>
		<Placemark>
			<name>477</name>
			<TimeStamp><when>2024-08-15T01:52:09Z</when>
</TimeStamp>
			<styleUrl>#waypoint</styleUrl>
			<Point>
				<coordinates>123.970859,10.34097,34.09</coordinates>
			</Point>
		</Placemark>
		<Placemark>
			<name>478</name>
			<TimeStamp><when>2024-08-15T01:52:30Z</when>
</TimeStamp>
			<styleUrl>#waypoint</styleUrl>
			<Point>
				<coordinates>123.970852,10.340914,33.98</coordinates>
			</Point>
		</Placemark>
		<Placemark>
			<name>479</name>
			<TimeStamp><when>2024-08-15T01:52:38Z</when>
</TimeStamp>
			<styleUrl>#waypoint</styleUrl>
			<Point>
				<coordinates>123.970847,10.340866,33.89</coordinates>
			</Point>
		</Placemark>
		<Placemark>
			<name>480</name>
			<TimeStamp><when>2024-08-15T01:52:53Z</when>
</TimeStamp>
			<styleUrl>#waypoint</styleUrl>
			<Point>
				<coordinates>123.970844,10.340816,34.2</coordinates>
			</Point>
		</Placemark>
		<Placemark>
			<name>481</name>
			<TimeStamp><when>2024-08-15T01:53:12Z</when>
</TimeStamp>
			<styleUrl>#waypoint</styleUrl>
			<Point>
				<coordinates>123.970836,10.340765,34.03</coordinates>
			</Point>
		</Placemark>
		<Placemark>
			<name>482</name>
			<TimeStamp><when>2024-08-15T01:53:41Z</when>
</TimeStamp>
			<styleUrl>#waypoint</styleUrl>
			<Point>
				<coordinates>123.970826,10.340726,34.05</coordinates>
			</Point>
		</Placemark>
		<Placemark>
			<name>483</name>
			<TimeStamp><when>2024-08-15T01:54:03Z</when>
</TimeStamp>
			<styleUrl>#waypoint</styleUrl>
			<Point>
				<coordinates>123.970864,10.340713,32.65</coordinates>
			</Point>
		</Placemark>
		<Placemark>
			<name>484</name>
			<TimeStamp><when>2024-08-15T01:54:23Z</when>
</TimeStamp>
			<styleUrl>#waypoint</styleUrl>
			<Point>
				<coordinates>123.970875,10.340752,33.77</coordinates>
			</Point>
		</Placemark>
		<Placemark>
			<name>485</name>
			<TimeStamp><when>2024-08-15T01:54:49Z</when>
</TimeStamp>
			<styleUrl>#waypoint</styleUrl>
			<Point>
				<coordinates>123.970887,10.340816,33.73</coordinates>
			</Point>
		</Placemark>
		<Placemark>
			<name>486</name>
			<TimeStamp><when>2024-08-15T01:55:02Z</when>
</TimeStamp>
			<styleUrl>#waypoint</styleUrl>
			<Point>
				<coordinates>123.970894,10.340869,33.65</coordinates>
			</Point>
		</Placemark>
		<Placemark>
			<name>487</name>
			<TimeStamp><when>2024-08-15T01:55:24Z</when>
</TimeStamp>
			<styleUrl>#waypoint</styleUrl>
			<Point>
				<coordinates>123.970897,10.340917,32.33</coordinates>
			</Point>
		</Placemark>
		<Placemark>
			<name>488</name>
			<TimeStamp><when>2024-08-15T01:55:52Z</when>
</TimeStamp>
			<styleUrl>#waypoint</styleUrl>
			<Point>
				<coordinates>123.970901,10.340968,31.01</coordinates>
			</Point>
		</Placemark>
		<Placemark>
			<name>489</name>
			<TimeStamp><when>2024-08-15T01:56:12Z</when>
</TimeStamp>
			<styleUrl>#waypoint</styleUrl>
			<Point>
				<coordinates>123.970909,10.341014,32.99</coordinates>
			</Point>
		</Placemark>
		<Placemark>
			<name>490</name>
			<TimeStamp><when>2024-08-15T01:56:41Z</when>
</TimeStamp>
			<styleUrl>#waypoint</styleUrl>
			<Point>
				<coordinates>123.970963,10.341005,33.05</coordinates>
			</Point>
		</Placemark>
		<Placemark>
			<name>491</name>
			<TimeStamp><when>2024-08-15T01:57:16Z</when>
</TimeStamp>
			<styleUrl>#waypoint</styleUrl>
			<Point>
				<coordinates>123.970951,10.340955,32.76</coordinates>
			</Point>
		</Placemark>
		<Placemark>
			<name>492</name>
			<TimeStamp><when>2024-08-15T01:58:03Z</when>
</TimeStamp>
			<styleUrl>#waypoint</styleUrl>
			<Point>
				<coordinates>123.970941,10.340905,32.55</coordinates>
			</Point>
		</Placemark>
		<Placemark>
			<name>493</name>
			<TimeStamp><when>2024-08-15T01:58:37Z</when>
</TimeStamp>
			<styleUrl>#waypoint</styleUrl>
			<Point>
				<coordinates>123.970935,10.340865,32.54</coordinates>
			</Point>
		</Placemark>
		<Placemark>
			<name>494</name>
			<TimeStamp><when>2024-08-15T01:58:51Z</when>
</TimeStamp>
			<styleUrl>#waypoint</styleUrl>
			<Point>
				<coordinates>123.970921,10.340803,32.21</coordinates>
			</Point>
		</Placemark>
		<Placemark>
			<name>495</name>
			<TimeStamp><when>2024-08-15T01:59:21Z</when>
</TimeStamp>
			<styleUrl>#waypoint</styleUrl>
			<Point>
				<coordinates>123.970916,10.340755,32.37</coordinates>
			</Point>
		</Placemark>
		<Placemark>
			<name>496</name>
			<TimeStamp><when>2024-08-15T01:59:34Z</when>
</TimeStamp>
			<styleUrl>#waypoint</styleUrl>
			<Point>
				<coordinates>123.97096,10.34079,32.16</coordinates>
			</Point>
		</Placemark>
		<Placemark>
			<name>497</name>
			<TimeStamp><when>2024-08-15T02:00:02Z</when>
</TimeStamp>
			<styleUrl>#waypoint</styleUrl>
			<Point>
				<coordinates>123.970971,10.340837,32.14</coordinates>
			</Point>
		</Placemark>
		<Placemark>
			<name>498</name>
			<TimeStamp><when>2024-08-15T02:00:13Z</when>
</TimeStamp>
			<styleUrl>#waypoint</styleUrl>
			<Point>
				<coordinates>123.970983,10.340894,31.47</coordinates>
			</Point>
		</Placemark>
		<Placemark>
			<name>499</name>
			<TimeStamp><when>2024-08-15T02:00:24Z</when>
</TimeStamp>
			<styleUrl>#waypoint</styleUrl>
			<Point>
				<coordinates>123.970998,10.340946,32.05</coordinates>
			</Point>
		</Placemark>
		<Placemark>
			<name>500</name>
			<TimeStamp><when>2024-08-15T02:00:50Z</when>
</TimeStamp>
			<styleUrl>#waypoint</styleUrl>
			<Point>
				<coordinates>123.971,10.34099,29.99</coordinates>
			</Point>
		</Placemark>
		<Placemark>
			<name>501</name>
			<TimeStamp><when>2024-08-15T02:43:04Z</when>
</TimeStamp>
			<styleUrl>#waypoint</styleUrl>
			<Point>
				<coordinates>123.971229,10.340543,25.61</coordinates>
			</Point>
		</Placemark>
		<Placemark>
			<name>502</name>
			<TimeStamp><when>2024-08-15T02:43:15Z</when>
</TimeStamp>
			<styleUrl>#waypoint</styleUrl>
			<Point>
				<coordinates>123.971191,10.340556,26.03</coordinates>
			</Point>
		</Placemark>
		<Placemark>
			<name>503</name>
			<TimeStamp><when>2024-08-15T02:43:36Z</when>
</TimeStamp>
			<styleUrl>#waypoint</styleUrl>
			<Point>
				<coordinates>123.971155,10.34057,26.12</coordinates>
			</Point>
		</Placemark>
		<Placemark>
			<name>504</name>
			<TimeStamp><when>2024-08-15T02:43:47Z</when>
</TimeStamp>
			<styleUrl>#waypoint</styleUrl>
			<Point>
				<coordinates>123.971115,10.340585,26.32</coordinates>
			</Point>
		</Placemark>
		<Placemark>
			<name>505</name>
			<TimeStamp><when>2024-08-15T02:44:10Z</when>
</TimeStamp>
			<styleUrl>#waypoint</styleUrl>
			<Point>
				<coordinates>123.971078,10.340598,26.09</coordinates>
			</Point>
		</Placemark>
		<Placemark>
			<name>506</name>
			<TimeStamp><when>2024-08-15T02:44:26Z</when>
</TimeStamp>
			<styleUrl>#waypoint</styleUrl>
			<Point>
				<coordinates>123.971063,10.340546,26.58</coordinates>
			</Point>
		</Placemark>
		<Placemark>
			<name>507</name>
			<TimeStamp><when>2024-08-15T02:44:43Z</when>
</TimeStamp>
			<styleUrl>#waypoint</styleUrl>
			<Point>
				<coordinates>123.971092,10.340539,26.3</coordinates>
			</Point>
		</Placemark>
		<Placemark>
			<name>508</name>
			<TimeStamp><when>2024-08-15T02:45:03Z</when>
</TimeStamp>
			<styleUrl>#waypoint</styleUrl>
			<Point>
				<coordinates>123.971123,10.340525,25.53</coordinates>
			</Point>
		</Placemark>
		<Placemark>
			<name>509</name>
			<TimeStamp><when>2024-08-15T02:45:20Z</when>
</TimeStamp>
			<styleUrl>#waypoint</styleUrl>
			<Point>
				<coordinates>123.971165,10.340506,25.84</coordinates>
			</Point>
		</Placemark>
		<Placemark>
			<name>510</name>
			<TimeStamp><when>2024-08-15T02:45:30Z</when>
</TimeStamp>
			<styleUrl>#waypoint</styleUrl>
			<Point>
				<coordinates>123.97119,10.340491,26.13</coordinates>
			</Point>
		</Placemark>
		<Placemark>
			<name>511</name>
			<TimeStamp><when>2024-08-15T02:45:56Z</when>
</TimeStamp>
			<styleUrl>#waypoint</styleUrl>
			<Point>
				<coordinates>123.971184,10.340444,24.98</coordinates>
			</Point>
		</Placemark>
		<Placemark>
			<name>512</name>
			<TimeStamp><when>2024-08-15T02:46:08Z</when>
</TimeStamp>
			<styleUrl>#waypoint</styleUrl>
			<Point>
				<coordinates>123.971154,10.340462,25.91</coordinates>
			</Point>
		</Placemark>
		<Placemark>
			<name>513</name>
			<TimeStamp><when>2024-08-15T02:46:16Z</when>
</TimeStamp>
			<styleUrl>#waypoint</styleUrl>
			<Point>
				<coordinates>123.971123,10.340476,25.89</coordinates>
			</Point>
		</Placemark>
		<Placemark>
			<name>514</name>
			<TimeStamp><when>2024-08-15T02:46:48Z</when>
</TimeStamp>
			<styleUrl>#waypoint</styleUrl>
			<Point>
				<coordinates>123.971085,10.340495,26.43</coordinates>
			</Point>
		</Placemark>
		<Placemark>
			<name>515</name>
			<TimeStamp><when>2024-08-15T02:49:02Z</when>
</TimeStamp>
			<styleUrl>#waypoint</styleUrl>
			<Point>
				<coordinates>123.971046,10.340514,26.6</coordinates>
			</Point>
		</Placemark>
		<Placemark>
			<name>516</name>
			<TimeStamp><when>2024-08-15T02:49:25Z</when>
</TimeStamp>
			<styleUrl>#waypoint</styleUrl>
			<Point>
				<coordinates>123.971008,10.34052,26.5</coordinates>
			</Point>
		</Placemark>
		<Placemark>
			<name>517</name>
			<TimeStamp><when>2024-08-15T02:49:39Z</when>
</TimeStamp>
			<styleUrl>#waypoint</styleUrl>
			<Point>
				<coordinates>123.970984,10.340527,26.58</coordinates>
			</Point>
		</Placemark>
		<Placemark>
			<name>518</name>
			<TimeStamp><when>2024-08-15T02:49:47Z</when>
</TimeStamp>
			<styleUrl>#waypoint</styleUrl>
			<Point>
				<coordinates>123.97097,10.340491,26.55</coordinates>
			</Point>
		</Placemark>
		<Placemark>
			<name>519</name>
			<TimeStamp><when>2024-08-15T02:49:55Z</when>
</TimeStamp>
			<styleUrl>#waypoint</styleUrl>
			<Point>
				<coordinates>123.970991,10.340476,26.19</coordinates>
			</Point>
		</Placemark>
		<Placemark>
			<name>520</name>
			<TimeStamp><when>2024-08-15T02:50:06Z</when>
</TimeStamp>
			<styleUrl>#waypoint</styleUrl>
			<Point>
				<coordinates>123.971028,10.34046,26.51</coordinates>
			</Point>
		</Placemark>
		<Placemark>
			<name>521</name>
			<TimeStamp><when>2024-08-15T02:50:16Z</when>
</TimeStamp>
			<styleUrl>#waypoint</styleUrl>
			<Point>
				<coordinates>123.971055,10.340451,26.57</coordinates>
			</Point>
		</Placemark>
		<Placemark>
			<name>522</name>
			<TimeStamp><when>2024-08-15T02:50:25Z</when>
</TimeStamp>
			<styleUrl>#waypoint</styleUrl>
			<Point>
				<coordinates>123.971085,10.340441,26.76</coordinates>
			</Point>
		</Placemark>
		<Placemark>
			<name>523</name>
			<TimeStamp><when>2024-08-15T02:50:34Z</when>
</TimeStamp>
			<styleUrl>#waypoint</styleUrl>
			<Point>
				<coordinates>123.971114,10.340426,26.61</coordinates>
			</Point>
		</Placemark>
		<Placemark>
			<name>524</name>
			<TimeStamp><when>2024-08-15T02:50:44Z</when>
</TimeStamp>
			<styleUrl>#waypoint</styleUrl>
			<Point>
				<coordinates>123.971149,10.340413,26.32</coordinates>
			</Point>
		</Placemark>
		<Placemark>
			<name>525</name>
			<TimeStamp><when>2024-08-15T02:51:03Z</when>
</TimeStamp>
			<styleUrl>#waypoint</styleUrl>
			<Point>
				<coordinates>123.971143,10.340371,25.55</coordinates>
			</Point>
		</Placemark>
		<Placemark>
			<name>526</name>
			<TimeStamp><when>2024-08-15T02:51:14Z</when>
</TimeStamp>
			<styleUrl>#waypoint</styleUrl>
			<Point>
				<coordinates>123.971085,10.340385,25.88</coordinates>
			</Point>
		</Placemark>
		<Placemark>
			<name>527</name>
			<TimeStamp><when>2024-08-15T02:51:27Z</when>
</TimeStamp>
			<styleUrl>#waypoint</styleUrl>
			<Point>
				<coordinates>123.97103,10.340408,26.52</coordinates>
			</Point>
		</Placemark>
		<Placemark>
			<name>528</name>
			<TimeStamp><when>2024-08-15T02:51:38Z</when>
</TimeStamp>
			<styleUrl>#waypoint</styleUrl>
			<Point>
				<coordinates>123.970965,10.340429,26.85</coordinates>
			</Point>
		</Placemark>
		<Placemark>
			<name>529</name>
			<TimeStamp><when>2024-08-15T02:51:58Z</when>
</TimeStamp>
			<styleUrl>#waypoint</styleUrl>
			<Point>
				<coordinates>123.970945,10.340388,25.77</coordinates>
			</Point>
		</Placemark>
		<Placemark>
			<name>530</name>
			<TimeStamp><when>2024-08-15T02:55:29Z</when>
</TimeStamp>
			<styleUrl>#waypoint</styleUrl>
			<Point>
				<coordinates>123.970995,10.340361,26.31</coordinates>
			</Point>
		</Placemark>
		<Placemark>
			<name>531</name>
			<TimeStamp><when>2024-08-15T02:55:44Z</when>
</TimeStamp>
			<styleUrl>#waypoint</styleUrl>
			<Point>
				<coordinates>123.971062,10.34034,25.36</coordinates>
			</Point>
		</Placemark>
		<Placemark>
			<name>532</name>
			<TimeStamp><when>2024-08-15T02:55:56Z</when>
</TimeStamp>
			<styleUrl>#waypoint</styleUrl>
			<Point>
				<coordinates>123.971116,10.340316,25.63</coordinates>
			</Point>
		</Placemark>
		<Placemark>
			<name>533</name>
			<TimeStamp><when>2024-08-15T02:56:15Z</when>
</TimeStamp>
			<styleUrl>#waypoint</styleUrl>
			<Point>
				<coordinates>123.971105,10.340269,25.95</coordinates>
			</Point>
		</Placemark>
		<Placemark>
			<name>534</name>
			<TimeStamp><when>2024-08-15T02:56:26Z</when>
</TimeStamp>
			<styleUrl>#waypoint</styleUrl>
			<Point>
				<coordinates>123.971054,10.34029,25.24</coordinates>
			</Point>
		</Placemark>
		<Placemark>
			<name>535</name>
			<TimeStamp><when>2024-08-15T02:56:40Z</when>
</TimeStamp>
			<styleUrl>#waypoint</styleUrl>
			<Point>
				<coordinates>123.97099,10.340322,25.57</coordinates>
			</Point>
		</Placemark>
		<Placemark>
			<name>536</name>
			<TimeStamp><when>2024-08-15T02:56:52Z</when>
</TimeStamp>
			<styleUrl>#waypoint</styleUrl>
			<Point>
				<coordinates>123.970933,10.340341,25.77</coordinates>
			</Point>
		</Placemark>
		<Placemark>
			<name>537</name>
			<TimeStamp><when>2024-08-15T02:57:34Z</when>
</TimeStamp>
			<styleUrl>#waypoint</styleUrl>
			<Point>
				<coordinates>123.970868,10.340362,26.64</coordinates>
			</Point>
		</Placemark>
		<Placemark>
			<name>538</name>
			<TimeStamp><when>2024-08-15T02:57:55Z</when>
</TimeStamp>
			<styleUrl>#waypoint</styleUrl>
			<Point>
				<coordinates>123.97081,10.340371,26.88</coordinates>
			</Point>
		</Placemark>
		<Placemark>
			<name>539</name>
			<TimeStamp><when>2024-08-15T02:58:07Z</when>
</TimeStamp>
			<styleUrl>#waypoint</styleUrl>
			<Point>
				<coordinates>123.97075,10.34038,26.87</coordinates>
			</Point>
		</Placemark>
		<Placemark>
			<name>540</name>
			<TimeStamp><when>2024-08-15T02:58:21Z</when>
</TimeStamp>
			<styleUrl>#waypoint</styleUrl>
			<Point>
				<coordinates>123.970689,10.340381,26.85</coordinates>
			</Point>
		</Placemark>
		<Placemark>
			<name>541</name>
			<TimeStamp><when>2024-08-15T02:58:49Z</when>
</TimeStamp>
			<styleUrl>#waypoint</styleUrl>
			<Point>
				<coordinates>123.970684,10.340426,26.53</coordinates>
			</Point>
		</Placemark>
		<Placemark>
			<name>542</name>
			<TimeStamp><when>2024-08-15T02:59:03Z</when>
</TimeStamp>
			<styleUrl>#waypoint</styleUrl>
			<Point>
				<coordinates>123.970744,10.340427,26.55</coordinates>
			</Point>
		</Placemark>
		<Placemark>
			<name>543</name>
			<TimeStamp><when>2024-08-15T02:59:14Z</when>
</TimeStamp>
			<styleUrl>#waypoint</styleUrl>
			<Point>
				<coordinates>123.970804,10.340413,25.8</coordinates>
			</Point>
		</Placemark>
		<Placemark>
			<name>544</name>
			<TimeStamp><when>2024-08-15T02:59:27Z</when>
</TimeStamp>
			<styleUrl>#waypoint</styleUrl>
			<Point>
				<coordinates>123.970873,10.340396,25.93</coordinates>
			</Point>
		</Placemark>
		<Placemark>
			<name>545</name>
			<TimeStamp><when>2024-08-15T02:59:40Z</when>
</TimeStamp>
			<styleUrl>#waypoint</styleUrl>
			<Point>
				<coordinates>123.970887,10.340446,26.26</coordinates>
			</Point>
		</Placemark>
		<Placemark>
			<name>546</name>
			<TimeStamp><when>2024-08-15T03:00:03Z</when>
</TimeStamp>
			<styleUrl>#waypoint</styleUrl>
			<Point>
				<coordinates>123.970829,10.340467,26.3</coordinates>
			</Point>
		</Placemark>
		<Placemark>
			<name>547</name>
			<TimeStamp><when>2024-08-15T03:00:20Z</when>
</TimeStamp>
			<styleUrl>#waypoint</styleUrl>
			<Point>
				<coordinates>123.970764,10.340475,26.29</coordinates>
			</Point>
		</Placemark>
		<Placemark>
			<name>548</name>
			<TimeStamp><when>2024-08-15T03:00:45Z</when>
</TimeStamp>
			<styleUrl>#waypoint</styleUrl>
			<Point>
				<coordinates>123.970693,10.340483,26.15</coordinates>
			</Point>
		</Placemark>
		<Placemark>
			<name>549</name>
			<TimeStamp><when>2024-08-15T03:00:59Z</when>
</TimeStamp>
			<styleUrl>#waypoint</styleUrl>
			<Point>
				<coordinates>123.970688,10.340528,26.12</coordinates>
			</Point>
		</Placemark>
		<Placemark>
			<name>550</name>
			<TimeStamp><when>2024-08-15T03:01:09Z</when>
</TimeStamp>
			<styleUrl>#waypoint</styleUrl>
			<Point>
				<coordinates>123.970723,10.340528,24.43</coordinates>
			</Point>
		</Placemark>
		<Placemark>
			<name>551</name>
			<TimeStamp><when>2024-08-15T03:01:21Z</when>
</TimeStamp>
			<styleUrl>#waypoint</styleUrl>
			<Point>
				<coordinates>123.970761,10.340522,25.83</coordinates>
			</Point>
		</Placemark>
		<Placemark>
			<name>552</name>
			<TimeStamp><when>2024-08-15T03:01:44Z</when>
</TimeStamp>
			<styleUrl>#waypoint</styleUrl>
			<Point>
				<coordinates>123.970793,10.34051,26.02</coordinates>
			</Point>
		</Placemark>
		<Placemark>
			<name>553</name>
			<TimeStamp><when>2024-08-15T03:01:54Z</when>
</TimeStamp>
			<styleUrl>#waypoint</styleUrl>
			<Point>
				<coordinates>123.970827,10.340502,26.06</coordinates>
			</Point>
		</Placemark>
		<Placemark>
			<name>554</name>
			<TimeStamp><when>2024-08-15T03:02:04Z</when>
</TimeStamp>
			<styleUrl>#waypoint</styleUrl>
			<Point>
				<coordinates>123.970866,10.340497,25.74</coordinates>
			</Point>
		</Placemark>
		<Placemark>
			<name>555</name>
			<TimeStamp><when>2024-08-15T03:02:14Z</when>
</TimeStamp>
			<styleUrl>#waypoint</styleUrl>
			<Point>
				<coordinates>123.970899,10.340492,25.72</coordinates>
			</Point>
		</Placemark>
		<Placemark>
			<name>556</name>
			<TimeStamp><when>2024-08-15T03:03:07Z</when>
</TimeStamp>
			<styleUrl>#waypoint</styleUrl>
			<Point>
				<coordinates>123.970905,10.340542,24.63</coordinates>
			</Point>
		</Placemark>
		<Placemark>
			<name>557</name>
			<TimeStamp><when>2024-08-15T03:03:24Z</when>
</TimeStamp>
			<styleUrl>#waypoint</styleUrl>
			<Point>
				<coordinates>123.970874,10.340558,26.08</coordinates>
			</Point>
		</Placemark>
		<Placemark>
			<name>558</name>
			<TimeStamp><when>2024-08-15T03:03:40Z</when>
</TimeStamp>
			<styleUrl>#waypoint</styleUrl>
			<Point>
				<coordinates>123.970841,10.340567,25.64</coordinates>
			</Point>
		</Placemark>
		<Placemark>
			<name>559</name>
			<TimeStamp><when>2024-08-15T03:03:55Z</when>
</TimeStamp>
			<styleUrl>#waypoint</styleUrl>
			<Point>
				<coordinates>123.970811,10.340573,25.83</coordinates>
			</Point>
		</Placemark>
		<Placemark>
			<name>560</name>
			<TimeStamp><when>2024-08-15T03:04:07Z</when>
</TimeStamp>
			<styleUrl>#waypoint</styleUrl>
			<Point>
				<coordinates>123.970773,10.340575,26.1</coordinates>
			</Point>
		</Placemark>
		<Placemark>
			<name>561</name>
			<TimeStamp><when>2024-08-15T03:04:19Z</when>
</TimeStamp>
			<styleUrl>#waypoint</styleUrl>
			<Point>
				<coordinates>123.970733,10.340578,25.88</coordinates>
			</Point>
		</Placemark>
		<Placemark>
			<name>562</name>
			<TimeStamp><when>2024-08-15T03:04:48Z</when>
</TimeStamp>
			<styleUrl>#waypoint</styleUrl>
			<Point>
				<coordinates>123.970699,10.340576,24.14</coordinates>
			</Point>
		</Placemark>
		<Placemark>
			<name>563</name>
			<TimeStamp><when>2024-08-15T03:05:05Z</when>
</TimeStamp>
			<styleUrl>#waypoint</styleUrl>
			<Point>
				<coordinates>123.970692,10.340625,25.45</coordinates>
			</Point>
		</Placemark>
		<Placemark>
			<name>564</name>
			<TimeStamp><when>2024-08-15T03:05:29Z</when>
</TimeStamp>
			<styleUrl>#waypoint</styleUrl>
			<Point>
				<coordinates>123.970726,10.34062,24.82</coordinates>
			</Point>
		</Placemark>
		<Placemark>
			<name>565</name>
			<TimeStamp><when>2024-08-15T03:05:48Z</when>
</TimeStamp>
			<styleUrl>#waypoint</styleUrl>
			<Point>
				<coordinates>123.970771,10.340611,25.95</coordinates>
			</Point>
		</Placemark>
		<Placemark>
			<name>566</name>
			<TimeStamp><when>2024-08-15T03:06:03Z</when>
</TimeStamp>
			<styleUrl>#waypoint</styleUrl>
			<Point>
				<coordinates>123.970807,10.340605,25.39</coordinates>
			</Point>
		</Placemark>
		<Placemark>
			<name>567</name>
			<TimeStamp><when>2024-08-15T03:06:21Z</when>
</TimeStamp>
			<styleUrl>#waypoint</styleUrl>
			<Point>
				<coordinates>123.970843,10.340603,25.72</coordinates>
			</Point>
		</Placemark>
		<Placemark>
			<name>568</name>
			<TimeStamp><when>2024-08-15T03:06:38Z</when>
</TimeStamp>
			<styleUrl>#waypoint</styleUrl>
			<Point>
				<coordinates>123.970854,10.340642,26.22</coordinates>
			</Point>
		</Placemark>
		<Placemark>
			<name>569</name>
			<TimeStamp><when>2024-08-15T03:06:56Z</when>
</TimeStamp>
			<styleUrl>#waypoint</styleUrl>
			<Point>
				<coordinates>123.970818,10.340662,26.01</coordinates>
			</Point>
		</Placemark>
		<Placemark>
			<name>570</name>
			<TimeStamp><when>2024-08-15T03:07:05Z</when>
</TimeStamp>
			<styleUrl>#waypoint</styleUrl>
			<Point>
				<coordinates>123.97078,10.340667,26.11</coordinates>
			</Point>
		</Placemark>
		<Placemark>
			<name>571</name>
			<TimeStamp><when>2024-08-15T03:07:19Z</when>
</TimeStamp>
			<styleUrl>#waypoint</styleUrl>
			<Point>
				<coordinates>123.970736,10.340671,23.4</coordinates>
			</Point>
		</Placemark>
		<Placemark>
			<name>572</name>
			<TimeStamp><when>2024-08-15T03:07:29Z</when>
</TimeStamp>
			<styleUrl>#waypoint</styleUrl>
			<Point>
				<coordinates>123.970705,10.340673,23.39</coordinates>
			</Point>
		</Placemark>
		<Placemark>
			<name>573</name>
			<TimeStamp><when>2024-08-15T03:09:11Z</when>
</TimeStamp>
			<styleUrl>#waypoint</styleUrl>
			<Point>
				<coordinates>123.970624,10.340673,25.06</coordinates>
			</Point>
		</Placemark>
		<Placemark>
			<name>574</name>
			<TimeStamp><when>2024-08-15T03:09:29Z</when>
</TimeStamp>
			<styleUrl>#waypoint</styleUrl>
			<Point>
				<coordinates>123.970587,10.340675,25.82</coordinates>
			</Point>
		</Placemark>
		<Placemark>
			<name>575</name>
			<TimeStamp><when>2024-08-15T03:09:37Z</when>
</TimeStamp>
			<styleUrl>#waypoint</styleUrl>
			<Point>
				<coordinates>123.97055,10.340674,25.78</coordinates>
			</Point>
		</Placemark>
		<Placemark>
			<name>576</name>
			<TimeStamp><when>2024-08-15T03:09:50Z</when>
</TimeStamp>
			<styleUrl>#waypoint</styleUrl>
			<Point>
				<coordinates>123.970504,10.340672,25.25</coordinates>
			</Point>
		</Placemark>
		<Placemark>
			<name>577</name>
			<TimeStamp><when>2024-08-15T03:09:58Z</when>
</TimeStamp>
			<styleUrl>#waypoint</styleUrl>
			<Point>
				<coordinates>123.970469,10.340668,25.24</coordinates>
			</Point>
		</Placemark>
		<Placemark>
			<name>578</name>
			<TimeStamp><when>2024-08-15T03:10:11Z</when>
</TimeStamp>
			<styleUrl>#waypoint</styleUrl>
			<Point>
				<coordinates>123.97047,10.340622,25.72</coordinates>
			</Point>
		</Placemark>
		<Placemark>
			<name>579</name>
			<TimeStamp><when>2024-08-15T03:10:18Z</when>
</TimeStamp>
			<styleUrl>#waypoint</styleUrl>
			<Point>
				<coordinates>123.970504,10.340619,25.7</coordinates>
			</Point>
		</Placemark>
		<Placemark>
			<name>580</name>
			<TimeStamp><when>2024-08-15T03:10:26Z</when>
</TimeStamp>
			<styleUrl>#waypoint</styleUrl>
			<Point>
				<coordinates>123.970542,10.340617,25.69</coordinates>
			</Point>
		</Placemark>
		<Placemark>
			<name>581</name>
			<TimeStamp><when>2024-08-15T03:10:44Z</when>
</TimeStamp>
			<styleUrl>#waypoint</styleUrl>
			<Point>
				<coordinates>123.970582,10.340616,25.66</coordinates>
			</Point>
		</Placemark>
		<Placemark>
			<name>582</name>
			<TimeStamp><when>2024-08-15T03:10:57Z</when>
</TimeStamp>
			<styleUrl>#waypoint</styleUrl>
			<Point>
				<coordinates>123.970621,10.340618,25.16</coordinates>
			</Point>
		</Placemark>
		<Placemark>
			<name>583</name>
			<TimeStamp><when>2024-08-15T03:11:09Z</when>
</TimeStamp>
			<styleUrl>#waypoint</styleUrl>
			<Point>
				<coordinates>123.970622,10.340573,25.79</coordinates>
			</Point>
		</Placemark>
		<Placemark>
			<name>584</name>
			<TimeStamp><when>2024-08-15T03:11:17Z</when>
</TimeStamp>
			<styleUrl>#waypoint</styleUrl>
			<Point>
				<coordinates>123.970588,10.340569,25.85</coordinates>
			</Point>
		</Placemark>
		<Placemark>
			<name>585</name>
			<TimeStamp><when>2024-08-15T03:11:31Z</when>
</TimeStamp>
			<styleUrl>#waypoint</styleUrl>
			<Point>
				<coordinates>123.970551,10.340572,25.77</coordinates>
			</Point>
		</Placemark>
		<Placemark>
			<name>586</name>
			<TimeStamp><when>2024-08-15T03:11:40Z</when>
</TimeStamp>
			<styleUrl>#waypoint</styleUrl>
			<Point>
				<coordinates>123.970518,10.34057,25.57</coordinates>
			</Point>
		</Placemark>
		<Placemark>
			<name>587</name>
			<TimeStamp><when>2024-08-15T03:11:53Z</when>
</TimeStamp>
			<styleUrl>#waypoint</styleUrl>
			<Point>
				<coordinates>123.97048,10.340572,25.85</coordinates>
			</Point>
		</Placemark>
		<Placemark>
			<name>588</name>
			<TimeStamp><when>2024-08-15T03:12:07Z</when>
</TimeStamp>
			<styleUrl>#waypoint</styleUrl>
			<Point>
				<coordinates>123.970448,10.340565,25.71</coordinates>
			</Point>
		</Placemark>
		<Placemark>
			<name>589</name>
			<TimeStamp><when>2024-08-15T03:12:18Z</when>
</TimeStamp>
			<styleUrl>#waypoint</styleUrl>
			<Point>
				<coordinates>123.970409,10.340564,26.21</coordinates>
			</Point>
		</Placemark>
		<Placemark>
			<name>590</name>
			<TimeStamp><when>2024-08-15T03:12:29Z</when>
</TimeStamp>
			<styleUrl>#waypoint</styleUrl>
			<Point>
				<coordinates>123.970417,10.340518,26.32</coordinates>
			</Point>
		</Placemark>
		<Placemark>
			<name>591</name>
			<TimeStamp><when>2024-08-15T03:12:37Z</when>
</TimeStamp>
			<styleUrl>#waypoint</styleUrl>
			<Point>
				<coordinates>123.970445,10.340515,26.3</coordinates>
			</Point>
		</Placemark>
		<Placemark>
			<name>592</name>
			<TimeStamp><when>2024-08-15T03:12:47Z</when>
</TimeStamp>
			<styleUrl>#waypoint</styleUrl>
			<Point>
				<coordinates>123.970482,10.340517,25.47</coordinates>
			</Point>
		</Placemark>
		<Placemark>
			<name>593</name>
			<TimeStamp><when>2024-08-15T03:12:57Z</when>
</TimeStamp>
			<styleUrl>#waypoint</styleUrl>
			<Point>
				<coordinates>123.970516,10.340519,26.39</coordinates>
			</Point>
		</Placemark>
		<Placemark>
			<name>594</name>
			<TimeStamp><when>2024-08-15T03:13:06Z</when>
</TimeStamp>
			<styleUrl>#waypoint</styleUrl>
			<Point>
				<coordinates>123.970548,10.340521,26.37</coordinates>
			</Point>
		</Placemark>
		<Placemark>
			<name>595</name>
			<TimeStamp><when>2024-08-15T03:13:15Z</when>
</TimeStamp>
			<styleUrl>#waypoint</styleUrl>
			<Point>
				<coordinates>123.970586,10.34052,26.27</coordinates>
			</Point>
		</Placemark>
		<Placemark>
			<name>596</name>
			<TimeStamp><when>2024-08-15T03:13:24Z</when>
</TimeStamp>
			<styleUrl>#waypoint</styleUrl>
			<Point>
				<coordinates>123.970621,10.340526,25.51</coordinates>
			</Point>
		</Placemark>
		<Placemark>
			<name>597</name>
			<TimeStamp><when>2024-08-15T03:13:36Z</when>
</TimeStamp>
			<styleUrl>#waypoint</styleUrl>
			<Point>
				<coordinates>123.970633,10.340475,26.57</coordinates>
			</Point>
		</Placemark>
		<Placemark>
			<name>598</name>
			<TimeStamp><when>2024-08-15T03:13:47Z</when>
</TimeStamp>
			<styleUrl>#waypoint</styleUrl>
			<Point>
				<coordinates>123.970564,10.340476,26.87</coordinates>
			</Point>
		</Placemark>
		<Placemark>
			<name>599</name>
			<TimeStamp><when>2024-08-15T03:13:59Z</when>
</TimeStamp>
			<styleUrl>#waypoint</styleUrl>
			<Point>
				<coordinates>123.970498,10.340476,25.06</coordinates>
			</Point>
		</Placemark>
		<Placemark>
			<name>600</name>
			<TimeStamp><when>2024-08-15T03:14:17Z</when>
</TimeStamp>
			<styleUrl>#waypoint</styleUrl>
			<Point>
				<coordinates>123.970429,10.34047,26.12</coordinates>
			</Point>
		</Placemark>
		<Placemark>
			<name>601</name>
			<TimeStamp><when>2024-08-15T03:14:33Z</when>
</TimeStamp>
			<styleUrl>#waypoint</styleUrl>
			<Point>
				<coordinates>123.970435,10.340421,26.59</coordinates>
			</Point>
		</Placemark>
		<Placemark>
			<name>602</name>
			<TimeStamp><when>2024-08-15T03:15:29Z</when>
</TimeStamp>
			<styleUrl>#waypoint</styleUrl>
			<Point>
				<coordinates>123.970495,10.340418,26.51</coordinates>
			</Point>
		</Placemark>
		<Placemark>
			<name>603</name>
			<TimeStamp><when>2024-08-15T03:15:41Z</when>
</TimeStamp>
			<styleUrl>#waypoint</styleUrl>
			<Point>
				<coordinates>123.970562,10.340424,25.93</coordinates>
			</Point>
		</Placemark>
		<Placemark>
			<name>604</name>
			<TimeStamp><when>2024-08-15T03:15:53Z</when>
</TimeStamp>
			<styleUrl>#waypoint</styleUrl>
			<Point>
				<coordinates>123.970624,10.340428,26.3</coordinates>
			</Point>
		</Placemark>
		<Placemark>
			<name>605</name>
			<TimeStamp><when>2024-08-15T03:16:03Z</when>
</TimeStamp>
			<styleUrl>#waypoint</styleUrl>
			<Point>
				<coordinates>123.970631,10.34038,26.45</coordinates>
			</Point>
		</Placemark>
		<Placemark>
			<name>606</name>
			<TimeStamp><when>2024-08-15T03:16:14Z</when>
</TimeStamp>
			<styleUrl>#waypoint</styleUrl>
			<Point>
				<coordinates>123.970577,10.340377,26.53</coordinates>
			</Point>
		</Placemark>
		<Placemark>
			<name>607</name>
			<TimeStamp><when>2024-08-15T03:16:25Z</when>
</TimeStamp>
			<styleUrl>#waypoint</styleUrl>
			<Point>
				<coordinates>123.97051,10.340382,26.17</coordinates>
			</Point>
		</Placemark>
		<Placemark>
			<name>608</name>
			<TimeStamp><when>2024-08-15T03:16:37Z</when>
</TimeStamp>
			<styleUrl>#waypoint</styleUrl>
			<Point>
				<coordinates>123.970448,10.340374,26.24</coordinates>
			</Point>
		</Placemark>
	</Folder>
</Document>
</kml>
