<?xml version="1.0" encoding="UTF-8" standalone="no" ?><gpx xmlns="http://www.topografix.com/GPX/1/1" xmlns:gpxx="http://www.garmin.com/xmlschemas/GpxExtensions/v3" xmlns:wptx1="http://www.garmin.com/xmlschemas/WaypointExtension/v1" xmlns:gpxtpx="http://www.garmin.com/xmlschemas/TrackPointExtension/v1" creator="eTrex 22x" version="1.1" xmlns:xsi="http://www.w3.org/2001/XMLSchema-instance" xsi:schemaLocation="http://www.topografix.com/GPX/1/1 http://www.topografix.com/GPX/1/1/gpx.xsd http://www.garmin.com/xmlschemas/GpxExtensions/v3 http://www8.garmin.com/xmlschemas/GpxExtensionsv3.xsd http://www.garmin.com/xmlschemas/TrackStatsExtension/v1 http://www8.garmin.com/xmlschemas/TrackStatsExtension.xsd http://www.garmin.com/xmlschemas/WaypointExtension/v1 http://www8.garmin.com/xmlschemas/WaypointExtensionv1.xsd http://www.garmin.com/xmlschemas/TrackPointExtension/v1 http://www.garmin.com/xmlschemas/TrackPointExtensionv1.xsd"><metadata><link href="http://www.garmin.com"><text>Garmin International</text></link><time>2024-10-01T01:42:21Z</time></metadata><wpt lat="10.332912" lon="123.961580"><ele>6.208267</ele><time>2024-10-01T01:42:21Z</time><name>1928</name><sym>Flag, Blue</sym></wpt><wpt lat="10.332931" lon="123.961586"><ele>11.646278</ele><time>2024-10-01T01:44:22Z</time><name>1929</name><sym>Flag, Blue</sym></wpt><wpt lat="10.332962" lon="123.961569"><ele>11.544830</ele><time>2024-10-01T01:44:48Z</time><name>1930</name><sym>Flag, Blue</sym></wpt><wpt lat="10.332971" lon="123.961555"><ele>11.438339</ele><time>2024-10-01T01:44:59Z</time><name>1931</name><sym>Flag, Blue</sym></wpt><wpt lat="10.332980" lon="123.961554"><ele>11.251823</ele><time>2024-10-01T01:45:06Z</time><name>1932</name><sym>Flag, Blue</sym></wpt><wpt lat="10.332987" lon="123.961547"><ele>11.082199</ele><time>2024-10-01T01:45:18Z</time><name>1933</name><sym>Flag, Blue</sym></wpt><wpt lat="10.333002" lon="123.961544"><ele>10.716232</ele><time>2024-10-01T01:45:28Z</time><name>1934</name><sym>Flag, Blue</sym></wpt><wpt lat="10.332977" lon="123.961544"><ele>9.453859</ele><time>2024-10-01T01:45:44Z</time><name>1935</name><sym>Flag, Blue</sym></wpt><wpt lat="10.332998" lon="123.961522"><ele>6.752491</ele><time>2024-10-01T01:46:08Z</time><name>1936</name><sym>Flag, Blue</sym></wpt><wpt lat="10.333017" lon="123.961518"><ele>6.344027</ele><time>2024-10-01T01:46:16Z</time><name>1937</name><sym>Flag, Blue</sym></wpt><wpt lat="10.333029" lon="123.961495"><ele>4.846321</ele><time>2024-10-01T01:46:25Z</time><name>1938</name><sym>Flag, Blue</sym></wpt><wpt lat="10.333054" lon="123.961476"><ele>5.081608</ele><time>2024-10-01T01:46:39Z</time><name>1939</name><sym>Flag, Blue</sym></wpt><wpt lat="10.333168" lon="123.961403"><ele>6.247500</ele><time>2024-10-01T01:47:10Z</time><name>1940</name><sym>Flag, Blue</sym></wpt><wpt lat="10.333175" lon="123.961391"><ele>5.511852</ele><time>2024-10-01T01:47:19Z</time><name>1941</name><sym>Flag, Blue</sym></wpt><wpt lat="10.333262" lon="123.961341"><ele>3.818943</ele><time>2024-10-01T01:47:40Z</time><name>1942</name><sym>Flag, Blue</sym></wpt><wpt lat="10.333261" lon="123.961343"><ele>3.266469</ele><time>2024-10-01T01:47:47Z</time><name>1943</name><sym>Flag, Blue</sym></wpt><wpt lat="10.333303" lon="123.961313"><ele>4.018457</ele><time>2024-10-01T01:48:02Z</time><name>1944</name><sym>Flag, Blue</sym></wpt><wpt lat="10.333345" lon="123.961296"><ele>4.685287</ele><time>2024-10-01T01:48:16Z</time><name>1945</name><sym>Flag, Blue</sym></wpt><wpt lat="10.333379" lon="123.961264"><ele>7.319740</ele><time>2024-10-01T01:48:36Z</time><name>1946</name><sym>Flag, Blue</sym></wpt><wpt lat="10.333469" lon="123.961274"><ele>10.594790</ele><time>2024-10-01T01:49:01Z</time><name>1947</name><sym>Flag, Blue</sym></wpt><wpt lat="10.333478" lon="123.961274"><ele>11.125411</ele><time>2024-10-01T01:49:17Z</time><name>1948</name><sym>Flag, Blue</sym></wpt><wpt lat="10.333406" lon="123.961333"><ele>12.479946</ele><time>2024-10-01T01:49:37Z</time><name>1949</name><sym>Flag, Blue</sym></wpt><wpt lat="10.333373" lon="123.961347"><ele>12.984436</ele><time>2024-10-01T01:49:52Z</time><name>1950</name><sym>Flag, Blue</sym></wpt><wpt lat="10.333374" lon="123.961351"><ele>13.267334</ele><time>2024-10-01T01:50:01Z</time><name>1951</name><sym>Flag, Blue</sym></wpt><wpt lat="10.333368" lon="123.961359"><ele>13.849925</ele><time>2024-10-01T01:50:10Z</time><name>1952</name><sym>Flag, Blue</sym></wpt><wpt lat="10.333339" lon="123.961368"><ele>13.263579</ele><time>2024-10-01T01:50:23Z</time><name>1953</name><sym>Flag, Blue</sym></wpt><wpt lat="10.333324" lon="123.961378"><ele>13.244541</ele><time>2024-10-01T01:50:34Z</time><name>1954</name><sym>Flag, Blue</sym></wpt><wpt lat="10.333278" lon="123.961419"><ele>14.028267</ele><time>2024-10-01T01:50:50Z</time><name>1955</name><sym>Flag, Blue</sym></wpt><wpt lat="10.333240" lon="123.961444"><ele>14.654221</ele><time>2024-10-01T01:51:05Z</time><name>1956</name><sym>Flag, Blue</sym></wpt><wpt lat="10.333188" lon="123.961484"><ele>15.910160</ele><time>2024-10-01T01:51:22Z</time><name>1957</name><sym>Flag, Blue</sym></wpt><wpt lat="10.333189" lon="123.961498"><ele>21.701637</ele><time>2024-10-01T01:51:31Z</time><name>1958</name><sym>Flag, Blue</sym></wpt><wpt lat="10.333050" lon="123.961566"><ele>20.091349</ele><time>2024-10-01T01:52:06Z</time><name>1959</name><sym>Flag, Blue</sym></wpt><wpt lat="10.332925" lon="123.961731"><ele>19.944662</ele><time>2024-10-01T01:52:50Z</time><name>1960</name><sym>Flag, Blue</sym></wpt><wpt lat="10.332908" lon="123.961742"><ele>19.660789</ele><time>2024-10-01T01:53:38Z</time><name>1961</name><sym>Flag, Blue</sym></wpt><wpt lat="10.332890" lon="123.961754"><ele>18.727978</ele><time>2024-10-01T01:53:53Z</time><name>1962</name><sym>Flag, Blue</sym></wpt><wpt lat="10.332872" lon="123.961786"><ele>18.466347</ele><time>2024-10-01T01:54:03Z</time><name>1963</name><sym>Flag, Blue</sym></wpt><wpt lat="10.332818" lon="123.961801"><ele>17.782764</ele><time>2024-10-01T01:54:15Z</time><name>1964</name><sym>Flag, Blue</sym></wpt><wpt lat="10.332815" lon="123.961827"><ele>17.259830</ele><time>2024-10-01T01:54:26Z</time><name>1965</name><sym>Flag, Blue</sym></wpt><wpt lat="10.332746" lon="123.961860"><ele>15.815907</ele><time>2024-10-01T01:54:58Z</time><name>1966</name><sym>Flag, Blue</sym></wpt><wpt lat="10.332721" lon="123.961869"><ele>16.486687</ele><time>2024-10-01T01:55:11Z</time><name>1967</name><sym>Flag, Blue</sym></wpt><wpt lat="10.332626" lon="123.961945"><ele>15.039143</ele><time>2024-10-01T01:56:08Z</time><name>1968</name><sym>Flag, Blue</sym></wpt><wpt lat="10.332615" lon="123.961960"><ele>14.094909</ele><time>2024-10-01T01:56:17Z</time><name>1969</name><sym>Flag, Blue</sym></wpt><wpt lat="10.332580" lon="123.962002"><ele>16.687801</ele><time>2024-10-01T01:56:31Z</time><name>1970</name><sym>Flag, Blue</sym></wpt><wpt lat="10.332493" lon="123.962072"><ele>15.759237</ele><time>2024-10-01T01:56:53Z</time><name>1971</name><sym>Flag, Blue</sym></wpt><wpt lat="10.332474" lon="123.962075"><ele>14.970806</ele><time>2024-10-01T01:57:00Z</time><name>1972</name><sym>Flag, Blue</sym></wpt><wpt lat="10.332413" lon="123.962106"><ele>13.594734</ele><time>2024-10-01T01:57:16Z</time><name>1973</name><sym>Flag, Blue</sym></wpt><wpt lat="10.332279" lon="123.962197"><ele>13.445598</ele><time>2024-10-01T01:57:49Z</time><name>1974</name><sym>Flag, Blue</sym></wpt><wpt lat="10.332257" lon="123.962222"><ele>14.304323</ele><time>2024-10-01T01:58:00Z</time><name>1975</name><sym>Flag, Blue</sym></wpt><wpt lat="10.332193" lon="123.962268"><ele>16.634665</ele><time>2024-10-01T01:58:22Z</time><name>1976</name><sym>Flag, Blue</sym></wpt><wpt lat="10.332176" lon="123.962277"><ele>15.956833</ele><time>2024-10-01T01:58:36Z</time><name>1977</name><sym>Flag, Blue</sym></wpt><wpt lat="10.332125" lon="123.962322"><ele>15.653163</ele><time>2024-10-01T01:58:59Z</time><name>1978</name><sym>Flag, Blue</sym></wpt><wpt lat="10.332014" lon="123.962379"><ele>16.252377</ele><time>2024-10-01T01:59:35Z</time><name>1979</name><sym>Flag, Blue</sym></wpt><wpt lat="10.331998" lon="123.962383"><ele>15.443989</ele><time>2024-10-01T01:59:47Z</time><name>1980</name><sym>Flag, Blue</sym></wpt><wpt lat="10.331946" lon="123.962441"><ele>15.382180</ele><time>2024-10-01T02:00:03Z</time><name>1981</name><sym>Flag, Blue</sym></wpt><wpt lat="10.331930" lon="123.962465"><ele>15.741978</ele><time>2024-10-01T02:00:12Z</time><name>1982</name><sym>Flag, Blue</sym></wpt><wpt lat="10.331902" lon="123.962469"><ele>16.558542</ele><time>2024-10-01T02:00:24Z</time><name>1983</name><sym>Flag, Blue</sym></wpt><wpt lat="10.331853" lon="123.962520"><ele>17.056356</ele><time>2024-10-01T02:00:58Z</time><name>1984</name><sym>Flag, Blue</sym></wpt><wpt lat="10.331808" lon="123.962534"><ele>17.656122</ele><time>2024-10-01T02:01:09Z</time><name>1985</name><sym>Flag, Blue</sym></wpt><wpt lat="10.331796" lon="123.962532"><ele>16.936752</ele><time>2024-10-01T02:01:19Z</time><name>1986</name><sym>Flag, Blue</sym></wpt><wpt lat="10.331782" lon="123.962568"><ele>15.327164</ele><time>2024-10-01T02:01:30Z</time><name>1987</name><sym>Flag, Blue</sym></wpt><wpt lat="10.331731" lon="123.962595"><ele>14.324936</ele><time>2024-10-01T02:01:57Z</time><name>1988</name><sym>Flag, Blue</sym></wpt><wpt lat="10.331680" lon="123.962635"><ele>15.717922</ele><time>2024-10-01T02:02:24Z</time><name>1989</name><sym>Flag, Blue</sym></wpt><wpt lat="10.331651" lon="123.962644"><ele>14.972389</ele><time>2024-10-01T02:02:37Z</time><name>1990</name><sym>Flag, Blue</sym></wpt><wpt lat="10.331624" lon="123.962664"><ele>15.481804</ele><time>2024-10-01T02:02:53Z</time><name>1991</name><sym>Flag, Blue</sym></wpt><wpt lat="10.331600" lon="123.962696"><ele>15.702886</ele><time>2024-10-01T02:03:09Z</time><name>1992</name><sym>Flag, Blue</sym></wpt><wpt lat="10.331591" lon="123.962704"><ele>15.676296</ele><time>2024-10-01T02:03:18Z</time><name>1993</name><sym>Flag, Blue</sym></wpt><wpt lat="10.331560" lon="123.962703"><ele>15.578228</ele><time>2024-10-01T02:03:29Z</time><name>1994</name><sym>Flag, Blue</sym></wpt><wpt lat="10.331539" lon="123.962745"><ele>15.607296</ele><time>2024-10-01T02:03:43Z</time><name>1995</name><sym>Flag, Blue</sym></wpt><wpt lat="10.331498" lon="123.962760"><ele>16.572615</ele><time>2024-10-01T02:04:03Z</time><name>1996</name><sym>Flag, Blue</sym></wpt><wpt lat="10.331486" lon="123.962777"><ele>15.615616</ele><time>2024-10-01T02:04:14Z</time><name>1997</name><sym>Flag, Blue</sym></wpt><wpt lat="10.331460" lon="123.962783"><ele>15.684196</ele><time>2024-10-01T02:04:26Z</time><name>1998</name><sym>Flag, Blue</sym></wpt><wpt lat="10.331449" lon="123.962812"><ele>15.401451</ele><time>2024-10-01T02:04:41Z</time><name>1999</name><sym>Flag, Blue</sym></wpt><wpt lat="10.331419" lon="123.962810"><ele>16.373804</ele><time>2024-10-01T02:04:51Z</time><name>2000</name><sym>Flag, Blue</sym></wpt><wpt lat="10.331356" lon="123.962858"><ele>16.584900</ele><time>2024-10-01T02:05:11Z</time><name>001</name><sym>Flag, Blue</sym></wpt><wpt lat="10.331347" lon="123.962862"><ele>17.036671</ele><time>2024-10-01T02:05:20Z</time><name>002</name><sym>Flag, Blue</sym></wpt><wpt lat="10.331295" lon="123.962900"><ele>15.833879</ele><time>2024-10-01T02:05:32Z</time><name>003</name><sym>Flag, Blue</sym></wpt><wpt lat="10.331276" lon="123.962917"><ele>16.564991</ele><time>2024-10-01T02:05:41Z</time><name>004</name><sym>Flag, Blue</sym></wpt><wpt lat="10.331257" lon="123.962934"><ele>17.199623</ele><time>2024-10-01T02:05:48Z</time><name>005</name><sym>Flag, Blue</sym></wpt><wpt lat="10.331222" lon="123.962962"><ele>17.189369</ele><time>2024-10-01T02:05:59Z</time><name>006</name><sym>Flag, Blue</sym></wpt><wpt lat="10.331201" lon="123.962985"><ele>18.568167</ele><time>2024-10-01T02:06:30Z</time><name>007</name><sym>Flag, Blue</sym></wpt><wpt lat="10.331181" lon="123.962995"><ele>18.496283</ele><time>2024-10-01T02:06:39Z</time><name>008</name><sym>Flag, Blue</sym></wpt><wpt lat="10.331161" lon="123.963017"><ele>17.809248</ele><time>2024-10-01T02:06:49Z</time><name>009</name><sym>Flag, Blue</sym></wpt><wpt lat="10.331156" lon="123.963030"><ele>17.077284</ele><time>2024-10-01T02:06:58Z</time><name>010</name><sym>Flag, Blue</sym></wpt><wpt lat="10.331139" lon="123.963028"><ele>17.467358</ele><time>2024-10-01T02:07:07Z</time><name>011</name><sym>Flag, Blue</sym></wpt><wpt lat="10.331109" lon="123.963050"><ele>17.493626</ele><time>2024-10-01T02:07:24Z</time><name>012</name><sym>Flag, Blue</sym></wpt><wpt lat="10.331101" lon="123.963071"><ele>17.960258</ele><time>2024-10-01T02:07:35Z</time><name>013</name><sym>Flag, Blue</sym></wpt><wpt lat="10.331089" lon="123.963058"><ele>18.635605</ele><time>2024-10-01T02:07:47Z</time><name>014</name><sym>Flag, Blue</sym></wpt><wpt lat="10.331077" lon="123.963068"><ele>18.469118</ele><time>2024-10-01T02:07:56Z</time><name>015</name><sym>Flag, Blue</sym></wpt><wpt lat="10.331054" lon="123.963083"><ele>18.543526</ele><time>2024-10-01T02:08:03Z</time><name>016</name><sym>Flag, Blue</sym></wpt><wpt lat="10.331056" lon="123.963116"><ele>18.823315</ele><time>2024-10-01T02:08:14Z</time><name>017</name><sym>Flag, Blue</sym></wpt><wpt lat="10.330994" lon="123.963119"><ele>19.949591</ele><time>2024-10-01T02:08:26Z</time><name>018</name><sym>Flag, Blue</sym></wpt><wpt lat="10.330967" lon="123.963135"><ele>17.933887</ele><time>2024-10-01T02:08:36Z</time><name>019</name><sym>Flag, Blue</sym></wpt><wpt lat="10.330950" lon="123.963146"><ele>16.995152</ele><time>2024-10-01T02:08:45Z</time><name>020</name><sym>Flag, Blue</sym></wpt><wpt lat="10.330960" lon="123.963169"><ele>16.581074</ele><time>2024-10-01T02:08:54Z</time><name>021</name><sym>Flag, Blue</sym></wpt><wpt lat="10.330920" lon="123.963160"><ele>15.266243</ele><time>2024-10-01T02:09:30Z</time><name>022</name><sym>Flag, Blue</sym></wpt><wpt lat="10.330876" lon="123.963197"><ele>15.762787</ele><time>2024-10-01T02:09:50Z</time><name>023</name><sym>Flag, Blue</sym></wpt><wpt lat="10.330870" lon="123.963194"><ele>15.692841</ele><time>2024-10-01T02:09:55Z</time><name>024</name><sym>Flag, Blue</sym></wpt><wpt lat="10.330857" lon="123.963212"><ele>16.076370</ele><time>2024-10-01T02:10:04Z</time><name>025</name><sym>Flag, Blue</sym></wpt><wpt lat="10.330825" lon="123.963283"><ele>14.215393</ele><time>2024-10-01T02:10:27Z</time><name>026</name><sym>Flag, Blue</sym></wpt><wpt lat="10.330789" lon="123.963277"><ele>15.845039</ele><time>2024-10-01T02:10:37Z</time><name>027</name><sym>Flag, Blue</sym></wpt><wpt lat="10.330754" lon="123.963324"><ele>16.151155</ele><time>2024-10-01T02:10:52Z</time><name>028</name><sym>Flag, Blue</sym></wpt><wpt lat="10.330682" lon="123.963353"><ele>16.331039</ele><time>2024-10-01T02:11:15Z</time><name>029</name><sym>Flag, Blue</sym></wpt><wpt lat="10.330680" lon="123.963205"><ele>14.268460</ele><time>2024-10-01T02:13:04Z</time><name>030</name><sym>Flag, Blue</sym></wpt><wpt lat="10.330249" lon="123.963560"><ele>13.279780</ele><time>2024-10-01T02:14:21Z</time><name>031</name><sym>Flag, Blue</sym></wpt><wpt lat="10.330213" lon="123.963585"><ele>13.501038</ele><time>2024-10-01T02:14:35Z</time><name>032</name><sym>Flag, Blue</sym></wpt><wpt lat="10.330115" lon="123.963659"><time>2024-10-01T02:20:28Z</time><name>033</name><sym>Flag, Blue</sym></wpt><wpt lat="10.330064" lon="123.963661"><ele>16.880619</ele><time>2024-10-01T02:21:27Z</time><name>034</name><sym>Flag, Blue</sym></wpt><wpt lat="10.330036" lon="123.963676"><ele>16.053875</ele><time>2024-10-01T02:21:36Z</time><name>035</name><sym>Flag, Blue</sym></wpt><wpt lat="10.330019" lon="123.963708"><ele>14.288334</ele><time>2024-10-01T02:21:48Z</time><name>036</name><sym>Flag, Blue</sym></wpt><wpt lat="10.329999" lon="123.963725"><ele>14.347546</ele><time>2024-10-01T02:22:03Z</time><name>037</name><sym>Flag, Blue</sym></wpt><wpt lat="10.329970" lon="123.963740"><ele>14.469128</ele><time>2024-10-01T02:22:14Z</time><name>038</name><sym>Flag, Blue</sym></wpt><wpt lat="10.329945" lon="123.963759"><ele>14.258396</ele><time>2024-10-01T02:22:23Z</time><name>039</name><sym>Flag, Blue</sym></wpt><wpt lat="10.329909" lon="123.963771"><ele>13.290913</ele><time>2024-10-01T02:22:34Z</time><name>040</name><sym>Flag, Blue</sym></wpt><wpt lat="10.329879" lon="123.963801"><ele>11.554081</ele><time>2024-10-01T02:22:47Z</time><name>041</name><sym>Flag, Blue</sym></wpt><wpt lat="10.329853" lon="123.963825"><ele>11.584827</ele><time>2024-10-01T02:22:58Z</time><name>042</name><sym>Flag, Blue</sym></wpt><wpt lat="10.329836" lon="123.963845"><ele>11.816402</ele><time>2024-10-01T02:23:06Z</time><name>043</name><sym>Flag, Blue</sym></wpt><wpt lat="10.329804" lon="123.963864"><ele>12.779320</ele><time>2024-10-01T02:23:16Z</time><name>044</name><sym>Flag, Blue</sym></wpt><wpt lat="10.329772" lon="123.963878"><ele>13.404083</ele><time>2024-10-01T02:23:27Z</time><name>045</name><sym>Flag, Blue</sym></wpt><wpt lat="10.329745" lon="123.963884"><ele>13.085167</ele><time>2024-10-01T02:23:36Z</time><name>046</name><sym>Flag, Blue</sym></wpt><wpt lat="10.329736" lon="123.963909"><ele>13.191475</ele><time>2024-10-01T02:23:48Z</time><name>047</name><sym>Flag, Blue</sym></wpt><wpt lat="10.329711" lon="123.963927"><ele>12.915543</ele><time>2024-10-01T02:24:03Z</time><name>048</name><sym>Flag, Blue</sym></wpt><wpt lat="10.329723" lon="123.963991"><ele>15.356369</ele><time>2024-10-01T02:25:26Z</time><name>049</name><sym>Flag, Blue</sym></wpt><wpt lat="10.329568" lon="123.964038"><ele>14.474403</ele><time>2024-10-01T02:26:06Z</time><name>050</name><sym>Flag, Blue</sym></wpt><wpt lat="10.329531" lon="123.964046"><ele>15.087795</ele><time>2024-10-01T02:26:32Z</time><name>051</name><sym>Flag, Blue</sym></wpt><wpt lat="10.329565" lon="123.964107"><ele>14.687901</ele><time>2024-10-01T02:26:56Z</time><name>052</name><sym>Flag, Blue</sym></wpt><wpt lat="10.329490" lon="123.964123"><ele>15.998871</ele><time>2024-10-01T02:27:15Z</time><name>053</name><sym>Flag, Blue</sym></wpt><wpt lat="10.329488" lon="123.964118"><ele>17.250946</ele><time>2024-10-01T02:27:23Z</time><name>054</name><sym>Flag, Blue</sym></wpt><wpt lat="10.329464" lon="123.964124"><ele>17.663315</ele><time>2024-10-01T02:27:36Z</time><name>055</name><sym>Flag, Blue</sym></wpt><wpt lat="10.329429" lon="123.964127"><ele>16.434212</ele><time>2024-10-01T02:27:46Z</time><name>056</name><sym>Flag, Blue</sym></wpt><wpt lat="10.329389" lon="123.964143"><ele>16.478905</ele><time>2024-10-01T02:27:56Z</time><name>057</name><sym>Flag, Blue</sym></wpt><wpt lat="10.329331" lon="123.964184"><ele>16.603386</ele><time>2024-10-01T02:28:12Z</time><name>058</name><sym>Flag, Blue</sym></wpt><wpt lat="10.329298" lon="123.964223"><ele>17.560768</ele><time>2024-10-01T02:28:25Z</time><name>059</name><sym>Flag, Blue</sym></wpt><wpt lat="10.329292" lon="123.964360"><ele>14.004387</ele><time>2024-10-01T02:29:12Z</time><name>060</name><sym>Flag, Blue</sym></wpt><wpt lat="10.329252" lon="123.964387"><ele>13.217087</ele><time>2024-10-01T02:29:32Z</time><name>061</name><sym>Flag, Blue</sym></wpt><wpt lat="10.329054" lon="123.964424"><ele>14.005928</ele><time>2024-10-01T02:30:07Z</time><name>062</name><sym>Flag, Blue</sym></wpt><wpt lat="10.328992" lon="123.964474"><ele>16.125637</ele><time>2024-10-01T02:30:22Z</time><name>063</name><sym>Flag, Blue</sym></wpt><wpt lat="10.328957" lon="123.964485"><ele>15.796642</ele><time>2024-10-01T02:30:36Z</time><name>064</name><sym>Flag, Blue</sym></wpt><wpt lat="10.328909" lon="123.964523"><ele>15.186001</ele><time>2024-10-01T02:30:50Z</time><name>065</name><sym>Flag, Blue</sym></wpt><wpt lat="10.328814" lon="123.964646"><ele>13.124756</ele><time>2024-10-01T02:31:19Z</time><name>066</name><sym>Flag, Blue</sym></wpt><wpt lat="10.328795" lon="123.964635"><ele>13.015373</ele><time>2024-10-01T02:31:29Z</time><name>067</name><sym>Flag, Blue</sym></wpt><wpt lat="10.328760" lon="123.964657"><ele>12.537193</ele><time>2024-10-01T02:31:46Z</time><name>068</name><sym>Flag, Blue</sym></wpt><wpt lat="10.328710" lon="123.964674"><ele>11.852905</ele><time>2024-10-01T02:32:01Z</time><name>069</name><sym>Flag, Blue</sym></wpt><wpt lat="10.328701" lon="123.964723"><ele>11.999645</ele><time>2024-10-01T02:32:16Z</time><name>070</name><sym>Flag, Blue</sym></wpt><wpt lat="10.328622" lon="123.964729"><ele>13.650143</ele><time>2024-10-01T02:32:35Z</time><name>071</name><sym>Flag, Blue</sym></wpt><wpt lat="10.328647" lon="123.964795"><ele>14.645321</ele><time>2024-10-01T02:32:51Z</time><name>072</name><sym>Flag, Blue</sym></wpt><wpt lat="10.328624" lon="123.964827"><ele>14.938801</ele><time>2024-10-01T02:33:02Z</time><name>073</name><sym>Flag, Blue</sym></wpt><wpt lat="10.328602" lon="123.964819"><ele>14.338741</ele><time>2024-10-01T02:33:15Z</time><name>074</name><sym>Flag, Blue</sym></wpt><wpt lat="10.328572" lon="123.964842"><ele>14.459034</ele><time>2024-10-01T02:33:30Z</time><name>075</name><sym>Flag, Blue</sym></wpt><wpt lat="10.328488" lon="123.964845"><ele>14.052193</ele><time>2024-10-01T02:34:09Z</time><name>076</name><sym>Flag, Blue</sym></wpt><wpt lat="10.328477" lon="123.964879"><ele>14.550139</ele><time>2024-10-01T02:34:22Z</time><name>077</name><sym>Flag, Blue</sym></wpt><wpt lat="10.328455" lon="123.964887"><ele>14.945126</ele><time>2024-10-01T02:34:33Z</time><name>078</name><sym>Flag, Blue</sym></wpt><wpt lat="10.328387" lon="123.964955"><ele>25.112518</ele><time>2024-10-01T03:56:13Z</time><name>079</name><sym>Flag, Blue</sym></wpt><wpt lat="10.328360" lon="123.964950"><ele>23.700821</ele><time>2024-10-01T03:56:30Z</time><name>080</name><sym>Flag, Blue</sym></wpt><wpt lat="10.328379" lon="123.964946"><ele>22.184265</ele><time>2024-10-01T03:57:33Z</time><name>081</name><sym>Flag, Blue</sym></wpt><wpt lat="10.328436" lon="123.964955"><ele>22.106583</ele><time>2024-10-01T03:57:47Z</time><name>082</name><sym>Flag, Blue</sym></wpt><wpt lat="10.328395" lon="123.964994"><ele>22.495083</ele><time>2024-10-01T03:58:08Z</time><name>083</name><sym>Flag, Blue</sym></wpt><wpt lat="10.328320" lon="123.965047"><ele>21.608829</ele><time>2024-10-01T03:58:35Z</time><name>084</name><sym>Flag, Blue</sym></wpt><wpt lat="10.328160" lon="123.965060"><ele>22.452312</ele><time>2024-10-01T03:59:06Z</time><name>085</name><sym>Flag, Blue</sym></wpt><wpt lat="10.328116" lon="123.965084"><ele>20.315029</ele><time>2024-10-01T03:59:29Z</time><name>086</name><sym>Flag, Blue</sym></wpt><wpt lat="10.328104" lon="123.965135"><ele>22.048918</ele><time>2024-10-01T03:59:42Z</time><name>087</name><sym>Flag, Blue</sym></wpt><wpt lat="10.328030" lon="123.965214"><ele>24.023201</ele><time>2024-10-01T04:00:04Z</time><name>088</name><sym>Flag, Blue</sym></wpt><wpt lat="10.328013" lon="123.965204"><ele>18.443489</ele><time>2024-10-01T04:00:18Z</time><name>089</name><sym>Flag, Blue</sym></wpt><wpt lat="10.328009" lon="123.965174"><ele>16.285179</ele><time>2024-10-01T04:00:32Z</time><name>090</name><sym>Flag, Blue</sym></wpt><wpt lat="10.327995" lon="123.965165"><ele>15.358772</ele><time>2024-10-01T04:00:43Z</time><name>091</name><sym>Flag, Blue</sym></wpt><wpt lat="10.327984" lon="123.965190"><ele>13.936859</ele><time>2024-10-01T04:00:52Z</time><name>092</name><sym>Flag, Blue</sym></wpt><wpt lat="10.327927" lon="123.965203"><ele>13.259388</ele><time>2024-10-01T04:01:07Z</time><name>093</name><sym>Flag, Blue</sym></wpt><wpt lat="10.327885" lon="123.965206"><ele>16.302357</ele><time>2024-10-01T04:01:29Z</time><name>094</name><sym>Flag, Blue</sym></wpt><wpt lat="10.327863" lon="123.965194"><ele>17.340588</ele><time>2024-10-01T04:01:52Z</time><name>095</name><sym>Flag, Blue</sym></wpt><wpt lat="10.327958" lon="123.965185"><ele>17.961678</ele><time>2024-10-01T04:02:17Z</time><name>096</name><sym>Flag, Blue</sym></wpt><wpt lat="10.328107" lon="123.965158"><ele>15.504928</ele><time>2024-10-01T04:02:43Z</time><name>097</name><sym>Flag, Blue</sym></wpt><wpt lat="10.328144" lon="123.965169"><ele>14.253693</ele><time>2024-10-01T04:02:57Z</time><name>098</name><sym>Flag, Blue</sym></wpt><wpt lat="10.328187" lon="123.965178"><ele>13.818069</ele><time>2024-10-01T04:03:20Z</time><name>099</name><sym>Flag, Blue</sym></wpt><wpt lat="10.328188" lon="123.965201"><ele>14.585634</ele><time>2024-10-01T04:03:32Z</time><name>100</name><sym>Flag, Blue</sym></wpt><wpt lat="10.328257" lon="123.965299"><ele>15.960347</ele><time>2024-10-01T04:03:51Z</time><name>101</name><sym>Flag, Blue</sym></wpt><wpt lat="10.328376" lon="123.965312"><ele>20.345390</ele><time>2024-10-01T04:09:17Z</time><name>102</name><sym>Flag, Blue</sym></wpt><wpt lat="10.328406" lon="123.965288"><ele>22.263824</ele><time>2024-10-01T04:09:26Z</time><name>103</name><sym>Flag, Blue</sym></wpt><wpt lat="10.328477" lon="123.965244"><ele>19.196548</ele><time>2024-10-01T04:09:42Z</time><name>104</name><sym>Flag, Blue</sym></wpt><wpt lat="10.328537" lon="123.965202"><ele>18.116564</ele><time>2024-10-01T04:10:00Z</time><name>105</name><sym>Flag, Blue</sym></wpt><wpt lat="10.328579" lon="123.965172"><ele>17.399323</ele><time>2024-10-01T04:10:15Z</time><name>106</name><sym>Flag, Blue</sym></wpt><wpt lat="10.329332" lon="123.964588"><ele>18.738728</ele><time>2024-10-01T04:13:15Z</time><name>107</name><sym>Flag, Blue</sym></wpt><wpt lat="10.329392" lon="123.964538"><ele>18.865772</ele><time>2024-10-01T04:13:33Z</time><name>108</name><sym>Flag, Blue</sym></wpt><wpt lat="10.329751" lon="123.964340"><ele>19.001778</ele><time>2024-10-01T04:20:05Z</time><name>109</name><sym>Flag, Blue</sym></wpt><wpt lat="10.329831" lon="123.964288"><ele>20.085773</ele><time>2024-10-01T04:20:31Z</time><name>110</name><sym>Flag, Blue</sym></wpt><wpt lat="10.329855" lon="123.964248"><ele>21.153454</ele><time>2024-10-01T04:20:45Z</time><name>111</name><sym>Flag, Blue</sym></wpt><wpt lat="10.329901" lon="123.964231"><ele>21.080807</ele><time>2024-10-01T04:20:59Z</time><name>112</name><sym>Flag, Blue</sym></wpt><wpt lat="10.330009" lon="123.964188"><ele>25.076839</ele><time>2024-10-01T04:21:18Z</time><name>113</name><sym>Flag, Blue</sym></wpt><wpt lat="10.330030" lon="123.964182"><ele>25.697098</ele><time>2024-10-01T04:21:26Z</time><name>114</name><sym>Flag, Blue</sym></wpt><wpt lat="10.330132" lon="123.964105"><ele>26.338297</ele><time>2024-10-01T04:21:50Z</time><name>115</name><sym>Flag, Blue</sym></wpt><wpt lat="10.330142" lon="123.964092"><ele>26.113438</ele><time>2024-10-01T04:21:57Z</time><name>116</name><sym>Flag, Blue</sym></wpt><wpt lat="10.330185" lon="123.964065"><ele>25.421089</ele><time>2024-10-01T04:22:14Z</time><name>117</name><sym>Flag, Blue</sym></wpt><wpt lat="10.330223" lon="123.964035"><ele>24.850815</ele><time>2024-10-01T04:22:29Z</time><name>118</name><sym>Flag, Blue</sym></wpt><wpt lat="10.331023" lon="123.963464"><ele>20.784187</ele><time>2024-10-01T05:46:43Z</time><name>119</name><sym>Flag, Blue</sym></wpt><wpt lat="10.331455" lon="123.963150"><ele>17.628839</ele><time>2024-10-01T05:47:41Z</time><name>120</name><sym>Flag, Blue</sym></wpt><wpt lat="10.331389" lon="123.963171"><ele>19.169319</ele><time>2024-10-01T05:47:58Z</time><name>121</name><sym>Flag, Blue</sym></wpt><wpt lat="10.331320" lon="123.963198"><ele>19.301474</ele><time>2024-10-01T05:48:10Z</time><name>122</name><sym>Flag, Blue</sym></wpt><wpt lat="10.331222" lon="123.963273"><ele>19.085510</ele><time>2024-10-01T05:48:27Z</time><name>123</name><sym>Flag, Blue</sym></wpt><wpt lat="10.331194" lon="123.963301"><ele>19.711857</ele><time>2024-10-01T05:48:37Z</time><name>124</name><sym>Flag, Blue</sym></wpt><wpt lat="10.331105" lon="123.963373"><ele>19.736938</ele><time>2024-10-01T05:48:53Z</time><name>125</name><sym>Flag, Blue</sym></wpt><wpt lat="10.331009" lon="123.963440"><ele>19.800493</ele><time>2024-10-01T05:49:09Z</time><name>126</name><sym>Flag, Blue</sym></wpt><wpt lat="10.331091" lon="123.963369"><ele>18.738277</ele><time>2024-10-01T05:49:31Z</time><name>127</name><sym>Flag, Blue</sym></wpt><wpt lat="10.331412" lon="123.963161"><ele>18.314526</ele><time>2024-10-01T05:50:17Z</time><name>128</name><sym>Flag, Blue</sym></wpt><wpt lat="10.331491" lon="123.963131"><ele>17.191935</ele><time>2024-10-01T05:50:37Z</time><name>129</name><sym>Flag, Blue</sym></wpt><wpt lat="10.331594" lon="123.962981"><ele>18.654869</ele><time>2024-10-01T05:51:16Z</time><name>130</name><sym>Flag, Blue</sym></wpt><wpt lat="10.331713" lon="123.962893"><ele>18.011780</ele><time>2024-10-01T05:51:38Z</time><name>131</name><sym>Flag, Blue</sym></wpt><wpt lat="10.331776" lon="123.962858"><ele>19.289276</ele><time>2024-10-01T05:51:57Z</time><name>132</name><sym>Flag, Blue</sym></wpt><wpt lat="10.332443" lon="123.962374"><ele>20.835224</ele><time>2024-10-01T05:53:17Z</time><name>133</name><sym>Flag, Blue</sym></wpt><wpt lat="10.332506" lon="123.962370"><ele>21.799927</ele><time>2024-10-01T05:53:35Z</time><name>134</name><sym>Flag, Blue</sym></wpt><wpt lat="10.332510" lon="123.962369"><ele>22.424351</ele><time>2024-10-01T05:53:50Z</time><name>135</name><sym>Flag, Blue</sym></wpt><wpt lat="10.332884" lon="123.962184"><ele>17.010099</ele><time>2024-10-01T05:54:50Z</time><name>136</name><sym>Flag, Blue</sym></wpt><wpt lat="10.332875" lon="123.962197"><ele>17.490456</ele><time>2024-10-01T05:54:55Z</time><name>137</name><sym>Flag, Blue</sym></wpt><wpt lat="10.332958" lon="123.962145"><ele>15.980039</ele><time>2024-10-01T05:55:11Z</time><name>138</name><sym>Flag, Blue</sym></wpt><wpt lat="10.332986" lon="123.962098"><ele>16.755657</ele><time>2024-10-01T05:55:26Z</time><name>139</name><sym>Flag, Blue</sym></wpt><wpt lat="10.333003" lon="123.962087"><ele>16.758709</ele><time>2024-10-01T05:55:37Z</time><name>140</name><sym>Flag, Blue</sym></wpt><wpt lat="10.333080" lon="123.962095"><ele>17.266830</ele><time>2024-10-01T05:55:57Z</time><name>141</name><sym>Flag, Blue</sym></wpt><wpt lat="10.333096" lon="123.962137"><ele>18.516254</ele><time>2024-10-01T05:56:09Z</time><name>142</name><sym>Flag, Blue</sym></wpt><wpt lat="10.333094" lon="123.962130"><ele>18.396774</ele><time>2024-10-01T05:56:18Z</time><name>143</name><sym>Flag, Blue</sym></wpt><wpt lat="10.333153" lon="123.962068"><ele>17.062460</ele><time>2024-10-01T05:56:34Z</time><name>144</name><sym>Flag, Blue</sym></wpt><wpt lat="10.332882" lon="123.962075"><ele>17.041780</ele><time>2024-10-01T05:57:09Z</time><name>145</name><sym>Flag, Blue</sym></wpt><wpt lat="10.332981" lon="123.961964"><ele>19.779696</ele><time>2024-10-01T05:58:04Z</time><name>146</name><sym>Flag, Blue</sym></wpt><wpt lat="10.332978" lon="123.961927"><ele>20.233747</ele><time>2024-10-01T05:58:15Z</time><name>147</name><sym>Flag, Blue</sym></wpt><wpt lat="10.332851" lon="123.962137"><ele>19.838585</ele><time>2024-10-01T05:59:11Z</time><name>148</name><sym>Flag, Blue</sym></wpt><wpt lat="10.333316" lon="123.961665"><ele>17.884354</ele><time>2024-10-01T06:00:17Z</time><name>149</name><sym>Flag, Blue</sym></wpt><wpt lat="10.333370" lon="123.961631"><ele>17.595417</ele><time>2024-10-01T06:00:29Z</time><name>150</name><sym>Flag, Blue</sym></wpt><wpt lat="10.333372" lon="123.961618"><ele>19.047600</ele><time>2024-10-01T06:00:38Z</time><name>151</name><sym>Flag, Blue</sym></wpt><wpt lat="10.333447" lon="123.961571"><ele>19.422874</ele><time>2024-10-01T06:00:56Z</time><name>152</name><sym>Flag, Blue</sym></wpt><wpt lat="10.333540" lon="123.961512"><ele>19.335197</ele><time>2024-10-01T06:01:09Z</time><name>153</name><sym>Flag, Blue</sym></wpt><wpt lat="10.333603" lon="123.961465"><ele>19.925888</ele><time>2024-10-01T06:01:18Z</time><name>154</name><sym>Flag, Blue</sym></wpt><wpt lat="10.333646" lon="123.961419"><ele>19.659447</ele><time>2024-10-01T06:01:30Z</time><name>155</name><sym>Flag, Blue</sym></wpt><wpt lat="10.333698" lon="123.961376"><ele>19.443306</ele><time>2024-10-01T06:01:50Z</time><name>156</name><sym>Flag, Blue</sym></wpt><wpt lat="10.333768" lon="123.961335"><ele>18.915558</ele><time>2024-10-01T06:02:04Z</time><name>157</name><sym>Flag, Blue</sym></wpt><wpt lat="10.333783" lon="123.961325"><ele>19.328617</ele><time>2024-10-01T06:02:15Z</time><name>158</name><sym>Flag, Blue</sym></wpt><wpt lat="10.333820" lon="123.961294"><ele>19.604298</ele><time>2024-10-01T06:02:23Z</time><name>159</name><sym>Flag, Blue</sym></wpt><wpt lat="10.333820" lon="123.961294"><ele>19.610264</ele><time>2024-10-01T06:02:30Z</time><name>160</name><sym>Flag, Blue</sym></wpt><wpt lat="10.333860" lon="123.961267"><ele>19.914433</ele><time>2024-10-01T06:02:42Z</time><name>161</name><sym>Flag, Blue</sym></wpt><wpt lat="10.333869" lon="123.961258"><ele>19.233944</ele><time>2024-10-01T06:02:52Z</time><name>162</name><sym>Flag, Blue</sym></wpt><wpt lat="10.333869" lon="123.961246"><ele>19.709347</ele><time>2024-10-01T06:03:07Z</time><name>163</name><sym>Flag, Blue</sym></wpt><wpt lat="10.333916" lon="123.961191"><ele>20.432642</ele><time>2024-10-01T06:03:26Z</time><name>164</name><sym>Flag, Blue</sym></wpt><wpt lat="10.334098" lon="123.961105"><ele>21.946310</ele><time>2024-10-01T06:03:43Z</time><name>165</name><sym>Flag, Blue</sym></wpt><wpt lat="10.334403" lon="123.960922"><ele>24.216675</ele><time>2024-10-01T06:04:21Z</time><name>166</name><sym>Flag, Blue</sym></wpt><wpt lat="10.335003" lon="123.960486"><ele>25.132088</ele><time>2024-10-01T06:05:05Z</time><name>167</name><sym>Flag, Blue</sym></wpt><wpt lat="10.335058" lon="123.960441"><ele>24.620085</ele><time>2024-10-01T06:05:17Z</time><name>168</name><sym>Flag, Blue</sym></wpt><wpt lat="10.335438" lon="123.960163"><ele>24.687592</ele><time>2024-10-01T06:05:52Z</time><name>169</name><sym>Flag, Blue</sym></wpt><wpt lat="10.335483" lon="123.960132"><ele>23.828705</ele><time>2024-10-01T06:06:00Z</time><name>170</name><sym>Flag, Blue</sym></wpt><wpt lat="10.335639" lon="123.960030"><ele>23.182800</ele><time>2024-10-01T06:06:16Z</time><name>171</name><sym>Flag, Blue</sym></wpt><wpt lat="10.335648" lon="123.960021"><ele>22.486565</ele><time>2024-10-01T06:06:23Z</time><name>172</name><sym>Flag, Blue</sym></wpt><wpt lat="10.335690" lon="123.959974"><ele>23.875195</ele><time>2024-10-01T06:06:37Z</time><name>173</name><sym>Flag, Blue</sym></wpt><wpt lat="10.335874" lon="123.959830"><ele>23.937836</ele><time>2024-10-01T06:06:55Z</time><name>174</name><sym>Flag, Blue</sym></wpt><wpt lat="10.335912" lon="123.959790"><ele>22.932648</ele><time>2024-10-01T06:07:04Z</time><name>175</name><sym>Flag, Blue</sym></wpt><wpt lat="10.335964" lon="123.959752"><ele>22.728130</ele><time>2024-10-01T06:07:13Z</time><name>176</name><sym>Flag, Blue</sym></wpt><wpt lat="10.336023" lon="123.959702"><ele>21.724178</ele><time>2024-10-01T06:07:34Z</time><name>177</name><sym>Flag, Blue</sym></wpt><wpt lat="10.336009" lon="123.959716"><time>2024-10-01T06:09:54Z</time><name>178</name><sym>Flag, Blue</sym></wpt><wpt lat="10.336078" lon="123.959665"><ele>24.690926</ele><time>2024-10-01T06:10:13Z</time><name>179</name><sym>Flag, Blue</sym></wpt><wpt lat="10.336132" lon="123.959643"><ele>24.005890</ele><time>2024-10-01T06:10:27Z</time><name>180</name><sym>Flag, Blue</sym></wpt><wpt lat="10.336230" lon="123.959571"><ele>23.969656</ele><time>2024-10-01T06:10:45Z</time><name>181</name><sym>Flag, Blue</sym></wpt><wpt lat="10.336241" lon="123.959554"><ele>25.157799</ele><time>2024-10-01T06:10:55Z</time><name>182</name><sym>Flag, Blue</sym></wpt><wpt lat="10.336296" lon="123.959528"><ele>24.343330</ele><time>2024-10-01T06:11:06Z</time><name>183</name><sym>Flag, Blue</sym></wpt><wpt lat="10.336320" lon="123.959509"><ele>23.819468</ele><time>2024-10-01T06:11:16Z</time><name>184</name><sym>Flag, Blue</sym></wpt><wpt lat="10.336404" lon="123.959449"><ele>23.453789</ele><time>2024-10-01T06:11:34Z</time><name>185</name><sym>Flag, Blue</sym></wpt><wpt lat="10.336500" lon="123.959374"><ele>23.575380</ele><time>2024-10-01T06:11:51Z</time><name>186</name><sym>Flag, Blue</sym></wpt><wpt lat="10.336530" lon="123.959351"><ele>23.703873</ele><time>2024-10-01T06:12:02Z</time><name>187</name><sym>Flag, Blue</sym></wpt><wpt lat="10.336563" lon="123.959325"><ele>23.822632</ele><time>2024-10-01T06:12:11Z</time><name>188</name><sym>Flag, Blue</sym></wpt><wpt lat="10.336584" lon="123.959306"><ele>23.253197</ele><time>2024-10-01T06:12:23Z</time><name>189</name><sym>Flag, Blue</sym></wpt><wpt lat="10.336582" lon="123.959306"><ele>22.261463</ele><time>2024-10-01T06:12:32Z</time><name>190</name><sym>Flag, Blue</sym></wpt><wpt lat="10.336612" lon="123.959280"><ele>22.235485</ele><time>2024-10-01T06:12:43Z</time><name>191</name><sym>Flag, Blue</sym></wpt><wpt lat="10.336661" lon="123.959245"><ele>22.693287</ele><time>2024-10-01T06:12:57Z</time><name>192</name><sym>Flag, Blue</sym></wpt><wpt lat="10.336666" lon="123.959244"><ele>24.897854</ele><time>2024-10-01T06:13:10Z</time><name>193</name><sym>Flag, Blue</sym></wpt><wpt lat="10.336731" lon="123.959197"><ele>25.024746</ele><time>2024-10-01T06:13:22Z</time><name>194</name><sym>Flag, Blue</sym></wpt><wpt lat="10.336803" lon="123.959147"><ele>24.825077</ele><time>2024-10-01T06:13:34Z</time><name>195</name><sym>Flag, Blue</sym></wpt><wpt lat="10.336844" lon="123.959112"><ele>24.783871</ele><time>2024-10-01T06:13:45Z</time><name>196</name><sym>Flag, Blue</sym></wpt><wpt lat="10.336851" lon="123.959108"><ele>24.622036</ele><time>2024-10-01T06:13:55Z</time><name>197</name><sym>Flag, Blue</sym></wpt><wpt lat="10.336870" lon="123.959083"><ele>24.044872</ele><time>2024-10-01T06:14:03Z</time><name>198</name><sym>Flag, Blue</sym></wpt><wpt lat="10.336877" lon="123.959078"><ele>23.814640</ele><time>2024-10-01T06:14:10Z</time><name>199</name><sym>Flag, Blue</sym></wpt><wpt lat="10.336899" lon="123.959063"><ele>23.342617</ele><time>2024-10-01T06:14:20Z</time><name>200</name><sym>Flag, Blue</sym></wpt><wpt lat="10.337067" lon="123.958911"><ele>21.946247</ele><time>2024-10-01T06:14:52Z</time><name>201</name><sym>Flag, Blue</sym></wpt><wpt lat="10.337110" lon="123.958864"><ele>22.347954</ele><time>2024-10-01T06:15:02Z</time><name>202</name><sym>Flag, Blue</sym></wpt><wpt lat="10.337138" lon="123.958819"><ele>22.727163</ele><time>2024-10-01T06:15:15Z</time><name>203</name><sym>Flag, Blue</sym></wpt><wpt lat="10.337164" lon="123.958797"><ele>22.742523</ele><time>2024-10-01T06:15:25Z</time><name>204</name><sym>Flag, Blue</sym></wpt><wpt lat="10.337189" lon="123.958774"><ele>23.021900</ele><time>2024-10-01T06:15:36Z</time><name>205</name><sym>Flag, Blue</sym></wpt><wpt lat="10.337224" lon="123.958741"><ele>23.177547</ele><time>2024-10-01T06:15:46Z</time><name>206</name><sym>Flag, Blue</sym></wpt><wpt lat="10.337221" lon="123.958736"><ele>22.571590</ele><time>2024-10-01T06:15:56Z</time><name>207</name><sym>Flag, Blue</sym></wpt><wpt lat="10.337251" lon="123.958699"><ele>22.635303</ele><time>2024-10-01T06:16:04Z</time><name>208</name><sym>Flag, Blue</sym></wpt><wpt lat="10.337262" lon="123.958691"><ele>22.843563</ele><time>2024-10-01T06:16:20Z</time><name>209</name><sym>Flag, Blue</sym></wpt><wpt lat="10.337283" lon="123.958678"><ele>23.415745</ele><time>2024-10-01T06:16:27Z</time><name>210</name><sym>Flag, Blue</sym></wpt><wpt lat="10.337300" lon="123.958656"><ele>23.762981</ele><time>2024-10-01T06:16:34Z</time><name>211</name><sym>Flag, Blue</sym></wpt><wpt lat="10.337364" lon="123.958601"><ele>23.315001</ele><time>2024-10-01T06:16:45Z</time><name>212</name><sym>Flag, Blue</sym></wpt><wpt lat="10.337723" lon="123.958049"><ele>22.887859</ele><time>2024-10-01T06:17:32Z</time><name>213</name><sym>Flag, Blue</sym></wpt><wpt lat="10.337739" lon="123.958006"><ele>23.050972</ele><time>2024-10-01T06:17:44Z</time><name>214</name><sym>Flag, Blue</sym></wpt><wpt lat="10.337764" lon="123.957925"><ele>21.269672</ele><time>2024-10-01T06:18:11Z</time><name>215</name><sym>Flag, Blue</sym></wpt><wpt lat="10.337503" lon="123.953806"><ele>25.004459</ele><time>2024-10-01T06:26:23Z</time><name>216</name><sym>Flag, Blue</sym></wpt><wpt lat="10.337704" lon="123.954006"><ele>23.268097</ele><time>2024-10-01T06:26:38Z</time><name>217</name><sym>Flag, Blue</sym></wpt><wpt lat="10.337708" lon="123.954008"><ele>23.306366</ele><time>2024-10-01T06:26:46Z</time><name>218</name><sym>Flag, Blue</sym></wpt><wpt lat="10.337744" lon="123.954053"><ele>22.815775</ele><time>2024-10-01T06:26:54Z</time><name>219</name><sym>Flag, Blue</sym></wpt><wpt lat="10.337776" lon="123.954080"><ele>22.585693</ele><time>2024-10-01T06:27:02Z</time><name>220</name><sym>Flag, Blue</sym></wpt><wpt lat="10.337792" lon="123.954085"><ele>21.428658</ele><time>2024-10-01T06:27:10Z</time><name>221</name><sym>Flag, Blue</sym></wpt><wpt lat="10.337821" lon="123.954118"><ele>21.327000</ele><time>2024-10-01T06:27:17Z</time><name>222</name><sym>Flag, Blue</sym></wpt><wpt lat="10.338400" lon="123.955521"><ele>25.063721</ele><time>2024-10-01T06:28:01Z</time><name>223</name><sym>Flag, Blue</sym></wpt><wpt lat="10.337118" lon="123.958565"><ele>18.288330</ele><time>2024-10-01T06:29:28Z</time><name>224</name><sym>Flag, Blue</sym></wpt><wpt lat="10.337088" lon="123.958606"><ele>18.315563</ele><time>2024-10-01T06:29:37Z</time><name>225</name><sym>Flag, Blue</sym></wpt><wpt lat="10.337048" lon="123.958654"><ele>18.151203</ele><time>2024-10-01T06:29:45Z</time><name>226</name><sym>Flag, Blue</sym></wpt><wpt lat="10.337006" lon="123.958693"><ele>18.098042</ele><time>2024-10-01T06:29:53Z</time><name>227</name><sym>Flag, Blue</sym></wpt><wpt lat="10.336930" lon="123.958770"><ele>17.155634</ele><time>2024-10-01T06:30:03Z</time><name>228</name><sym>Flag, Blue</sym></wpt><wpt lat="10.336557" lon="123.959114"><ele>15.061962</ele><time>2024-10-01T06:30:43Z</time><name>229</name><sym>Flag, Blue</sym></wpt><wpt lat="10.336500" lon="123.959153"><ele>14.324329</ele><time>2024-10-01T06:30:52Z</time><name>230</name><sym>Flag, Blue</sym></wpt><wpt lat="10.336418" lon="123.959221"><ele>14.652493</ele><time>2024-10-01T06:31:12Z</time><name>231</name><sym>Flag, Blue</sym></wpt><wpt lat="10.336374" lon="123.959251"><ele>15.250866</ele><time>2024-10-01T06:31:20Z</time><name>232</name><sym>Flag, Blue</sym></wpt><wpt lat="10.336323" lon="123.959289"><ele>15.405079</ele><time>2024-10-01T06:31:30Z</time><name>233</name><sym>Flag, Blue</sym></wpt><wpt lat="10.336285" lon="123.959321"><ele>15.644127</ele><time>2024-10-01T06:31:39Z</time><name>234</name><sym>Flag, Blue</sym></wpt><wpt lat="10.336032" lon="123.959495"><ele>14.423233</ele><time>2024-10-01T06:31:59Z</time><name>235</name><sym>Flag, Blue</sym></wpt><wpt lat="10.335976" lon="123.959533"><ele>14.157524</ele><time>2024-10-01T06:32:06Z</time><name>236</name><sym>Flag, Blue</sym></wpt><wpt lat="10.335852" lon="123.959604"><ele>14.292648</ele><time>2024-10-01T06:32:18Z</time><name>237</name><sym>Flag, Blue</sym></wpt><wpt lat="10.335748" lon="123.959687"><ele>14.413824</ele><time>2024-10-01T06:32:32Z</time><name>238</name><sym>Flag, Blue</sym></wpt><wpt lat="10.335693" lon="123.959723"><ele>15.935085</ele><time>2024-10-01T06:32:47Z</time><name>239</name><sym>Flag, Blue</sym></wpt><wpt lat="10.335600" lon="123.959794"><ele>17.837955</ele><time>2024-10-01T06:33:01Z</time><name>240</name><sym>Flag, Blue</sym></wpt><wpt lat="10.335552" lon="123.959829"><ele>18.471928</ele><time>2024-10-01T06:33:14Z</time><name>241</name><sym>Flag, Blue</sym></wpt><wpt lat="10.335029" lon="123.960207"><ele>19.450394</ele><time>2024-10-01T06:33:39Z</time><name>242</name><sym>Flag, Blue</sym></wpt><wpt lat="10.334956" lon="123.960247"><ele>19.972794</ele><time>2024-10-01T06:33:46Z</time><name>243</name><sym>Flag, Blue</sym></wpt><wpt lat="10.334913" lon="123.960294"><ele>20.281853</ele><time>2024-10-01T06:33:56Z</time><name>244</name><sym>Flag, Blue</sym></wpt><wpt lat="10.334806" lon="123.960355"><ele>22.003639</ele><time>2024-10-01T06:34:09Z</time><name>245</name><sym>Flag, Blue</sym></wpt><wpt lat="10.334708" lon="123.960404"><ele>23.035912</ele><time>2024-10-01T06:34:23Z</time><name>246</name><sym>Flag, Blue</sym></wpt><wpt lat="10.334708" lon="123.960422"><ele>22.946007</ele><time>2024-10-01T06:34:29Z</time><name>247</name><sym>Flag, Blue</sym></wpt><wpt lat="10.334565" lon="123.960533"><ele>22.786182</ele><time>2024-10-01T06:34:47Z</time><name>248</name><sym>Flag, Blue</sym></wpt><wpt lat="10.334524" lon="123.960568"><ele>22.611530</ele><time>2024-10-01T06:35:03Z</time><name>249</name><sym>Flag, Blue</sym></wpt><wpt lat="10.334392" lon="123.960674"><ele>20.309849</ele><time>2024-10-01T06:35:24Z</time><name>250</name><sym>Flag, Blue</sym></wpt><wpt lat="10.334172" lon="123.960855"><ele>17.513474</ele><time>2024-10-01T06:35:51Z</time><name>251</name><sym>Flag, Blue</sym></wpt><wpt lat="10.334096" lon="123.960887"><ele>17.327288</ele><time>2024-10-01T06:36:01Z</time><name>252</name><sym>Flag, Blue</sym></wpt><wpt lat="10.334091" lon="123.960887"><ele>18.701241</ele><time>2024-10-01T06:36:07Z</time><name>253</name><sym>Flag, Blue</sym></wpt><wpt lat="10.334061" lon="123.960871"><ele>18.749199</ele><time>2024-10-01T06:36:20Z</time><name>254</name><sym>Flag, Blue</sym></wpt><wpt lat="10.334110" lon="123.960444"><ele>16.989410</ele><time>2024-10-01T06:37:11Z</time><name>255</name><sym>Flag, Blue</sym></wpt><wpt lat="10.334118" lon="123.960347"><ele>16.815361</ele><time>2024-10-01T06:37:19Z</time><name>256</name><sym>Flag, Blue</sym></wpt><wpt lat="10.334102" lon="123.959806"><ele>18.946434</ele><time>2024-10-01T06:38:06Z</time><name>257</name><sym>Flag, Blue</sym></wpt><wpt lat="10.334097" lon="123.959762"><ele>18.577072</ele><time>2024-10-01T06:38:16Z</time><name>258</name><sym>Flag, Blue</sym></wpt><wpt lat="10.334101" lon="123.959651"><ele>18.847414</ele><time>2024-10-01T06:38:28Z</time><name>259</name><sym>Flag, Blue</sym></wpt><wpt lat="10.334102" lon="123.959228"><ele>19.753342</ele><time>2024-10-01T06:38:50Z</time><name>260</name><sym>Flag, Blue</sym></wpt><wpt lat="10.334092" lon="123.958437"><ele>15.399723</ele><time>2024-10-01T06:39:42Z</time><name>261</name><sym>Flag, Blue</sym></wpt><wpt lat="10.332340" lon="123.956117"><ele>17.778648</ele><time>2024-10-01T06:42:54Z</time><name>262</name><sym>Flag, Blue</sym></wpt><wpt lat="10.332208" lon="123.955810"><ele>18.405167</ele><time>2024-10-01T06:43:16Z</time><name>263</name><sym>Flag, Blue</sym></wpt><wpt lat="10.332220" lon="123.955786"><ele>18.530685</ele><time>2024-10-01T06:43:21Z</time><name>264</name><sym>Flag, Blue</sym></wpt></gpx>