<?xml version="1.0" encoding="iso-8859-1"?>
<kml xmlns="http://www.opengis.net/kml/2.2">
<Document>
<name>MandaueCityof</name>
<Style>
  <ListStyle>
    <listItemType>checkHideChildren</listItemType>
  </ListStyle>
</Style>
  <Folder>
    <name>kml_image_L1_0_0</name>
    <Region>
      <LatLonAltBox>
        <north>10.43164467727558400</north>
        <south>10.28026209630834100</south>
        <east>124.07968592621494000</east>
        <west>123.86576684797700000</west>
      </LatLonAltBox>
      <Lod>
        <minLodPixels>27</minLodPixels>
        <maxLodPixels>2049</maxLodPixels>
      </Lod>
    </Region>
    <GroundOverlay>
      <drawOrder>1</drawOrder>
      <Icon>
        <href>kml_image_L1_0_0.png</href>
      </Icon>
      <LatLonBox>
        <north>10.43164467727558400</north>
        <south>10.28026209630834100</south>
        <east>124.07968592621494000</east>
        <west>123.86576684797700000</west>
      </LatLonBox>
    </GroundOverlay>
    <Folder>
      <name>kml_image_L2_0_0</name>
      <Region>
        <LatLonAltBox>
          <north>10.43164467727558400</north>
          <south>10.28026209630834100</south>
          <east>124.07818201027096000</east>
          <west>123.86576684797700000</west>
        </LatLonAltBox>
        <Lod>
          <minLodPixels>433</minLodPixels>
          <maxLodPixels>2049</maxLodPixels>
        </Lod>
      </Region>
      <GroundOverlay>
        <drawOrder>2</drawOrder>
        <Icon>
          <href>kml_image_L2_0_0.png</href>
        </Icon>
        <LatLonBox>
          <north>10.43164467727558400</north>
          <south>10.28026209630834100</south>
          <east>124.07818201027096000</east>
          <west>123.86576684797700000</west>
        </LatLonBox>
      </GroundOverlay>
      <Folder>
        <name>kml_image_L3_0_0</name>
        <Region>
          <LatLonAltBox>
            <north>10.43164467727558400</north>
            <south>10.32565099323424600</south>
            <east>123.97197442912397000</east>
            <west>123.86576684797700000</west>
          </LatLonAltBox>
          <Lod>
            <minLodPixels>512</minLodPixels>
            <maxLodPixels>2049</maxLodPixels>
          </Lod>
        </Region>
        <GroundOverlay>
          <drawOrder>3</drawOrder>
          <Icon>
            <href>kml_image_L3_0_0.png</href>
          </Icon>
          <LatLonBox>
            <north>10.43164467727558400</north>
            <south>10.32565099323424600</south>
            <east>123.97197442912397000</east>
            <west>123.86576684797700000</west>
          </LatLonBox>
        </GroundOverlay>
        <Folder>
          <name>kml_image_L4_0_0</name>
          <Region>
            <LatLonAltBox>
              <north>10.43164467727558400</north>
              <south>10.37864783525491500</south>
              <east>123.91887063855049000</east>
              <west>123.86576684797700000</west>
            </LatLonAltBox>
            <Lod>
              <minLodPixels>512</minLodPixels>
              <maxLodPixels>-1</maxLodPixels>
            </Lod>
          </Region>
          <GroundOverlay>
            <drawOrder>4</drawOrder>
            <Icon>
              <href>kml_image_L4_0_0.png</href>
            </Icon>
            <LatLonBox>
              <north>10.43164467727558400</north>
              <south>10.37864783525491500</south>
              <east>123.91887063855049000</east>
              <west>123.86576684797700000</west>
            </LatLonBox>
          </GroundOverlay>
        </Folder>
        <Folder>
          <name>kml_image_L4_0_1</name>
          <Region>
            <LatLonAltBox>
              <north>10.43164467727558400</north>
              <south>10.37864783525491500</south>
              <east>123.97197442912397000</east>
              <west>123.91887063855049000</west>
            </LatLonAltBox>
            <Lod>
              <minLodPixels>512</minLodPixels>
              <maxLodPixels>-1</maxLodPixels>
            </Lod>
          </Region>
          <GroundOverlay>
            <drawOrder>4</drawOrder>
            <Icon>
              <href>kml_image_L4_0_1.png</href>
            </Icon>
            <LatLonBox>
              <north>10.43164467727558400</north>
              <south>10.37864783525491500</south>
              <east>123.97197442912397000</east>
              <west>123.91887063855049000</west>
            </LatLonBox>
          </GroundOverlay>
        </Folder>
        <Folder>
          <name>kml_image_L4_1_0</name>
          <Region>
            <LatLonAltBox>
              <north>10.37864783525491500</north>
              <south>10.32565099323424600</south>
              <east>123.91887063855049000</east>
              <west>123.86576684797700000</west>
            </LatLonAltBox>
            <Lod>
              <minLodPixels>512</minLodPixels>
              <maxLodPixels>-1</maxLodPixels>
            </Lod>
          </Region>
          <GroundOverlay>
            <drawOrder>4</drawOrder>
            <Icon>
              <href>kml_image_L4_1_0.png</href>
            </Icon>
            <LatLonBox>
              <north>10.37864783525491500</north>
              <south>10.32565099323424600</south>
              <east>123.91887063855049000</east>
              <west>123.86576684797700000</west>
            </LatLonBox>
          </GroundOverlay>
        </Folder>
        <Folder>
          <name>kml_image_L4_1_1</name>
          <Region>
            <LatLonAltBox>
              <north>10.37864783525491500</north>
              <south>10.32565099323424600</south>
              <east>123.97197442912397000</east>
              <west>123.91887063855049000</west>
            </LatLonAltBox>
            <Lod>
              <minLodPixels>512</minLodPixels>
              <maxLodPixels>-1</maxLodPixels>
            </Lod>
          </Region>
          <GroundOverlay>
            <drawOrder>4</drawOrder>
            <Icon>
              <href>kml_image_L4_1_1.png</href>
            </Icon>
            <LatLonBox>
              <north>10.37864783525491500</north>
              <south>10.32565099323424600</south>
              <east>123.97197442912397000</east>
              <west>123.91887063855049000</west>
            </LatLonBox>
          </GroundOverlay>
        </Folder>
      </Folder>
      <Folder>
        <name>kml_image_L3_0_1</name>
        <Region>
          <LatLonAltBox>
            <north>10.43164467727558400</north>
            <south>10.32565099323424600</south>
            <east>124.07818201027096000</east>
            <west>123.97197442912397000</west>
          </LatLonAltBox>
          <Lod>
            <minLodPixels>512</minLodPixels>
            <maxLodPixels>2049</maxLodPixels>
          </Lod>
        </Region>
        <GroundOverlay>
          <drawOrder>3</drawOrder>
          <Icon>
            <href>kml_image_L3_0_1.png</href>
          </Icon>
          <LatLonBox>
            <north>10.43164467727558400</north>
            <south>10.32565099323424600</south>
            <east>124.07818201027096000</east>
            <west>123.97197442912397000</west>
          </LatLonBox>
        </GroundOverlay>
        <Folder>
          <name>kml_image_L4_0_2</name>
          <Region>
            <LatLonAltBox>
              <north>10.43164467727558400</north>
              <south>10.37864783525491500</south>
              <east>124.02507821969748000</east>
              <west>123.97197442912397000</west>
            </LatLonAltBox>
            <Lod>
              <minLodPixels>512</minLodPixels>
              <maxLodPixels>-1</maxLodPixels>
            </Lod>
          </Region>
          <GroundOverlay>
            <drawOrder>4</drawOrder>
            <Icon>
              <href>kml_image_L4_0_2.png</href>
            </Icon>
            <LatLonBox>
              <north>10.43164467727558400</north>
              <south>10.37864783525491500</south>
              <east>124.02507821969748000</east>
              <west>123.97197442912397000</west>
            </LatLonBox>
          </GroundOverlay>
        </Folder>
        <Folder>
          <name>kml_image_L4_0_3</name>
          <Region>
            <LatLonAltBox>
              <north>10.43164467727558400</north>
              <south>10.37864783525491500</south>
              <east>124.07818201027096000</east>
              <west>124.02507821969748000</west>
            </LatLonAltBox>
            <Lod>
              <minLodPixels>512</minLodPixels>
              <maxLodPixels>-1</maxLodPixels>
            </Lod>
          </Region>
          <GroundOverlay>
            <drawOrder>4</drawOrder>
            <Icon>
              <href>kml_image_L4_0_3.png</href>
            </Icon>
            <LatLonBox>
              <north>10.43164467727558400</north>
              <south>10.37864783525491500</south>
              <east>124.07818201027096000</east>
              <west>124.02507821969748000</west>
            </LatLonBox>
          </GroundOverlay>
        </Folder>
        <Folder>
          <name>kml_image_L4_1_2</name>
          <Region>
            <LatLonAltBox>
              <north>10.37864783525491500</north>
              <south>10.32565099323424600</south>
              <east>124.02507821969748000</east>
              <west>123.97197442912397000</west>
            </LatLonAltBox>
            <Lod>
              <minLodPixels>512</minLodPixels>
              <maxLodPixels>-1</maxLodPixels>
            </Lod>
          </Region>
          <GroundOverlay>
            <drawOrder>4</drawOrder>
            <Icon>
              <href>kml_image_L4_1_2.png</href>
            </Icon>
            <LatLonBox>
              <north>10.37864783525491500</north>
              <south>10.32565099323424600</south>
              <east>124.02507821969748000</east>
              <west>123.97197442912397000</west>
            </LatLonBox>
          </GroundOverlay>
        </Folder>
        <Folder>
          <name>kml_image_L4_1_3</name>
          <Region>
            <LatLonAltBox>
              <north>10.37864783525491500</north>
              <south>10.32565099323424600</south>
              <east>124.07818201027096000</east>
              <west>124.02507821969748000</west>
            </LatLonAltBox>
            <Lod>
              <minLodPixels>512</minLodPixels>
              <maxLodPixels>-1</maxLodPixels>
            </Lod>
          </Region>
          <GroundOverlay>
            <drawOrder>4</drawOrder>
            <Icon>
              <href>kml_image_L4_1_3.png</href>
            </Icon>
            <LatLonBox>
              <north>10.37864783525491500</north>
              <south>10.32565099323424600</south>
              <east>124.07818201027096000</east>
              <west>124.02507821969748000</west>
            </LatLonBox>
          </GroundOverlay>
        </Folder>
      </Folder>
      <Folder>
        <name>kml_image_L3_1_0</name>
        <Region>
          <LatLonAltBox>
            <north>10.32565099323424600</north>
            <south>10.28026209630834100</south>
            <east>123.97197442912397000</east>
            <west>123.86576684797700000</west>
          </LatLonAltBox>
          <Lod>
            <minLodPixels>335</minLodPixels>
            <maxLodPixels>2049</maxLodPixels>
          </Lod>
        </Region>
        <GroundOverlay>
          <drawOrder>3</drawOrder>
          <Icon>
            <href>kml_image_L3_1_0.png</href>
          </Icon>
          <LatLonBox>
            <north>10.32565099323424600</north>
            <south>10.28026209630834100</south>
            <east>123.97197442912397000</east>
            <west>123.86576684797700000</west>
          </LatLonBox>
        </GroundOverlay>
        <Folder>
          <name>kml_image_L4_2_0</name>
          <Region>
            <LatLonAltBox>
              <north>10.32565099323424600</north>
              <south>10.28026209630834100</south>
              <east>123.91887063855049000</east>
              <west>123.86576684797700000</west>
            </LatLonAltBox>
            <Lod>
              <minLodPixels>474</minLodPixels>
              <maxLodPixels>-1</maxLodPixels>
            </Lod>
          </Region>
          <GroundOverlay>
            <drawOrder>4</drawOrder>
            <Icon>
              <href>kml_image_L4_2_0.png</href>
            </Icon>
            <LatLonBox>
              <north>10.32565099323424600</north>
              <south>10.28026209630834100</south>
              <east>123.91887063855049000</east>
              <west>123.86576684797700000</west>
            </LatLonBox>
          </GroundOverlay>
        </Folder>
        <Folder>
          <name>kml_image_L4_2_1</name>
          <Region>
            <LatLonAltBox>
              <north>10.32565099323424600</north>
              <south>10.28026209630834100</south>
              <east>123.97197442912397000</east>
              <west>123.91887063855049000</west>
            </LatLonAltBox>
            <Lod>
              <minLodPixels>474</minLodPixels>
              <maxLodPixels>-1</maxLodPixels>
            </Lod>
          </Region>
          <GroundOverlay>
            <drawOrder>4</drawOrder>
            <Icon>
              <href>kml_image_L4_2_1.png</href>
            </Icon>
            <LatLonBox>
              <north>10.32565099323424600</north>
              <south>10.28026209630834100</south>
              <east>123.97197442912397000</east>
              <west>123.91887063855049000</west>
            </LatLonBox>
          </GroundOverlay>
        </Folder>
      </Folder>
      <Folder>
        <name>kml_image_L3_1_1</name>
        <Region>
          <LatLonAltBox>
            <north>10.32565099323424600</north>
            <south>10.28026209630834100</south>
            <east>124.07818201027096000</east>
            <west>123.97197442912397000</west>
          </LatLonAltBox>
          <Lod>
            <minLodPixels>335</minLodPixels>
            <maxLodPixels>2049</maxLodPixels>
          </Lod>
        </Region>
        <GroundOverlay>
          <drawOrder>3</drawOrder>
          <Icon>
            <href>kml_image_L3_1_1.png</href>
          </Icon>
          <LatLonBox>
            <north>10.32565099323424600</north>
            <south>10.28026209630834100</south>
            <east>124.07818201027096000</east>
            <west>123.97197442912397000</west>
          </LatLonBox>
        </GroundOverlay>
        <Folder>
          <name>kml_image_L4_2_2</name>
          <Region>
            <LatLonAltBox>
              <north>10.32565099323424600</north>
              <south>10.28026209630834100</south>
              <east>124.02507821969748000</east>
              <west>123.97197442912397000</west>
            </LatLonAltBox>
            <Lod>
              <minLodPixels>474</minLodPixels>
              <maxLodPixels>-1</maxLodPixels>
            </Lod>
          </Region>
          <GroundOverlay>
            <drawOrder>4</drawOrder>
            <Icon>
              <href>kml_image_L4_2_2.png</href>
            </Icon>
            <LatLonBox>
              <north>10.32565099323424600</north>
              <south>10.28026209630834100</south>
              <east>124.02507821969748000</east>
              <west>123.97197442912397000</west>
            </LatLonBox>
          </GroundOverlay>
        </Folder>
        <Folder>
          <name>kml_image_L4_2_3</name>
          <Region>
            <LatLonAltBox>
              <north>10.32565099323424600</north>
              <south>10.28026209630834100</south>
              <east>124.07818201027096000</east>
              <west>124.02507821969748000</west>
            </LatLonAltBox>
            <Lod>
              <minLodPixels>474</minLodPixels>
              <maxLodPixels>-1</maxLodPixels>
            </Lod>
          </Region>
          <GroundOverlay>
            <drawOrder>4</drawOrder>
            <Icon>
              <href>kml_image_L4_2_3.png</href>
            </Icon>
            <LatLonBox>
              <north>10.32565099323424600</north>
              <south>10.28026209630834100</south>
              <east>124.07818201027096000</east>
              <west>124.02507821969748000</west>
            </LatLonBox>
          </GroundOverlay>
        </Folder>
      </Folder>
    </Folder>
    <Folder>
      <name>kml_image_L2_0_1</name>
      <Region>
        <LatLonAltBox>
          <north>10.43164467727558400</north>
          <south>10.28026209630834100</south>
          <east>124.07968592621494000</east>
          <west>124.07818201027096000</west>
        </LatLonAltBox>
        <Lod>
          <minLodPixels>36</minLodPixels>
          <maxLodPixels>2049</maxLodPixels>
        </Lod>
      </Region>
      <GroundOverlay>
        <drawOrder>2</drawOrder>
        <Icon>
          <href>kml_image_L2_0_1.png</href>
        </Icon>
        <LatLonBox>
          <north>10.43164467727558400</north>
          <south>10.28026209630834100</south>
          <east>124.07968592621494000</east>
          <west>124.07818201027096000</west>
        </LatLonBox>
      </GroundOverlay>
      <Folder>
        <name>kml_image_L3_0_2</name>
        <Region>
          <LatLonAltBox>
            <north>10.43164467727558400</north>
            <south>10.32565099323424600</south>
            <east>124.07968592621494000</east>
            <west>124.07818201027096000</west>
          </LatLonAltBox>
          <Lod>
            <minLodPixels>60</minLodPixels>
            <maxLodPixels>2049</maxLodPixels>
          </Lod>
        </Region>
        <GroundOverlay>
          <drawOrder>3</drawOrder>
          <Icon>
            <href>kml_image_L3_0_2.png</href>
          </Icon>
          <LatLonBox>
            <north>10.43164467727558400</north>
            <south>10.32565099323424600</south>
            <east>124.07968592621494000</east>
            <west>124.07818201027096000</west>
          </LatLonBox>
        </GroundOverlay>
        <Folder>
          <name>kml_image_L4_0_4</name>
          <Region>
            <LatLonAltBox>
              <north>10.43164467727558400</north>
              <south>10.37864783525491500</south>
              <east>124.07968592621494000</east>
              <west>124.07818201027096000</west>
            </LatLonAltBox>
            <Lod>
              <minLodPixels>86</minLodPixels>
              <maxLodPixels>-1</maxLodPixels>
            </Lod>
          </Region>
          <GroundOverlay>
            <drawOrder>4</drawOrder>
            <Icon>
              <href>kml_image_L4_0_4.png</href>
            </Icon>
            <LatLonBox>
              <north>10.43164467727558400</north>
              <south>10.37864783525491500</south>
              <east>124.07968592621494000</east>
              <west>124.07818201027096000</west>
            </LatLonBox>
          </GroundOverlay>
        </Folder>
        <Folder>
          <name>kml_image_L4_1_4</name>
          <Region>
            <LatLonAltBox>
              <north>10.37864783525491500</north>
              <south>10.32565099323424600</south>
              <east>124.07968592621494000</east>
              <west>124.07818201027096000</west>
            </LatLonAltBox>
            <Lod>
              <minLodPixels>86</minLodPixels>
              <maxLodPixels>-1</maxLodPixels>
            </Lod>
          </Region>
          <GroundOverlay>
            <drawOrder>4</drawOrder>
            <Icon>
              <href>kml_image_L4_1_4.png</href>
            </Icon>
            <LatLonBox>
              <north>10.37864783525491500</north>
              <south>10.32565099323424600</south>
              <east>124.07968592621494000</east>
              <west>124.07818201027096000</west>
            </LatLonBox>
          </GroundOverlay>
        </Folder>
      </Folder>
      <Folder>
        <name>kml_image_L3_1_2</name>
        <Region>
          <LatLonAltBox>
            <north>10.32565099323424600</north>
            <south>10.28026209630834100</south>
            <east>124.07968592621494000</east>
            <west>124.07818201027096000</west>
          </LatLonAltBox>
          <Lod>
            <minLodPixels>39</minLodPixels>
            <maxLodPixels>2049</maxLodPixels>
          </Lod>
        </Region>
        <GroundOverlay>
          <drawOrder>3</drawOrder>
          <Icon>
            <href>kml_image_L3_1_2.png</href>
          </Icon>
          <LatLonBox>
            <north>10.32565099323424600</north>
            <south>10.28026209630834100</south>
            <east>124.07968592621494000</east>
            <west>124.07818201027096000</west>
          </LatLonBox>
        </GroundOverlay>
        <Folder>
          <name>kml_image_L4_2_4</name>
          <Region>
            <LatLonAltBox>
              <north>10.32565099323424600</north>
              <south>10.28026209630834100</south>
              <east>124.07968592621494000</east>
              <west>124.07818201027096000</west>
            </LatLonAltBox>
            <Lod>
              <minLodPixels>80</minLodPixels>
              <maxLodPixels>-1</maxLodPixels>
            </Lod>
          </Region>
          <GroundOverlay>
            <drawOrder>4</drawOrder>
            <Icon>
              <href>kml_image_L4_2_4.png</href>
            </Icon>
            <LatLonBox>
              <north>10.32565099323424600</north>
              <south>10.28026209630834100</south>
              <east>124.07968592621494000</east>
              <west>124.07818201027096000</west>
            </LatLonBox>
          </GroundOverlay>
        </Folder>
      </Folder>
    </Folder>
  </Folder>
</Document>
</kml>
