<?xml version="1.0" encoding="UTF-8" standalone="no" ?><gpx xmlns="http://www.topografix.com/GPX/1/1" xmlns:gpxx="http://www.garmin.com/xmlschemas/GpxExtensions/v3" xmlns:wptx1="http://www.garmin.com/xmlschemas/WaypointExtension/v1" xmlns:gpxtpx="http://www.garmin.com/xmlschemas/TrackPointExtension/v1" creator="eTrex 22x" version="1.1" xmlns:xsi="http://www.w3.org/2001/XMLSchema-instance" xsi:schemaLocation="http://www.topografix.com/GPX/1/1 http://www.topografix.com/GPX/1/1/gpx.xsd http://www.garmin.com/xmlschemas/GpxExtensions/v3 http://www8.garmin.com/xmlschemas/GpxExtensionsv3.xsd http://www.garmin.com/xmlschemas/TrackStatsExtension/v1 http://www8.garmin.com/xmlschemas/TrackStatsExtension.xsd http://www.garmin.com/xmlschemas/WaypointExtension/v1 http://www8.garmin.com/xmlschemas/WaypointExtensionv1.xsd http://www.garmin.com/xmlschemas/TrackPointExtension/v1 http://www.garmin.com/xmlschemas/TrackPointExtensionv1.xsd"><metadata><link href="http://www.garmin.com"><text>Garmin International</text></link><time>2024-07-25T01:41:46Z</time></metadata><wpt lat="10.327242" lon="123.948876"><ele>-2.601040</ele><time>2024-07-25T01:41:46Z</time><name>672</name><sym>Flag, Blue</sym></wpt><wpt lat="10.327478" lon="123.948509"><ele>14.988213</ele><time>2024-07-25T01:56:56Z</time><name>673</name><sym>Flag, Blue</sym></wpt><wpt lat="10.326673" lon="123.948772"><ele>7.670574</ele><time>2024-07-25T02:00:55Z</time><name>674</name><sym>Flag, Blue</sym></wpt><wpt lat="10.326560" lon="123.948649"><ele>14.291656</ele><time>2024-07-25T02:06:55Z</time><name>675</name><sym>Flag, Blue</sym></wpt><wpt lat="10.326547" lon="123.948628"><ele>15.100105</ele><time>2024-07-25T02:08:20Z</time><name>676</name><sym>Flag, Blue</sym></wpt><wpt lat="10.326236" lon="123.948441"><ele>14.566399</ele><time>2024-07-25T02:10:07Z</time><name>677</name><sym>Flag, Blue</sym></wpt><wpt lat="10.327043" lon="123.945880"><ele>17.021851</ele><time>2024-07-25T02:25:49Z</time><name>678</name><sym>Flag, Blue</sym></wpt><wpt lat="10.327678" lon="123.946499"><ele>18.856895</ele><time>2024-07-25T02:27:45Z</time><name>679</name><sym>Flag, Blue</sym></wpt><wpt lat="10.328369" lon="123.946806"><ele>14.631386</ele><time>2024-07-25T02:29:49Z</time><name>680</name><sym>Flag, Blue</sym></wpt><wpt lat="10.328388" lon="123.946808"><ele>15.989265</ele><time>2024-07-25T02:30:43Z</time><name>681</name><sym>Flag, Blue</sym></wpt><wpt lat="10.328581" lon="123.946881"><ele>18.478306</ele><time>2024-07-25T02:31:42Z</time><name>682</name><sym>Flag, Blue</sym></wpt><wpt lat="10.328679" lon="123.946898"><ele>15.773277</ele><time>2024-07-25T02:32:59Z</time><name>683</name><sym>Flag, Blue</sym></wpt><wpt lat="10.328789" lon="123.946970"><ele>22.042149</ele><time>2024-07-25T02:37:44Z</time><name>684</name><sym>Flag, Blue</sym></wpt><wpt lat="10.328825" lon="123.946977"><ele>20.570202</ele><time>2024-07-25T02:38:59Z</time><name>685</name><sym>Flag, Blue</sym></wpt><wpt lat="10.329397" lon="123.947284"><ele>14.471859</ele><time>2024-07-25T02:41:44Z</time><name>686</name><sym>Flag, Blue</sym></wpt><wpt lat="10.330210" lon="123.947777"><ele>12.163509</ele><time>2024-07-25T02:44:53Z</time><name>687</name><sym>Flag, Blue</sym></wpt><wpt lat="10.330000" lon="123.947901"><ele>20.750816</ele><time>2024-07-25T02:46:10Z</time><name>688</name><sym>Flag, Blue</sym></wpt><wpt lat="10.330061" lon="123.948020"><ele>22.407097</ele><time>2024-07-25T02:48:17Z</time><name>689</name><sym>Flag, Blue</sym></wpt><wpt lat="10.330157" lon="123.947750"><ele>32.555431</ele><time>2024-07-25T02:49:28Z</time><name>690</name><sym>Flag, Blue</sym></wpt><wpt lat="10.330281" lon="123.947752"><ele>25.906132</ele><time>2024-07-25T02:50:23Z</time><name>691</name><sym>Flag, Blue</sym></wpt><wpt lat="10.330261" lon="123.948104"><ele>26.193611</ele><time>2024-07-25T02:51:53Z</time><name>692</name><sym>Flag, Blue</sym></wpt><wpt lat="10.329343" lon="123.949399"><ele>24.023373</ele><time>2024-07-25T02:53:50Z</time><name>693</name><sym>Flag, Blue</sym></wpt><wpt lat="10.329337" lon="123.949477"><ele>21.403748</ele><time>2024-07-25T02:55:18Z</time><name>694</name><sym>Flag, Blue</sym></wpt><wpt lat="10.328926" lon="123.949880"><ele>20.582684</ele><time>2024-07-25T02:56:52Z</time><name>695</name><sym>Flag, Blue</sym></wpt><wpt lat="10.328921" lon="123.950046"><ele>23.097485</ele><time>2024-07-25T02:58:10Z</time><name>696</name><sym>Flag, Blue</sym></wpt><wpt lat="10.328853" lon="123.950090"><ele>21.287823</ele><time>2024-07-25T02:58:56Z</time><name>697</name><sym>Flag, Blue</sym></wpt><wpt lat="10.328842" lon="123.950125"><ele>22.125713</ele><time>2024-07-25T02:59:58Z</time><name>698</name><sym>Flag, Blue</sym></wpt><wpt lat="10.328541" lon="123.950497"><ele>18.073666</ele><time>2024-07-25T03:01:29Z</time><name>699</name><sym>Flag, Blue</sym></wpt><wpt lat="10.328494" lon="123.950538"><ele>14.838978</ele><time>2024-07-25T03:02:07Z</time><name>700</name><sym>Flag, Blue</sym></wpt><wpt lat="10.328404" lon="123.950674"><ele>13.193497</ele><time>2024-07-25T03:02:57Z</time><name>701</name><sym>Flag, Blue</sym></wpt><wpt lat="10.328342" lon="123.950703"><ele>17.545094</ele><time>2024-07-25T03:03:42Z</time><name>702</name><sym>Flag, Blue</sym></wpt><wpt lat="10.327622" lon="123.951324"><ele>-2.630833</ele><time>2024-07-25T03:05:44Z</time><name>703</name><sym>Flag, Blue</sym></wpt><wpt lat="10.327604" lon="123.951337"><ele>4.938919</ele><time>2024-07-25T03:06:07Z</time><name>704</name><sym>Flag, Blue</sym></wpt><wpt lat="10.327512" lon="123.951378"><ele>19.783577</ele><time>2024-07-25T03:07:17Z</time><name>705</name><sym>Flag, Blue</sym></wpt><wpt lat="10.327497" lon="123.951397"><ele>20.223278</ele><time>2024-07-25T03:08:24Z</time><name>706</name><sym>Flag, Blue</sym></wpt><wpt lat="10.327436" lon="123.951460"><ele>22.998344</ele><time>2024-07-25T03:09:16Z</time><name>707</name><sym>Flag, Blue</sym></wpt><wpt lat="10.327411" lon="123.951444"><ele>26.533764</ele><time>2024-07-25T03:10:11Z</time><name>708</name><sym>Flag, Blue</sym></wpt><wpt lat="10.327462" lon="123.951377"><ele>20.394413</ele><time>2024-07-25T03:10:55Z</time><name>709</name><sym>Flag, Blue</sym></wpt><wpt lat="10.327465" lon="123.951378"><ele>18.942127</ele><time>2024-07-25T03:11:02Z</time><name>710</name><sym>Flag, Blue</sym></wpt><wpt lat="10.327362" lon="123.951476"><ele>20.825706</ele><time>2024-07-25T03:14:30Z</time><name>711</name><sym>Flag, Blue</sym></wpt><wpt lat="10.327325" lon="123.951473"><ele>20.819172</ele><time>2024-07-25T03:15:18Z</time><name>712</name><sym>Flag, Blue</sym></wpt><wpt lat="10.327196" lon="123.951549"><ele>22.642174</ele><time>2024-07-25T03:16:56Z</time><name>713</name><sym>Flag, Blue</sym></wpt><wpt lat="10.327146" lon="123.951596"><ele>21.023743</ele><time>2024-07-25T03:17:59Z</time><name>714</name><sym>Flag, Blue</sym></wpt><wpt lat="10.327188" lon="123.951829"><ele>20.406097</ele><time>2024-07-25T03:23:51Z</time><name>715</name><sym>Flag, Blue</sym></wpt><wpt lat="10.327431" lon="123.951680"><ele>22.555172</ele><time>2024-07-25T03:24:32Z</time><name>716</name><sym>Flag, Blue</sym></wpt><wpt lat="10.328873" lon="123.950450"><ele>25.096840</ele><time>2024-07-25T03:27:31Z</time><name>717</name><sym>Flag, Blue</sym></wpt><wpt lat="10.328901" lon="123.950402"><ele>21.998653</ele><time>2024-07-25T03:28:40Z</time><name>718</name><sym>Flag, Blue</sym></wpt><wpt lat="10.329031" lon="123.950218"><ele>14.318195</ele><time>2024-07-25T03:29:28Z</time><name>719</name><sym>Flag, Blue</sym></wpt><wpt lat="10.329026" lon="123.950207"><ele>14.889351</ele><time>2024-07-25T06:05:30Z</time><name>720</name><sym>Flag, Blue</sym></wpt><wpt lat="10.332651" lon="123.949243"><ele>19.948574</ele><time>2024-07-25T06:07:27Z</time><name>721</name><sym>Flag, Blue</sym></wpt><wpt lat="10.332148" lon="123.950195"><ele>22.080963</ele><time>2024-07-25T06:10:05Z</time><name>722</name><sym>Flag, Blue</sym></wpt><wpt lat="10.332153" lon="123.950234"><ele>25.118584</ele><time>2024-07-25T06:10:43Z</time><name>723</name><sym>Flag, Blue</sym></wpt><wpt lat="10.332101" lon="123.950437"><ele>33.740875</ele><time>2024-07-25T06:11:17Z</time><name>724</name><sym>Flag, Blue</sym></wpt><wpt lat="10.331982" lon="123.950728"><ele>29.168037</ele><time>2024-07-25T06:12:18Z</time><name>725</name><sym>Flag, Blue</sym></wpt><wpt lat="10.325098" lon="123.950982"><ele>30.994297</ele><time>2024-07-25T06:21:02Z</time><name>726</name><sym>Flag, Blue</sym></wpt><wpt lat="10.324950" lon="123.950865"><ele>28.644669</ele><time>2024-07-25T06:22:56Z</time><name>727</name><sym>Flag, Blue</sym></wpt><wpt lat="10.325014" lon="123.950176"><ele>22.858765</ele><time>2024-07-25T06:25:27Z</time><name>728</name><sym>Flag, Blue</sym></wpt><wpt lat="10.325338" lon="123.949126"><ele>29.207947</ele><time>2024-07-25T06:27:51Z</time><name>729</name><sym>Flag, Blue</sym></wpt></gpx>