<?xml version="1.0" encoding="UTF-8" standalone="no" ?><gpx xmlns="http://www.topografix.com/GPX/1/1" xmlns:gpxx="http://www.garmin.com/xmlschemas/GpxExtensions/v3" xmlns:wptx1="http://www.garmin.com/xmlschemas/WaypointExtension/v1" xmlns:gpxtpx="http://www.garmin.com/xmlschemas/TrackPointExtension/v1" creator="eTrex 22x" version="1.1" xmlns:xsi="http://www.w3.org/2001/XMLSchema-instance" xsi:schemaLocation="http://www.topografix.com/GPX/1/1 http://www.topografix.com/GPX/1/1/gpx.xsd http://www.garmin.com/xmlschemas/GpxExtensions/v3 http://www8.garmin.com/xmlschemas/GpxExtensionsv3.xsd http://www.garmin.com/xmlschemas/TrackStatsExtension/v1 http://www8.garmin.com/xmlschemas/TrackStatsExtension.xsd http://www.garmin.com/xmlschemas/WaypointExtension/v1 http://www8.garmin.com/xmlschemas/WaypointExtensionv1.xsd http://www.garmin.com/xmlschemas/TrackPointExtension/v1 http://www.garmin.com/xmlschemas/TrackPointExtensionv1.xsd"><metadata><link href="http://www.garmin.com"><text>Garmin International</text></link><time>2024-08-13T02:11:11Z</time></metadata><wpt lat="10.324992" lon="123.961114"><ele>24.562416</ele><time>2024-08-13T02:11:11Z</time><name>046</name><sym>Flag, Blue</sym></wpt><wpt lat="10.325004" lon="123.961165"><ele>28.764065</ele><time>2024-08-13T02:11:56Z</time><name>047</name><sym>Flag, Blue</sym></wpt><wpt lat="10.325201" lon="123.960973"><ele>22.831097</ele><time>2024-08-13T02:12:35Z</time><name>048</name><sym>Flag, Blue</sym></wpt><wpt lat="10.325404" lon="123.960153"><ele>25.379452</ele><time>2024-08-13T02:14:29Z</time><name>049</name><sym>Flag, Blue</sym></wpt><wpt lat="10.325348" lon="123.960083"><ele>23.683746</ele><time>2024-08-13T02:15:16Z</time><name>050</name><sym>Flag, Blue</sym></wpt><wpt lat="10.325249" lon="123.959918"><ele>20.936340</ele><time>2024-08-13T02:16:00Z</time><name>051</name><sym>Flag, Blue</sym></wpt><wpt lat="10.325430" lon="123.959739"><ele>22.134872</ele><time>2024-08-13T02:16:49Z</time><name>052</name><sym>Flag, Blue</sym></wpt><wpt lat="10.325671" lon="123.959221"><ele>21.787495</ele><time>2024-08-13T02:18:44Z</time><name>053</name><sym>Flag, Blue</sym></wpt><wpt lat="10.325668" lon="123.959204"><ele>21.987728</ele><time>2024-08-13T02:19:02Z</time><name>054</name><sym>Flag, Blue</sym></wpt><wpt lat="10.327379" lon="123.956461"><ele>24.949684</ele><time>2024-08-13T02:24:07Z</time><name>055</name><sym>Flag, Blue</sym></wpt><wpt lat="10.327358" lon="123.956421"><ele>22.424713</ele><time>2024-08-13T02:25:07Z</time><name>056</name><sym>Flag, Blue</sym></wpt><wpt lat="10.327239" lon="123.956172"><ele>26.452873</ele><time>2024-08-13T02:27:58Z</time><name>057</name><sym>Flag, Blue</sym></wpt><wpt lat="10.327218" lon="123.956200"><ele>26.356125</ele><time>2024-08-13T02:28:31Z</time><name>058</name><sym>Flag, Blue</sym></wpt><wpt lat="10.327209" lon="123.956188"><ele>25.204018</ele><time>2024-08-13T02:29:07Z</time><name>059</name><sym>Flag, Blue</sym></wpt><wpt lat="10.327218" lon="123.956177"><ele>25.269279</ele><time>2024-08-13T02:29:20Z</time><name>060</name><sym>Flag, Blue</sym></wpt><wpt lat="10.327405" lon="123.956246"><ele>24.516403</ele><time>2024-08-13T02:30:00Z</time><name>061</name><sym>Flag, Blue</sym></wpt><wpt lat="10.327399" lon="123.956258"><ele>24.380791</ele><time>2024-08-13T02:30:10Z</time><name>062</name><sym>Flag, Blue</sym></wpt><wpt lat="10.327472" lon="123.956292"><ele>22.723480</ele><time>2024-08-13T02:30:42Z</time><name>063</name><sym>Flag, Blue</sym></wpt><wpt lat="10.328424" lon="123.955242"><ele>26.631275</ele><time>2024-08-13T02:33:09Z</time><name>064</name><sym>Flag, Blue</sym></wpt><wpt lat="10.328565" lon="123.955019"><ele>26.626003</ele><time>2024-08-13T02:34:14Z</time><name>065</name><sym>Flag, Blue</sym></wpt><wpt lat="10.328440" lon="123.955015"><ele>25.203159</ele><time>2024-08-13T02:34:42Z</time><name>066</name><sym>Flag, Blue</sym></wpt><wpt lat="10.328721" lon="123.955046"><ele>25.680832</ele><time>2024-08-13T02:35:29Z</time><name>067</name><sym>Flag, Blue</sym></wpt><wpt lat="10.328741" lon="123.954893"><ele>24.912907</ele><time>2024-08-13T02:36:47Z</time><name>068</name><sym>Flag, Blue</sym></wpt><wpt lat="10.328748" lon="123.954714"><ele>21.870087</ele><time>2024-08-13T02:37:27Z</time><name>069</name><sym>Flag, Blue</sym></wpt><wpt lat="10.328713" lon="123.954783"><ele>21.772865</ele><time>2024-08-13T02:37:53Z</time><name>070</name><sym>Flag, Blue</sym></wpt><wpt lat="10.328713" lon="123.954778"><ele>23.489357</ele><time>2024-08-13T02:38:07Z</time><name>071</name><sym>Flag, Blue</sym></wpt><wpt lat="10.328943" lon="123.954507"><ele>24.430336</ele><time>2024-08-13T02:38:58Z</time><name>072</name><sym>Flag, Blue</sym></wpt></gpx>