<?xml version="1.0" encoding="UTF-8" standalone="no" ?><gpx xmlns="http://www.topografix.com/GPX/1/1" xmlns:gpxx="http://www.garmin.com/xmlschemas/GpxExtensions/v3" xmlns:wptx1="http://www.garmin.com/xmlschemas/WaypointExtension/v1" xmlns:gpxtpx="http://www.garmin.com/xmlschemas/TrackPointExtension/v1" creator="eTrex 22x" version="1.1" xmlns:xsi="http://www.w3.org/2001/XMLSchema-instance" xsi:schemaLocation="http://www.topografix.com/GPX/1/1 http://www.topografix.com/GPX/1/1/gpx.xsd http://www.garmin.com/xmlschemas/GpxExtensions/v3 http://www8.garmin.com/xmlschemas/GpxExtensionsv3.xsd http://www.garmin.com/xmlschemas/TrackStatsExtension/v1 http://www8.garmin.com/xmlschemas/TrackStatsExtension.xsd http://www.garmin.com/xmlschemas/WaypointExtension/v1 http://www8.garmin.com/xmlschemas/WaypointExtensionv1.xsd http://www.garmin.com/xmlschemas/TrackPointExtension/v1 http://www.garmin.com/xmlschemas/TrackPointExtensionv1.xsd"><metadata><link href="http://www.garmin.com"><text>Garmin International</text></link><time>2024-08-12T02:00:47Z</time></metadata><wpt lat="10.332011" lon="123.954407"><ele>77.013306</ele><time>2024-08-12T02:00:47Z</time><name>1949</name><sym>Flag, Blue</sym></wpt><wpt lat="10.332128" lon="123.954357"><ele>79.925018</ele><time>2024-08-12T02:01:48Z</time><name>1950</name><sym>Flag, Blue</sym></wpt><wpt lat="10.332140" lon="123.954312"><ele>25.882271</ele><time>2024-08-12T02:03:35Z</time><name>1951</name><sym>Flag, Blue</sym></wpt><wpt lat="10.332231" lon="123.954352"><ele>24.051617</ele><time>2024-08-12T02:04:57Z</time><name>1952</name><sym>Flag, Blue</sym></wpt><wpt lat="10.332229" lon="123.954377"><ele>24.723888</ele><time>2024-08-12T02:05:16Z</time><name>1953</name><sym>Flag, Blue</sym></wpt><wpt lat="10.332236" lon="123.954394"><ele>27.616802</ele><time>2024-08-12T02:05:50Z</time><name>1954</name><sym>Flag, Blue</sym></wpt><wpt lat="10.332245" lon="123.954437"><ele>27.276230</ele><time>2024-08-12T02:06:03Z</time><name>1955</name><sym>Flag, Blue</sym></wpt><wpt lat="10.332252" lon="123.954459"><ele>27.555840</ele><time>2024-08-12T02:06:14Z</time><name>1956</name><sym>Flag, Blue</sym></wpt><wpt lat="10.332244" lon="123.954493"><ele>27.724579</ele><time>2024-08-12T02:06:25Z</time><name>1957</name><sym>Flag, Blue</sym></wpt><wpt lat="10.332248" lon="123.954529"><ele>27.429153</ele><time>2024-08-12T02:06:37Z</time><name>1958</name><sym>Flag, Blue</sym></wpt><wpt lat="10.332245" lon="123.954538"><ele>27.375099</ele><time>2024-08-12T02:06:51Z</time><name>1959</name><sym>Flag, Blue</sym></wpt><wpt lat="10.332241" lon="123.954545"><ele>28.271503</ele><time>2024-08-12T02:07:02Z</time><name>1960</name><sym>Flag, Blue</sym></wpt><wpt lat="10.332249" lon="123.954728"><ele>23.931717</ele><time>2024-08-12T02:08:19Z</time><name>1961</name><sym>Flag, Blue</sym></wpt><wpt lat="10.332246" lon="123.954724"><ele>22.357307</ele><time>2024-08-12T02:08:30Z</time><name>1962</name><sym>Flag, Blue</sym></wpt><wpt lat="10.332248" lon="123.954740"><ele>20.808167</ele><time>2024-08-12T02:08:39Z</time><name>1963</name><sym>Flag, Blue</sym></wpt><wpt lat="10.332234" lon="123.954751"><ele>16.846539</ele><time>2024-08-12T02:09:01Z</time><name>1964</name><sym>Flag, Blue</sym></wpt><wpt lat="10.332263" lon="123.954808"><ele>19.062862</ele><time>2024-08-12T02:09:24Z</time><name>1965</name><sym>Flag, Blue</sym></wpt><wpt lat="10.332283" lon="123.954836"><ele>20.758465</ele><time>2024-08-12T02:09:45Z</time><name>1966</name><sym>Flag, Blue</sym></wpt><wpt lat="10.332367" lon="123.954964"><ele>22.673775</ele><time>2024-08-12T02:11:01Z</time><name>1967</name><sym>Flag, Blue</sym></wpt><wpt lat="10.332365" lon="123.954962"><ele>22.359177</ele><time>2024-08-12T02:11:12Z</time><name>1968</name><sym>Flag, Blue</sym></wpt><wpt lat="10.332368" lon="123.954959"><ele>22.702484</ele><time>2024-08-12T02:11:25Z</time><name>1969</name><sym>Flag, Blue</sym></wpt><wpt lat="10.332371" lon="123.954979"><ele>22.362267</ele><time>2024-08-12T02:11:50Z</time><name>1970</name><sym>Flag, Blue</sym></wpt><wpt lat="10.332366" lon="123.954966"><ele>21.306656</ele><time>2024-08-12T02:12:13Z</time><name>1971</name><sym>Flag, Blue</sym></wpt><wpt lat="10.332352" lon="123.954917"><ele>20.662277</ele><time>2024-08-12T02:12:35Z</time><name>1972</name><sym>Flag, Blue</sym></wpt><wpt lat="10.332364" lon="123.954862"><ele>20.249184</ele><time>2024-08-12T02:12:55Z</time><name>1973</name><sym>Flag, Blue</sym></wpt><wpt lat="10.332331" lon="123.954645"><ele>16.676392</ele><time>2024-08-12T02:13:41Z</time><name>1974</name><sym>Flag, Blue</sym></wpt><wpt lat="10.332345" lon="123.954606"><ele>15.929001</ele><time>2024-08-12T02:14:27Z</time><name>1975</name><sym>Flag, Blue</sym></wpt><wpt lat="10.332284" lon="123.954509"><ele>17.563004</ele><time>2024-08-12T02:15:26Z</time><name>1976</name><sym>Flag, Blue</sym></wpt><wpt lat="10.332314" lon="123.954427"><ele>18.944107</ele><time>2024-08-12T02:15:57Z</time><name>1977</name><sym>Flag, Blue</sym></wpt><wpt lat="10.332311" lon="123.954398"><ele>19.780495</ele><time>2024-08-12T02:16:22Z</time><name>1978</name><sym>Flag, Blue</sym></wpt><wpt lat="10.332339" lon="123.954356"><ele>19.922890</ele><time>2024-08-12T02:16:39Z</time><name>1979</name><sym>Flag, Blue</sym></wpt><wpt lat="10.332363" lon="123.954364"><ele>21.269318</ele><time>2024-08-12T02:16:57Z</time><name>1980</name><sym>Flag, Blue</sym></wpt><wpt lat="10.332349" lon="123.954375"><ele>22.816948</ele><time>2024-08-12T02:17:47Z</time><name>1981</name><sym>Flag, Blue</sym></wpt><wpt lat="10.332366" lon="123.954355"><ele>22.667915</ele><time>2024-08-12T02:18:00Z</time><name>1982</name><sym>Flag, Blue</sym></wpt><wpt lat="10.332374" lon="123.954346"><ele>20.866531</ele><time>2024-08-12T02:18:19Z</time><name>1983</name><sym>Flag, Blue</sym></wpt><wpt lat="10.332369" lon="123.954335"><ele>20.320038</ele><time>2024-08-12T02:18:32Z</time><name>1984</name><sym>Flag, Blue</sym></wpt><wpt lat="10.332383" lon="123.954349"><ele>19.279770</ele><time>2024-08-12T02:18:43Z</time><name>1985</name><sym>Flag, Blue</sym></wpt><wpt lat="10.332389" lon="123.954343"><ele>18.013496</ele><time>2024-08-12T02:18:53Z</time><name>1986</name><sym>Flag, Blue</sym></wpt><wpt lat="10.332388" lon="123.954328"><ele>17.846844</ele><time>2024-08-12T02:19:05Z</time><name>1987</name><sym>Flag, Blue</sym></wpt><wpt lat="10.332396" lon="123.954313"><ele>19.307568</ele><time>2024-08-12T02:19:21Z</time><name>1988</name><sym>Flag, Blue</sym></wpt><wpt lat="10.332414" lon="123.954351"><ele>20.168278</ele><time>2024-08-12T02:19:32Z</time><name>1989</name><sym>Flag, Blue</sym></wpt><wpt lat="10.332457" lon="123.954290"><ele>17.343136</ele><time>2024-08-12T02:20:16Z</time><name>1990</name><sym>Flag, Blue</sym></wpt><wpt lat="10.332434" lon="123.954312"><ele>16.366253</ele><time>2024-08-12T02:20:48Z</time><name>1991</name><sym>Flag, Blue</sym></wpt><wpt lat="10.332442" lon="123.954313"><ele>16.078472</ele><time>2024-08-12T02:21:02Z</time><name>1992</name><sym>Flag, Blue</sym></wpt><wpt lat="10.332448" lon="123.954297"><ele>16.010609</ele><time>2024-08-12T02:21:14Z</time><name>1993</name><sym>Flag, Blue</sym></wpt><wpt lat="10.332475" lon="123.954306"><ele>15.766926</ele><time>2024-08-12T02:21:29Z</time><name>1994</name><sym>Flag, Blue</sym></wpt><wpt lat="10.332470" lon="123.954289"><ele>14.266338</ele><time>2024-08-12T02:21:47Z</time><name>1995</name><sym>Flag, Blue</sym></wpt><wpt lat="10.332474" lon="123.954274"><ele>9.751411</ele><time>2024-08-12T02:22:17Z</time><name>1996</name><sym>Flag, Blue</sym></wpt><wpt lat="10.332473" lon="123.954266"><ele>8.527290</ele><time>2024-08-12T02:22:33Z</time><name>1997</name><sym>Flag, Blue</sym></wpt><wpt lat="10.332468" lon="123.954258"><ele>7.491516</ele><time>2024-08-12T02:22:46Z</time><name>1998</name><sym>Flag, Blue</sym></wpt><wpt lat="10.332480" lon="123.954268"><ele>6.977970</ele><time>2024-08-12T02:22:58Z</time><name>1999</name><sym>Flag, Blue</sym></wpt><wpt lat="10.332504" lon="123.954277"><ele>7.366459</ele><time>2024-08-12T02:23:12Z</time><name>2000</name><sym>Flag, Blue</sym></wpt><wpt lat="10.332507" lon="123.954274"><ele>7.812481</ele><time>2024-08-12T02:23:26Z</time><name>001</name><sym>Flag, Blue</sym></wpt><wpt lat="10.332511" lon="123.954283"><ele>9.986736</ele><time>2024-08-12T02:24:03Z</time><name>002</name><sym>Flag, Blue</sym></wpt><wpt lat="10.332524" lon="123.954280"><ele>12.321911</ele><time>2024-08-12T02:24:21Z</time><name>003</name><sym>Flag, Blue</sym></wpt><wpt lat="10.332504" lon="123.954289"><ele>16.513996</ele><time>2024-08-12T02:24:33Z</time><name>004</name><sym>Flag, Blue</sym></wpt><wpt lat="10.332497" lon="123.954305"><ele>17.431507</ele><time>2024-08-12T02:24:45Z</time><name>005</name><sym>Flag, Blue</sym></wpt><wpt lat="10.332499" lon="123.954298"><ele>18.229305</ele><time>2024-08-12T02:25:00Z</time><name>006</name><sym>Flag, Blue</sym></wpt><wpt lat="10.332493" lon="123.954289"><ele>18.319775</ele><time>2024-08-12T02:25:12Z</time><name>007</name><sym>Flag, Blue</sym></wpt><wpt lat="10.332479" lon="123.954295"><ele>17.735043</ele><time>2024-08-12T02:25:25Z</time><name>008</name><sym>Flag, Blue</sym></wpt><wpt lat="10.332468" lon="123.954293"><ele>17.233234</ele><time>2024-08-12T02:25:38Z</time><name>009</name><sym>Flag, Blue</sym></wpt><wpt lat="10.332471" lon="123.954303"><ele>17.975422</ele><time>2024-08-12T02:25:49Z</time><name>010</name><sym>Flag, Blue</sym></wpt><wpt lat="10.332535" lon="123.954432"><ele>21.542713</ele><time>2024-08-12T02:26:33Z</time><name>011</name><sym>Flag, Blue</sym></wpt><wpt lat="10.332529" lon="123.954428"><ele>21.236446</ele><time>2024-08-12T02:26:46Z</time><name>012</name><sym>Flag, Blue</sym></wpt><wpt lat="10.332518" lon="123.954419"><ele>21.222794</ele><time>2024-08-12T02:27:02Z</time><name>013</name><sym>Flag, Blue</sym></wpt><wpt lat="10.332179" lon="123.954104"><ele>2.209911</ele><time>2024-08-12T02:29:58Z</time><name>014</name><sym>Flag, Blue</sym></wpt><wpt lat="10.332163" lon="123.954074"><ele>14.250782</ele><time>2024-08-12T02:30:14Z</time><name>015</name><sym>Flag, Blue</sym></wpt><wpt lat="10.332085" lon="123.954192"><ele>17.797348</ele><time>2024-08-12T02:30:56Z</time><name>016</name><sym>Flag, Blue</sym></wpt><wpt lat="10.332096" lon="123.954208"><ele>19.038918</ele><time>2024-08-12T02:31:14Z</time><name>017</name><sym>Flag, Blue</sym></wpt><wpt lat="10.332046" lon="123.954218"><ele>19.840080</ele><time>2024-08-12T02:31:33Z</time><name>018</name><sym>Flag, Blue</sym></wpt><wpt lat="10.331970" lon="123.954339"><ele>22.163799</ele><time>2024-08-12T02:33:00Z</time><name>019</name><sym>Flag, Blue</sym></wpt><wpt lat="10.331759" lon="123.954363"><ele>16.699364</ele><time>2024-08-12T02:35:36Z</time><name>020</name><sym>Flag, Blue</sym></wpt><wpt lat="10.330852" lon="123.953376"><ele>16.726952</ele><time>2024-08-12T02:39:12Z</time><name>021</name><sym>Flag, Blue</sym></wpt><wpt lat="10.330850" lon="123.953376"><ele>17.013062</ele><time>2024-08-12T02:39:26Z</time><name>022</name><sym>Flag, Blue</sym></wpt><wpt lat="10.330767" lon="123.953281"><ele>18.814682</ele><time>2024-08-12T02:39:59Z</time><name>023</name><sym>Flag, Blue</sym></wpt><wpt lat="10.330655" lon="123.953169"><ele>19.501770</ele><time>2024-08-12T02:41:00Z</time><name>024</name><sym>Flag, Blue</sym></wpt><wpt lat="10.330489" lon="123.953015"><ele>15.636028</ele><time>2024-08-12T02:45:36Z</time><name>025</name><sym>Flag, Blue</sym></wpt><wpt lat="10.330465" lon="123.953028"><ele>17.824394</ele><time>2024-08-12T02:45:59Z</time><name>026</name><sym>Flag, Blue</sym></wpt><wpt lat="10.330298" lon="123.953128"><ele>18.265678</ele><time>2024-08-12T02:46:32Z</time><name>027</name><sym>Flag, Blue</sym></wpt><wpt lat="10.330286" lon="123.953140"><ele>17.433746</ele><time>2024-08-12T02:46:47Z</time><name>028</name><sym>Flag, Blue</sym></wpt><wpt lat="10.330116" lon="123.953235"><ele>17.716686</ele><time>2024-08-12T02:47:17Z</time><name>029</name><sym>Flag, Blue</sym></wpt><wpt lat="10.330120" lon="123.953262"><ele>18.208965</ele><time>2024-08-12T02:47:30Z</time><name>030</name><sym>Flag, Blue</sym></wpt><wpt lat="10.330101" lon="123.953274"><ele>18.509686</ele><time>2024-08-12T02:47:43Z</time><name>031</name><sym>Flag, Blue</sym></wpt><wpt lat="10.329949" lon="123.953320"><ele>19.679287</ele><time>2024-08-12T02:48:12Z</time><name>032</name><sym>Flag, Blue</sym></wpt><wpt lat="10.329430" lon="123.953781"><ele>9.809368</ele><time>2024-08-12T02:49:58Z</time><name>033</name><sym>Flag, Blue</sym></wpt><wpt lat="10.329111" lon="123.954085"><ele>19.559704</ele><time>2024-08-12T02:51:43Z</time><name>034</name><sym>Flag, Blue</sym></wpt><wpt lat="10.330400" lon="123.957033"><ele>20.227829</ele><time>2024-08-12T02:55:45Z</time><name>035</name><sym>Flag, Blue</sym></wpt><wpt lat="10.330233" lon="123.957160"><ele>18.890011</ele><time>2024-08-12T02:57:27Z</time><name>036</name><sym>Flag, Blue</sym></wpt><wpt lat="10.330238" lon="123.957202"><ele>18.925171</ele><time>2024-08-12T02:58:05Z</time><name>037</name><sym>Flag, Blue</sym></wpt><wpt lat="10.330394" lon="123.956961"><ele>17.823940</ele><time>2024-08-12T02:59:51Z</time><name>038</name><sym>Flag, Blue</sym></wpt><wpt lat="10.330384" lon="123.956551"><ele>17.528339</ele><time>2024-08-12T03:01:01Z</time><name>039</name><sym>Flag, Blue</sym></wpt><wpt lat="10.330306" lon="123.956516"><ele>18.767277</ele><time>2024-08-12T03:01:37Z</time><name>040</name><sym>Flag, Blue</sym></wpt><wpt lat="10.330120" lon="123.956456"><ele>19.634636</ele><time>2024-08-12T03:02:30Z</time><name>041</name><sym>Flag, Blue</sym></wpt><wpt lat="10.330021" lon="123.956391"><ele>19.672363</ele><time>2024-08-12T03:02:54Z</time><name>042</name><sym>Flag, Blue</sym></wpt><wpt lat="10.330000" lon="123.956379"><ele>20.430740</ele><time>2024-08-12T03:03:17Z</time><name>043</name><sym>Flag, Blue</sym></wpt><wpt lat="10.329510" lon="123.955933"><ele>16.576324</ele><time>2024-08-12T03:04:46Z</time><name>044</name><sym>Flag, Blue</sym></wpt><wpt lat="10.329405" lon="123.955858"><ele>21.295834</ele><time>2024-08-12T03:05:37Z</time><name>045</name><sym>Flag, Blue</sym></wpt></gpx>