<?xml version="1.0" encoding="UTF-8" standalone="no" ?><gpx xmlns="http://www.topografix.com/GPX/1/1" xmlns:gpxx="http://www.garmin.com/xmlschemas/GpxExtensions/v3" xmlns:wptx1="http://www.garmin.com/xmlschemas/WaypointExtension/v1" xmlns:gpxtpx="http://www.garmin.com/xmlschemas/TrackPointExtension/v1" creator="Oregon 750" version="1.1" xmlns:xsi="http://www.w3.org/2001/XMLSchema-instance" xsi:schemaLocation="http://www.topografix.com/GPX/1/1 http://www.topografix.com/GPX/1/1/gpx.xsd http://www.garmin.com/xmlschemas/GpxExtensions/v3 http://www8.garmin.com/xmlschemas/GpxExtensionsv3.xsd http://www.garmin.com/xmlschemas/TrackStatsExtension/v1 http://www8.garmin.com/xmlschemas/TrackStatsExtension.xsd http://www.garmin.com/xmlschemas/WaypointExtension/v1 http://www8.garmin.com/xmlschemas/WaypointExtensionv1.xsd http://www.garmin.com/xmlschemas/TrackPointExtension/v1 http://www.garmin.com/xmlschemas/TrackPointExtensionv1.xsd"><metadata><link href="http://www.garmin.com"><text>Garmin International</text></link><time>2024-09-10T02:13:35Z</time></metadata><wpt lat="10.350243" lon="123.956193"><ele>8.257662</ele><time>2024-09-10T02:13:35Z</time><name>3814</name><sym>Flag, Blue</sym></wpt><wpt lat="10.396766" lon="123.925713"><ele>8.276323</ele><time>2024-09-10T02:15:01Z</time><name>3815</name><sym>Flag, Blue</sym></wpt><wpt lat="10.396354" lon="123.926163"><ele>15.852845</ele><time>2024-09-10T02:17:37Z</time><name>3816</name><sym>Flag, Blue</sym></wpt><wpt lat="10.396311" lon="123.926132"><ele>16.487333</ele><time>2024-09-10T02:18:10Z</time><name>3817</name><sym>Flag, Blue</sym></wpt><wpt lat="10.396272" lon="123.926123"><ele>16.645954</ele><time>2024-09-10T02:18:24Z</time><name>3818</name><sym>Flag, Blue</sym></wpt><wpt lat="10.396252" lon="123.926114"><ele>17.793629</ele><time>2024-09-10T02:18:40Z</time><name>3819</name><sym>Flag, Blue</sym></wpt><wpt lat="10.396229" lon="123.926113"><ele>18.204180</ele><time>2024-09-10T02:19:01Z</time><name>3820</name><sym>Flag, Blue</sym></wpt><wpt lat="10.396231" lon="123.926110"><ele>18.176188</ele><time>2024-09-10T02:19:08Z</time><name>3821</name><sym>Flag, Blue</sym></wpt><wpt lat="10.396206" lon="123.926105"><ele>18.306818</ele><time>2024-09-10T02:19:29Z</time><name>3822</name><sym>Flag, Blue</sym></wpt><wpt lat="10.396203" lon="123.926102"><ele>18.390793</ele><time>2024-09-10T02:19:34Z</time><name>3823</name><sym>Flag, Blue</sym></wpt><wpt lat="10.396187" lon="123.926083"><ele>19.099926</ele><time>2024-09-10T02:19:52Z</time><name>3824</name><sym>Flag, Blue</sym></wpt><wpt lat="10.396173" lon="123.926078"><ele>19.118587</ele><time>2024-09-10T02:20:08Z</time><name>3825</name><sym>Flag, Blue</sym></wpt><wpt lat="10.396163" lon="123.926081"><ele>19.118587</ele><time>2024-09-10T02:20:13Z</time><name>3826</name><sym>Flag, Blue</sym></wpt><wpt lat="10.396139" lon="123.926073"><ele>19.445162</ele><time>2024-09-10T02:20:22Z</time><name>3827</name><sym>Flag, Blue</sym></wpt><wpt lat="10.396120" lon="123.926060"><ele>19.295870</ele><time>2024-09-10T02:20:32Z</time><name>3828</name><sym>Flag, Blue</sym></wpt><wpt lat="10.396098" lon="123.926067"><ele>19.146580</ele><time>2024-09-10T02:21:21Z</time><name>3829</name><sym>Flag, Blue</sym></wpt><wpt lat="10.396020" lon="123.926077"><ele>19.146580</ele><time>2024-09-10T02:22:33Z</time><name>3830</name><sym>Flag, Blue</sym></wpt><wpt lat="10.395998" lon="123.926078"><ele>19.146580</ele><time>2024-09-10T02:22:42Z</time><name>3831</name><sym>Flag, Blue</sym></wpt><wpt lat="10.395981" lon="123.926092"><ele>19.146580</ele><time>2024-09-10T02:22:48Z</time><name>3832</name><sym>Flag, Blue</sym></wpt><wpt lat="10.395969" lon="123.926107"><ele>19.146580</ele><time>2024-09-10T02:22:55Z</time><name>3833</name><sym>Flag, Blue</sym></wpt><wpt lat="10.395969" lon="123.926123"><ele>19.146580</ele><time>2024-09-10T02:23:00Z</time><name>3834</name><sym>Flag, Blue</sym></wpt><wpt lat="10.395890" lon="123.926178"><ele>22.356337</ele><time>2024-09-10T02:23:29Z</time><name>3835</name><sym>Flag, Blue</sym></wpt><wpt lat="10.395794" lon="123.926213"><ele>23.102793</ele><time>2024-09-10T02:24:00Z</time><name>3836</name><sym>Flag, Blue</sym></wpt><wpt lat="10.395638" lon="123.926223"><ele>23.513344</ele><time>2024-09-10T02:24:50Z</time><name>3837</name><sym>Flag, Blue</sym></wpt><wpt lat="10.395678" lon="123.926213"><ele>23.354721</ele><time>2024-09-10T02:25:01Z</time><name>3838</name><sym>Flag, Blue</sym></wpt><wpt lat="10.395673" lon="123.926218"><ele>23.289406</ele><time>2024-09-10T02:25:06Z</time><name>3839</name><sym>Flag, Blue</sym></wpt><wpt lat="10.395661" lon="123.926217"><ele>23.252085</ele><time>2024-09-10T02:25:11Z</time><name>3840</name><sym>Flag, Blue</sym></wpt><wpt lat="10.395608" lon="123.926209"><ele>23.317398</ele><time>2024-09-10T02:25:21Z</time><name>3841</name><sym>Flag, Blue</sym></wpt><wpt lat="10.395601" lon="123.926208"><ele>23.317398</ele><time>2024-09-10T02:25:27Z</time><name>3842</name><sym>Flag, Blue</sym></wpt><wpt lat="10.395638" lon="123.926227"><ele>23.317398</ele><time>2024-09-10T02:25:37Z</time><name>3843</name><sym>Flag, Blue</sym></wpt><wpt lat="10.395577" lon="123.926187"><ele>23.317398</ele><time>2024-09-10T02:26:19Z</time><name>3844</name><sym>Flag, Blue</sym></wpt><wpt lat="10.395556" lon="123.926204"><ele>23.317398</ele><time>2024-09-10T02:26:32Z</time><name>3845</name><sym>Flag, Blue</sym></wpt><wpt lat="10.395553" lon="123.926203"><ele>23.317398</ele><time>2024-09-10T02:26:37Z</time><name>3846</name><sym>Flag, Blue</sym></wpt><wpt lat="10.395541" lon="123.926205"><ele>23.317398</ele><time>2024-09-10T02:26:41Z</time><name>3847</name><sym>Flag, Blue</sym></wpt><wpt lat="10.395523" lon="123.926209"><ele>23.317398</ele><time>2024-09-10T02:26:48Z</time><name>3848</name><sym>Flag, Blue</sym></wpt><wpt lat="10.395500" lon="123.926226"><ele>23.317398</ele><time>2024-09-10T02:26:52Z</time><name>3849</name><sym>Flag, Blue</sym></wpt><wpt lat="10.395465" lon="123.926223"><ele>23.317398</ele><time>2024-09-10T02:27:12Z</time><name>3850</name><sym>Flag, Blue</sym></wpt><wpt lat="10.394777" lon="123.926433"><ele>23.308067</ele><time>2024-09-10T02:31:31Z</time><name>3851</name><sym>Flag, Blue</sym></wpt><wpt lat="10.394738" lon="123.926455"><ele>23.308067</ele><time>2024-09-10T02:32:22Z</time><name>3852</name><sym>Flag, Blue</sym></wpt><wpt lat="10.394705" lon="123.926477"><ele>23.308067</ele><time>2024-09-10T02:32:39Z</time><name>3853</name><sym>Flag, Blue</sym></wpt><wpt lat="10.394659" lon="123.926512"><ele>23.308067</ele><time>2024-09-10T02:32:53Z</time><name>3854</name><sym>Flag, Blue</sym></wpt><wpt lat="10.394433" lon="123.926662"><ele>19.659767</ele><time>2024-09-10T02:33:30Z</time><name>3855</name><sym>Flag, Blue</sym></wpt><wpt lat="10.393993" lon="123.926923"><ele>16.925875</ele><time>2024-09-10T02:34:46Z</time><name>3856</name><sym>Flag, Blue</sym></wpt><wpt lat="10.393618" lon="123.927086"><ele>17.000521</ele><time>2024-09-10T02:35:45Z</time><name>3857</name><sym>Flag, Blue</sym></wpt><wpt lat="10.393454" lon="123.927109"><ele>17.000521</ele><time>2024-09-10T02:36:21Z</time><name>3858</name><sym>Flag, Blue</sym></wpt><wpt lat="10.393430" lon="123.927110"><ele>17.000521</ele><time>2024-09-10T02:36:30Z</time><name>3859</name><sym>Flag, Blue</sym></wpt><wpt lat="10.393393" lon="123.927114"><ele>17.000521</ele><time>2024-09-10T02:36:40Z</time><name>3860</name><sym>Flag, Blue</sym></wpt><wpt lat="10.393361" lon="123.927130"><ele>17.000521</ele><time>2024-09-10T02:37:22Z</time><name>3861</name><sym>Flag, Blue</sym></wpt><wpt lat="10.393320" lon="123.927123"><ele>17.000521</ele><time>2024-09-10T02:37:32Z</time><name>3862</name><sym>Flag, Blue</sym></wpt><wpt lat="10.393317" lon="123.927129"><ele>17.000521</ele><time>2024-09-10T02:37:36Z</time><name>3863</name><sym>Flag, Blue</sym></wpt><wpt lat="10.393205" lon="123.927133"><ele>17.000521</ele><time>2024-09-10T02:37:57Z</time><name>3864</name><sym>Flag, Blue</sym></wpt><wpt lat="10.393193" lon="123.927141"><ele>17.000521</ele><time>2024-09-10T02:38:12Z</time><name>3865</name><sym>Flag, Blue</sym></wpt><wpt lat="10.393104" lon="123.927109"><ele>17.000521</ele><time>2024-09-10T02:38:25Z</time><name>3866</name><sym>Flag, Blue</sym></wpt><wpt lat="10.393058" lon="123.927079"><ele>17.000521</ele><time>2024-09-10T02:38:36Z</time><name>3867</name><sym>Flag, Blue</sym></wpt><wpt lat="10.393057" lon="123.927080"><ele>17.000521</ele><time>2024-09-10T02:38:40Z</time><name>3868</name><sym>Flag, Blue</sym></wpt><wpt lat="10.392953" lon="123.927035"><ele>17.000521</ele><time>2024-09-10T02:38:59Z</time><name>3869</name><sym>Flag, Blue</sym></wpt><wpt lat="10.392893" lon="123.927008"><ele>17.000521</ele><time>2024-09-10T02:39:12Z</time><name>3870</name><sym>Flag, Blue</sym></wpt><wpt lat="10.392833" lon="123.926975"><ele>17.000521</ele><time>2024-09-10T02:39:25Z</time><name>3871</name><sym>Flag, Blue</sym></wpt><wpt lat="10.392803" lon="123.926965"><ele>17.000521</ele><time>2024-09-10T02:39:32Z</time><name>3872</name><sym>Flag, Blue</sym></wpt><wpt lat="10.392766" lon="123.926937"><ele>17.000521</ele><time>2024-09-10T02:39:40Z</time><name>3873</name><sym>Flag, Blue</sym></wpt><wpt lat="10.392751" lon="123.926927"><ele>17.000521</ele><time>2024-09-10T02:39:46Z</time><name>3874</name><sym>Flag, Blue</sym></wpt><wpt lat="10.392738" lon="123.926911"><ele>17.000521</ele><time>2024-09-10T02:39:57Z</time><name>3875</name><sym>Flag, Blue</sym></wpt><wpt lat="10.392702" lon="123.926878"><ele>17.000521</ele><time>2024-09-10T02:40:31Z</time><name>3876</name><sym>Flag, Blue</sym></wpt><wpt lat="10.392678" lon="123.926857"><ele>17.000521</ele><time>2024-09-10T02:40:41Z</time><name>3877</name><sym>Flag, Blue</sym></wpt><wpt lat="10.392659" lon="123.926834"><ele>17.000521</ele><time>2024-09-10T02:40:51Z</time><name>3878</name><sym>Flag, Blue</sym></wpt><wpt lat="10.392477" lon="123.926661"><ele>14.425249</ele><time>2024-09-10T02:41:49Z</time><name>3879</name><sym>Flag, Blue</sym></wpt><wpt lat="10.392478" lon="123.926662"><ele>14.425249</ele><time>2024-09-10T02:41:53Z</time><name>3880</name><sym>Flag, Blue</sym></wpt><wpt lat="10.391671" lon="123.926420"><ele>23.028147</ele><time>2024-09-10T02:43:59Z</time><name>3881</name><sym>Flag, Blue</sym></wpt><wpt lat="10.391647" lon="123.926440"><ele>23.345390</ele><time>2024-09-10T02:44:13Z</time><name>3882</name><sym>Flag, Blue</sym></wpt><wpt lat="10.391218" lon="123.926526"><ele>22.692242</ele><time>2024-09-10T02:49:38Z</time><name>3883</name><sym>Flag, Blue</sym></wpt><wpt lat="10.391228" lon="123.926527"><ele>22.692242</ele><time>2024-09-10T02:50:02Z</time><name>3884</name><sym>Flag, Blue</sym></wpt><wpt lat="10.391176" lon="123.926515"><ele>22.692242</ele><time>2024-09-10T02:50:28Z</time><name>3885</name><sym>Flag, Blue</sym></wpt><wpt lat="10.391030" lon="123.926461"><ele>22.692242</ele><time>2024-09-10T02:50:57Z</time><name>3886</name><sym>Flag, Blue</sym></wpt><wpt lat="10.391004" lon="123.926468"><ele>22.692242</ele><time>2024-09-10T02:51:05Z</time><name>3887</name><sym>Flag, Blue</sym></wpt><wpt lat="10.390411" lon="123.926890"><ele>22.692242</ele><time>2024-09-10T02:53:43Z</time><name>3888</name><sym>Flag, Blue</sym></wpt><wpt lat="10.390451" lon="123.926844"><ele>25.957985</ele><time>2024-09-10T02:54:21Z</time><name>3889</name><sym>Flag, Blue</sym></wpt><wpt lat="10.390459" lon="123.926823"><ele>25.929993</ele><time>2024-09-10T02:54:28Z</time><name>3890</name><sym>Flag, Blue</sym></wpt><wpt lat="10.389874" lon="123.927172"><ele>25.220860</ele><time>2024-09-10T02:55:56Z</time><name>3891</name><sym>Flag, Blue</sym></wpt><wpt lat="10.388506" lon="123.926671"><ele>24.903616</ele><time>2024-09-10T02:58:52Z</time><name>3892</name><sym>Flag, Blue</sym></wpt><wpt lat="10.388466" lon="123.926656"><ele>24.903616</ele><time>2024-09-10T02:59:11Z</time><name>3893</name><sym>Flag, Blue</sym></wpt><wpt lat="10.388463" lon="123.926668"><ele>24.903616</ele><time>2024-09-10T02:59:16Z</time><name>3894</name><sym>Flag, Blue</sym></wpt><wpt lat="10.388420" lon="123.926675"><ele>24.903616</ele><time>2024-09-10T02:59:27Z</time><name>3895</name><sym>Flag, Blue</sym></wpt><wpt lat="10.388375" lon="123.926686"><ele>27.982744</ele><time>2024-09-10T02:59:56Z</time><name>3896</name><sym>Flag, Blue</sym></wpt><wpt lat="10.388251" lon="123.926708"><ele>28.010736</ele><time>2024-09-10T03:00:23Z</time><name>3897</name><sym>Flag, Blue</sym></wpt><wpt lat="10.388227" lon="123.926713"><ele>27.889439</ele><time>2024-09-10T03:00:32Z</time><name>3898</name><sym>Flag, Blue</sym></wpt><wpt lat="10.388224" lon="123.926698"><ele>28.076052</ele><time>2024-09-10T03:00:37Z</time><name>3899</name><sym>Flag, Blue</sym></wpt><wpt lat="10.388179" lon="123.926738"><ele>28.365303</ele><time>2024-09-10T03:01:22Z</time><name>3900</name><sym>Flag, Blue</sym></wpt><wpt lat="10.388140" lon="123.926718"><ele>28.766523</ele><time>2024-09-10T03:01:37Z</time><name>3901</name><sym>Flag, Blue</sym></wpt><wpt lat="10.388159" lon="123.926740"><ele>28.561247</ele><time>2024-09-10T03:01:50Z</time><name>3902</name><sym>Flag, Blue</sym></wpt><wpt lat="10.387970" lon="123.926951"><ele>28.393295</ele><time>2024-09-10T03:02:30Z</time><name>3903</name><sym>Flag, Blue</sym></wpt><wpt lat="10.387986" lon="123.926943"><ele>28.393295</ele><time>2024-09-10T03:02:57Z</time><name>3904</name><sym>Flag, Blue</sym></wpt><wpt lat="10.386359" lon="123.927780"><ele>27.348257</ele><time>2024-09-10T03:08:15Z</time><name>3905</name><sym>Flag, Blue</sym></wpt><wpt lat="10.386350" lon="123.927765"><ele>27.254951</ele><time>2024-09-10T03:08:18Z</time><name>3906</name><sym>Flag, Blue</sym></wpt><wpt lat="10.386347" lon="123.927783"><ele>27.208298</ele><time>2024-09-10T03:08:44Z</time><name>3907</name><sym>Flag, Blue</sym></wpt><wpt lat="10.386117" lon="123.927703"><ele>27.506880</ele><time>2024-09-10T03:09:26Z</time><name>3908</name><sym>Flag, Blue</sym></wpt><wpt lat="10.386095" lon="123.927699"><ele>27.497549</ele><time>2024-09-10T03:09:35Z</time><name>3909</name><sym>Flag, Blue</sym></wpt><wpt lat="10.386072" lon="123.927690"><ele>27.768139</ele><time>2024-09-10T03:09:45Z</time><name>3910</name><sym>Flag, Blue</sym></wpt><wpt lat="10.386006" lon="123.927686"><ele>28.318649</ele><time>2024-09-10T03:10:19Z</time><name>3911</name><sym>Flag, Blue</sym></wpt><wpt lat="10.385938" lon="123.927675"><ele>29.326365</ele><time>2024-09-10T03:10:39Z</time><name>3912</name><sym>Flag, Blue</sym></wpt><wpt lat="10.385942" lon="123.927683"><ele>29.540970</ele><time>2024-09-10T03:10:51Z</time><name>3913</name><sym>Flag, Blue</sym></wpt><wpt lat="10.385849" lon="123.927670"><ele>30.296757</ele><time>2024-09-10T03:11:48Z</time><name>3914</name><sym>Flag, Blue</sym></wpt><wpt lat="10.385285" lon="123.927208"><ele>33.133286</ele><time>2024-09-10T03:15:12Z</time><name>3915</name><sym>Flag, Blue</sym></wpt><wpt lat="10.385316" lon="123.927187"><ele>33.133286</ele><time>2024-09-10T03:15:27Z</time><name>3916</name><sym>Flag, Blue</sym></wpt><wpt lat="10.385316" lon="123.927186"><ele>33.133286</ele><time>2024-09-10T03:15:30Z</time><name>3917</name><sym>Flag, Blue</sym></wpt><wpt lat="10.385315" lon="123.927184"><ele>33.133286</ele><time>2024-09-10T03:15:32Z</time><name>3918</name><sym>Flag, Blue</sym></wpt><wpt lat="10.385305" lon="123.927184"><ele>33.133286</ele><time>2024-09-10T03:15:47Z</time><name>3919</name><sym>Flag, Blue</sym></wpt><wpt lat="10.385299" lon="123.927175"><ele>33.133286</ele><time>2024-09-10T03:15:53Z</time><name>3920</name><sym>Flag, Blue</sym></wpt><wpt lat="10.385294" lon="123.927171"><ele>33.133286</ele><time>2024-09-10T03:15:55Z</time><name>3921</name><sym>Flag, Blue</sym></wpt><wpt lat="10.385291" lon="123.927163"><ele>33.133286</ele><time>2024-09-10T03:16:00Z</time><name>3922</name><sym>Flag, Blue</sym></wpt><wpt lat="10.385278" lon="123.927181"><ele>33.133286</ele><time>2024-09-10T03:16:13Z</time><name>3923</name><sym>Flag, Blue</sym></wpt><wpt lat="10.385161" lon="123.927198"><ele>33.133286</ele><time>2024-09-10T03:17:53Z</time><name>3924</name><sym>Flag, Blue</sym></wpt><wpt lat="10.385031" lon="123.927211"><ele>33.133286</ele><time>2024-09-10T03:18:29Z</time><name>3925</name><sym>Flag, Blue</sym></wpt><wpt lat="10.384864" lon="123.927293"><ele>33.133286</ele><time>2024-09-10T03:18:59Z</time><name>3926</name><sym>Flag, Blue</sym></wpt><wpt lat="10.384812" lon="123.927321"><ele>30.502031</ele><time>2024-09-10T03:19:23Z</time><name>3927</name><sym>Flag, Blue</sym></wpt><wpt lat="10.384782" lon="123.927323"><ele>30.390062</ele><time>2024-09-10T03:19:47Z</time><name>3928</name><sym>Flag, Blue</sym></wpt><wpt lat="10.384776" lon="123.927329"><ele>30.324749</ele><time>2024-09-10T03:19:59Z</time><name>3929</name><sym>Flag, Blue</sym></wpt><wpt lat="10.384777" lon="123.927335"><ele>30.100811</ele><time>2024-09-10T03:20:09Z</time><name>3930</name><sym>Flag, Blue</sym></wpt><wpt lat="10.384749" lon="123.927375"><ele>30.240772</ele><time>2024-09-10T03:20:25Z</time><name>3931</name><sym>Flag, Blue</sym></wpt><wpt lat="10.384722" lon="123.927382"><ele>30.240772</ele><time>2024-09-10T03:20:36Z</time><name>3932</name><sym>Flag, Blue</sym></wpt><wpt lat="10.384702" lon="123.927405"><ele>30.240772</ele><time>2024-09-10T03:20:49Z</time><name>3933</name><sym>Flag, Blue</sym></wpt><wpt lat="10.384701" lon="123.927423"><ele>30.240772</ele><time>2024-09-10T03:21:07Z</time><name>3934</name><sym>Flag, Blue</sym></wpt><wpt lat="10.384685" lon="123.927416"><ele>30.240772</ele><time>2024-09-10T03:21:30Z</time><name>3935</name><sym>Flag, Blue</sym></wpt><wpt lat="10.384658" lon="123.927459"><ele>30.240772</ele><time>2024-09-10T03:21:49Z</time><name>3936</name><sym>Flag, Blue</sym></wpt><wpt lat="10.384621" lon="123.927454"><ele>30.240772</ele><time>2024-09-10T03:22:00Z</time><name>3937</name><sym>Flag, Blue</sym></wpt><wpt lat="10.384602" lon="123.927470"><ele>30.240772</ele><time>2024-09-10T03:22:10Z</time><name>3938</name><sym>Flag, Blue</sym></wpt><wpt lat="10.384590" lon="123.927478"><ele>30.240772</ele><time>2024-09-10T03:22:17Z</time><name>3939</name><sym>Flag, Blue</sym></wpt><wpt lat="10.384591" lon="123.927497"><ele>30.240772</ele><time>2024-09-10T03:22:51Z</time><name>3940</name><sym>Flag, Blue</sym></wpt><wpt lat="10.384530" lon="123.927549"><ele>30.240772</ele><time>2024-09-10T03:23:04Z</time><name>3941</name><sym>Flag, Blue</sym></wpt><wpt lat="10.384457" lon="123.927580"><ele>30.240772</ele><time>2024-09-10T03:23:25Z</time><name>3942</name><sym>Flag, Blue</sym></wpt><wpt lat="10.384043" lon="123.927756"><ele>30.091480</ele><time>2024-09-10T03:24:31Z</time><name>3943</name><sym>Flag, Blue</sym></wpt><wpt lat="10.384041" lon="123.927785"><ele>30.091480</ele><time>2024-09-10T03:24:38Z</time><name>3944</name><sym>Flag, Blue</sym></wpt><wpt lat="10.384065" lon="123.927738"><ele>27.693493</ele><time>2024-09-10T04:44:45Z</time><name>3945</name><sym>Flag, Blue</sym></wpt><wpt lat="10.383551" lon="123.929235"><ele>27.693493</ele><time>2024-09-10T04:45:23Z</time><name>3946</name><sym>Flag, Blue</sym></wpt><wpt lat="10.383554" lon="123.929283"><ele>27.693493</ele><time>2024-09-10T04:45:39Z</time><name>3947</name><sym>Flag, Blue</sym></wpt><wpt lat="10.383572" lon="123.929379"><ele>27.693493</ele><time>2024-09-10T04:45:54Z</time><name>3948</name><sym>Flag, Blue</sym></wpt><wpt lat="10.383563" lon="123.929429"><ele>27.693493</ele><time>2024-09-10T04:46:09Z</time><name>3949</name><sym>Flag, Blue</sym></wpt><wpt lat="10.383480" lon="123.929688"><ele>23.093462</ele><time>2024-09-10T04:46:47Z</time><name>3950</name><sym>Flag, Blue</sym></wpt><wpt lat="10.383445" lon="123.929729"><ele>22.869526</ele><time>2024-09-10T04:47:02Z</time><name>3951</name><sym>Flag, Blue</sym></wpt><wpt lat="10.383424" lon="123.929753"><ele>22.365667</ele><time>2024-09-10T04:47:09Z</time><name>3952</name><sym>Flag, Blue</sym></wpt><wpt lat="10.383429" lon="123.929747"><ele>21.936457</ele><time>2024-09-10T04:47:45Z</time><name>3953</name><sym>Flag, Blue</sym></wpt><wpt lat="10.383308" lon="123.929837"><ele>19.865044</ele><time>2024-09-10T04:48:32Z</time><name>3954</name><sym>Flag, Blue</sym></wpt><wpt lat="10.383250" lon="123.929860"><ele>19.342524</ele><time>2024-09-10T04:48:45Z</time><name>3955</name><sym>Flag, Blue</sym></wpt><wpt lat="10.383240" lon="123.929861"><ele>19.109257</ele><time>2024-09-10T04:48:53Z</time><name>3956</name><sym>Flag, Blue</sym></wpt><wpt lat="10.383125" lon="123.929954"><ele>19.174572</ele><time>2024-09-10T04:51:04Z</time><name>3957</name><sym>Flag, Blue</sym></wpt><wpt lat="10.382634" lon="123.930268"><ele>19.174572</ele><time>2024-09-10T04:52:20Z</time><name>3958</name><sym>Flag, Blue</sym></wpt><wpt lat="10.382628" lon="123.930312"><ele>19.174572</ele><time>2024-09-10T04:52:36Z</time><name>3959</name><sym>Flag, Blue</sym></wpt><wpt lat="10.382166" lon="123.930826"><ele>22.319016</ele><time>2024-09-10T04:54:27Z</time><name>3960</name><sym>Flag, Blue</sym></wpt><wpt lat="10.382152" lon="123.930884"><ele>22.729565</ele><time>2024-09-10T04:54:45Z</time><name>3961</name><sym>Flag, Blue</sym></wpt><wpt lat="10.382144" lon="123.930902"><ele>22.729565</ele><time>2024-09-10T04:55:13Z</time><name>3962</name><sym>Flag, Blue</sym></wpt><wpt lat="10.382119" lon="123.930987"><ele>22.729565</ele><time>2024-09-10T04:57:24Z</time><name>3963</name><sym>Flag, Blue</sym></wpt><wpt lat="10.382122" lon="123.930986"><ele>22.729565</ele><time>2024-09-10T04:57:32Z</time><name>3964</name><sym>Flag, Blue</sym></wpt><wpt lat="10.382119" lon="123.930991"><ele>22.729565</ele><time>2024-09-10T04:57:35Z</time><name>3965</name><sym>Flag, Blue</sym></wpt><wpt lat="10.382113" lon="123.931002"><ele>22.729565</ele><time>2024-09-10T04:57:38Z</time><name>3966</name><sym>Flag, Blue</sym></wpt><wpt lat="10.382082" lon="123.931070"><ele>22.729565</ele><time>2024-09-10T04:57:58Z</time><name>3967</name><sym>Flag, Blue</sym></wpt><wpt lat="10.382072" lon="123.931066"><ele>22.729565</ele><time>2024-09-10T04:58:39Z</time><name>3968</name><sym>Flag, Blue</sym></wpt><wpt lat="10.382068" lon="123.931090"><ele>22.729565</ele><time>2024-09-10T04:58:47Z</time><name>3969</name><sym>Flag, Blue</sym></wpt><wpt lat="10.382060" lon="123.931106"><ele>22.729565</ele><time>2024-09-10T04:58:54Z</time><name>3970</name><sym>Flag, Blue</sym></wpt><wpt lat="10.382076" lon="123.931109"><ele>22.729565</ele><time>2024-09-10T04:59:14Z</time><name>3971</name><sym>Flag, Blue</sym></wpt><wpt lat="10.382005" lon="123.931180"><ele>22.729565</ele><time>2024-09-10T04:59:40Z</time><name>3972</name><sym>Flag, Blue</sym></wpt><wpt lat="10.381985" lon="123.931230"><ele>22.729565</ele><time>2024-09-10T04:59:54Z</time><name>3973</name><sym>Flag, Blue</sym></wpt><wpt lat="10.381969" lon="123.931241"><ele>22.729565</ele><time>2024-09-10T05:00:05Z</time><name>3974</name><sym>Flag, Blue</sym></wpt><wpt lat="10.381954" lon="123.931244"><ele>22.729565</ele><time>2024-09-10T05:00:19Z</time><name>3975</name><sym>Flag, Blue</sym></wpt><wpt lat="10.381945" lon="123.931265"><ele>22.729565</ele><time>2024-09-10T05:00:30Z</time><name>3976</name><sym>Flag, Blue</sym></wpt><wpt lat="10.381919" lon="123.931327"><ele>22.729565</ele><time>2024-09-10T05:00:45Z</time><name>3977</name><sym>Flag, Blue</sym></wpt><wpt lat="10.381907" lon="123.931329"><ele>22.729565</ele><time>2024-09-10T05:01:07Z</time><name>3978</name><sym>Flag, Blue</sym></wpt><wpt lat="10.381890" lon="123.931335"><ele>22.729565</ele><time>2024-09-10T05:01:12Z</time><name>3979</name><sym>Flag, Blue</sym></wpt><wpt lat="10.381874" lon="123.931347"><ele>22.729565</ele><time>2024-09-10T05:01:17Z</time><name>3980</name><sym>Flag, Blue</sym></wpt><wpt lat="10.381834" lon="123.931393"><ele>22.729565</ele><time>2024-09-10T05:01:27Z</time><name>3981</name><sym>Flag, Blue</sym></wpt><wpt lat="10.381809" lon="123.931418"><ele>22.729565</ele><time>2024-09-10T05:01:58Z</time><name>3982</name><sym>Flag, Blue</sym></wpt><wpt lat="10.381744" lon="123.931485"><ele>22.729565</ele><time>2024-09-10T05:02:21Z</time><name>3983</name><sym>Flag, Blue</sym></wpt><wpt lat="10.381687" lon="123.931557"><ele>22.729565</ele><time>2024-09-10T05:02:33Z</time><name>3984</name><sym>Flag, Blue</sym></wpt><wpt lat="10.381644" lon="123.931601"><ele>22.729565</ele><time>2024-09-10T05:02:45Z</time><name>3985</name><sym>Flag, Blue</sym></wpt><wpt lat="10.381639" lon="123.931604"><ele>22.729565</ele><time>2024-09-10T05:02:53Z</time><name>3986</name><sym>Flag, Blue</sym></wpt><wpt lat="10.381627" lon="123.931626"><ele>22.729565</ele><time>2024-09-10T05:03:09Z</time><name>3987</name><sym>Flag, Blue</sym></wpt><wpt lat="10.381617" lon="123.931654"><ele>22.729565</ele><time>2024-09-10T05:03:21Z</time><name>3988</name><sym>Flag, Blue</sym></wpt><wpt lat="10.381591" lon="123.931676"><ele>22.729565</ele><time>2024-09-10T05:03:44Z</time><name>3989</name><sym>Flag, Blue</sym></wpt><wpt lat="10.381700" lon="123.931558"><ele>22.729565</ele><time>2024-09-10T05:04:48Z</time><name>3990</name><sym>Flag, Blue</sym></wpt><wpt lat="10.381587" lon="123.931652"><ele>22.729565</ele><time>2024-09-10T05:05:18Z</time><name>3991</name><sym>Flag, Blue</sym></wpt><wpt lat="10.381574" lon="123.931688"><ele>22.729565</ele><time>2024-09-10T05:06:16Z</time><name>3992</name><sym>Flag, Blue</sym></wpt><wpt lat="10.381541" lon="123.931728"><ele>22.729565</ele><time>2024-09-10T05:06:39Z</time><name>3993</name><sym>Flag, Blue</sym></wpt><wpt lat="10.381496" lon="123.931770"><ele>22.729565</ele><time>2024-09-10T05:06:52Z</time><name>3994</name><sym>Flag, Blue</sym></wpt><wpt lat="10.381500" lon="123.931787"><ele>22.729565</ele><time>2024-09-10T05:07:06Z</time><name>3995</name><sym>Flag, Blue</sym></wpt><wpt lat="10.381482" lon="123.931791"><ele>22.729565</ele><time>2024-09-10T05:07:12Z</time><name>3996</name><sym>Flag, Blue</sym></wpt><wpt lat="10.381419" lon="123.931899"><ele>22.729565</ele><time>2024-09-10T05:08:39Z</time><name>3997</name><sym>Flag, Blue</sym></wpt><wpt lat="10.380977" lon="123.932117"><ele>22.729565</ele><time>2024-09-10T05:09:47Z</time><name>3998</name><sym>Flag, Blue</sym></wpt><wpt lat="10.380846" lon="123.932090"><ele>22.729565</ele><time>2024-09-10T05:10:05Z</time><name>3999</name><sym>Flag, Blue</sym></wpt><wpt lat="10.380812" lon="123.932094"><ele>22.720234</ele><time>2024-09-10T05:10:27Z</time><name>4000</name><sym>Flag, Blue</sym></wpt><wpt lat="10.380625" lon="123.932126"><ele>22.720234</ele><time>2024-09-10T05:11:09Z</time><name>4001</name><sym>Flag, Blue</sym></wpt><wpt lat="10.380450" lon="123.932116"><ele>22.720234</ele><time>2024-09-10T05:11:36Z</time><name>4002</name><sym>Flag, Blue</sym></wpt><wpt lat="10.380347" lon="123.932156"><ele>22.720234</ele><time>2024-09-10T05:11:55Z</time><name>4003</name><sym>Flag, Blue</sym></wpt><wpt lat="10.380255" lon="123.932168"><ele>22.720234</ele><time>2024-09-10T05:12:06Z</time><name>4004</name><sym>Flag, Blue</sym></wpt><wpt lat="10.380227" lon="123.932178"><ele>22.720234</ele><time>2024-09-10T05:12:12Z</time><name>4005</name><sym>Flag, Blue</sym></wpt><wpt lat="10.380181" lon="123.932206"><ele>22.720234</ele><time>2024-09-10T05:13:08Z</time><name>4006</name><sym>Flag, Blue</sym></wpt><wpt lat="10.380180" lon="123.932206"><ele>22.720234</ele><time>2024-09-10T05:13:12Z</time><name>4007</name><sym>Flag, Blue</sym></wpt><wpt lat="10.380165" lon="123.932212"><ele>22.720234</ele><time>2024-09-10T05:13:18Z</time><name>4008</name><sym>Flag, Blue</sym></wpt><wpt lat="10.380025" lon="123.932246"><ele>22.720234</ele><time>2024-09-10T05:13:43Z</time><name>4009</name><sym>Flag, Blue</sym></wpt><wpt lat="10.380009" lon="123.932245"><ele>22.720234</ele><time>2024-09-10T05:13:48Z</time><name>4010</name><sym>Flag, Blue</sym></wpt><wpt lat="10.379915" lon="123.932271"><ele>22.720234</ele><time>2024-09-10T05:15:05Z</time><name>4011</name><sym>Flag, Blue</sym></wpt><wpt lat="10.379838" lon="123.932226"><ele>22.263031</ele><time>2024-09-10T05:19:22Z</time><name>4012</name><sym>Flag, Blue</sym></wpt><wpt lat="10.379574" lon="123.932731"><ele>18.680044</ele><time>2024-09-10T05:21:11Z</time><name>4013</name><sym>Flag, Blue</sym></wpt><wpt lat="10.379346" lon="123.932984"><ele>17.345757</ele><time>2024-09-10T05:22:01Z</time><name>4014</name><sym>Flag, Blue</sym></wpt><wpt lat="10.379335" lon="123.933001"><ele>17.373749</ele><time>2024-09-10T05:22:08Z</time><name>4015</name><sym>Flag, Blue</sym></wpt><wpt lat="10.379308" lon="123.933035"><ele>17.308434</ele><time>2024-09-10T05:22:19Z</time><name>4016</name><sym>Flag, Blue</sym></wpt><wpt lat="10.379268" lon="123.933048"><ele>17.308434</ele><time>2024-09-10T05:22:41Z</time><name>4017</name><sym>Flag, Blue</sym></wpt><wpt lat="10.379254" lon="123.933066"><ele>17.653669</ele><time>2024-09-10T05:22:55Z</time><name>4018</name><sym>Flag, Blue</sym></wpt><wpt lat="10.379204" lon="123.933098"><ele>17.681662</ele><time>2024-09-10T05:23:53Z</time><name>4019</name><sym>Flag, Blue</sym></wpt><wpt lat="10.379165" lon="123.933109"><ele>17.681662</ele><time>2024-09-10T05:24:26Z</time><name>4020</name><sym>Flag, Blue</sym></wpt><wpt lat="10.375766" lon="123.940249"><ele>-21.992441</ele><time>2024-09-10T05:34:35Z</time><name>4021</name><sym>Flag, Blue</sym></wpt><wpt lat="10.375739" lon="123.940412"><ele>-22.011103</ele><time>2024-09-10T05:35:03Z</time><name>4022</name><sym>Flag, Blue</sym></wpt><wpt lat="10.375922" lon="123.940199"><ele>-22.011103</ele><time>2024-09-10T05:35:40Z</time><name>4023</name><sym>Flag, Blue</sym></wpt><wpt lat="10.376827" lon="123.939587"><ele>-22.001772</ele><time>2024-09-10T05:37:58Z</time><name>4024</name><sym>Flag, Blue</sym></wpt><wpt lat="10.377357" lon="123.939268"><ele>-22.001772</ele><time>2024-09-10T05:39:09Z</time><name>4025</name><sym>Flag, Blue</sym></wpt><wpt lat="10.377400" lon="123.939251"><ele>-22.001772</ele><time>2024-09-10T05:39:21Z</time><name>4026</name><sym>Flag, Blue</sym></wpt><wpt lat="10.378076" lon="123.938799"><ele>-22.001772</ele><time>2024-09-10T05:40:50Z</time><name>4027</name><sym>Flag, Blue</sym></wpt><wpt lat="10.378330" lon="123.938727"><ele>-22.001772</ele><time>2024-09-10T05:41:27Z</time><name>4028</name><sym>Flag, Blue</sym></wpt><wpt lat="10.378705" lon="123.938476"><ele>-22.001772</ele><time>2024-09-10T05:42:20Z</time><name>4029</name><sym>Flag, Blue</sym></wpt><wpt lat="10.379264" lon="123.938029"><ele>-21.992441</ele><time>2024-09-10T05:43:40Z</time><name>4030</name><sym>Flag, Blue</sym></wpt><wpt lat="10.379265" lon="123.938023"><ele>-21.992441</ele><time>2024-09-10T05:43:44Z</time><name>4031</name><sym>Flag, Blue</sym></wpt><wpt lat="10.379272" lon="123.938001"><ele>-21.992441</ele><time>2024-09-10T05:43:51Z</time><name>4032</name><sym>Flag, Blue</sym></wpt><wpt lat="10.379352" lon="123.937899"><ele>-21.992441</ele><time>2024-09-10T05:44:15Z</time><name>4033</name><sym>Flag, Blue</sym></wpt><wpt lat="10.379355" lon="123.937898"><ele>-21.992441</ele><time>2024-09-10T05:44:31Z</time><name>4034</name><sym>Flag, Blue</sym></wpt><wpt lat="10.379379" lon="123.937877"><ele>-21.992441</ele><time>2024-09-10T05:44:42Z</time><name>4035</name><sym>Flag, Blue</sym></wpt><wpt lat="10.379402" lon="123.937867"><ele>-21.992441</ele><time>2024-09-10T05:44:53Z</time><name>4036</name><sym>Flag, Blue</sym></wpt><wpt lat="10.379399" lon="123.937818"><ele>-21.992441</ele><time>2024-09-10T05:45:24Z</time><name>4037</name><sym>Flag, Blue</sym></wpt><wpt lat="10.379354" lon="123.937788"><ele>-21.992441</ele><time>2024-09-10T05:45:35Z</time><name>4038</name><sym>Flag, Blue</sym></wpt><wpt lat="10.379336" lon="123.937762"><ele>-21.992441</ele><time>2024-09-10T05:45:53Z</time><name>4039</name><sym>Flag, Blue</sym></wpt><wpt lat="10.379368" lon="123.937706"><ele>-21.992441</ele><time>2024-09-10T05:46:08Z</time><name>4040</name><sym>Flag, Blue</sym></wpt><wpt lat="10.379365" lon="123.937696"><ele>-21.992441</ele><time>2024-09-10T05:46:12Z</time><name>4041</name><sym>Flag, Blue</sym></wpt><wpt lat="10.379380" lon="123.937476"><ele>-17.411072</ele><time>2024-09-10T05:46:37Z</time><name>4042</name><sym>Flag, Blue</sym></wpt><wpt lat="10.379374" lon="123.937441"><ele>-15.880837</ele><time>2024-09-10T05:46:54Z</time><name>4043</name><sym>Flag, Blue</sym></wpt><wpt lat="10.379377" lon="123.937422"><ele>-15.880837</ele><time>2024-09-10T05:47:00Z</time><name>4044</name><sym>Flag, Blue</sym></wpt><wpt lat="10.379372" lon="123.937415"><ele>-15.722216</ele><time>2024-09-10T05:47:08Z</time><name>4045</name><sym>Flag, Blue</sym></wpt><wpt lat="10.379377" lon="123.937378"><ele>-15.227689</ele><time>2024-09-10T05:47:31Z</time><name>4046</name><sym>Flag, Blue</sym></wpt><wpt lat="10.379383" lon="123.937331"><ele>-14.677178</ele><time>2024-09-10T05:47:53Z</time><name>4047</name><sym>Flag, Blue</sym></wpt><wpt lat="10.379348" lon="123.937379"><ele>-14.975760</ele><time>2024-09-10T05:48:11Z</time><name>4048</name><sym>Flag, Blue</sym></wpt><wpt lat="10.379343" lon="123.937345"><ele>-15.209027</ele><time>2024-09-10T05:48:19Z</time><name>4049</name><sym>Flag, Blue</sym></wpt><wpt lat="10.379349" lon="123.937332"><ele>-14.798477</ele><time>2024-09-10T05:48:27Z</time><name>4050</name><sym>Flag, Blue</sym></wpt><wpt lat="10.379351" lon="123.937319"><ele>-14.499895</ele><time>2024-09-10T05:48:36Z</time><name>4051</name><sym>Flag, Blue</sym></wpt><wpt lat="10.379350" lon="123.937303"><ele>-14.397258</ele><time>2024-09-10T05:48:48Z</time><name>4052</name><sym>Flag, Blue</sym></wpt><wpt lat="10.379356" lon="123.937299"><ele>-14.163990</ele><time>2024-09-10T05:49:08Z</time><name>4053</name><sym>Flag, Blue</sym></wpt><wpt lat="10.379361" lon="123.937304"><ele>-13.912062</ele><time>2024-09-10T05:49:19Z</time><name>4054</name><sym>Flag, Blue</sym></wpt><wpt lat="10.379384" lon="123.937277"><ele>-13.753440</ele><time>2024-09-10T05:49:34Z</time><name>4055</name><sym>Flag, Blue</sym></wpt><wpt lat="10.379383" lon="123.937256"><ele>-13.212259</ele><time>2024-09-10T05:49:43Z</time><name>4056</name><sym>Flag, Blue</sym></wpt><wpt lat="10.379392" lon="123.937128"><ele>-11.793994</ele><time>2024-09-10T05:50:05Z</time><name>4057</name><sym>Flag, Blue</sym></wpt><wpt lat="10.379386" lon="123.937066"><ele>-10.207777</ele><time>2024-09-10T05:50:36Z</time><name>4058</name><sym>Flag, Blue</sym></wpt><wpt lat="10.379384" lon="123.937043"><ele>-9.451991</ele><time>2024-09-10T05:50:52Z</time><name>4059</name><sym>Flag, Blue</sym></wpt><wpt lat="10.379379" lon="123.936993"><ele>-8.976126</ele><time>2024-09-10T05:51:07Z</time><name>4060</name><sym>Flag, Blue</sym></wpt><wpt lat="10.379345" lon="123.936823"><ele>-6.550146</ele><time>2024-09-10T05:52:24Z</time><name>4061</name><sym>Flag, Blue</sym></wpt><wpt lat="10.379321" lon="123.936718"><ele>-4.254796</ele><time>2024-09-10T05:52:43Z</time><name>4062</name><sym>Flag, Blue</sym></wpt><wpt lat="10.379307" lon="123.936675"><ele>-3.797591</ele><time>2024-09-10T05:52:53Z</time><name>4063</name><sym>Flag, Blue</sym></wpt><wpt lat="10.379316" lon="123.936639"><ele>-3.181766</ele><time>2024-09-10T05:53:11Z</time><name>4064</name><sym>Flag, Blue</sym></wpt><wpt lat="10.379308" lon="123.936614"><ele>-2.752554</ele><time>2024-09-10T05:53:21Z</time><name>4065</name><sym>Flag, Blue</sym></wpt><wpt lat="10.379300" lon="123.936604"><ele>-2.677908</ele><time>2024-09-10T05:53:37Z</time><name>4066</name><sym>Flag, Blue</sym></wpt><wpt lat="10.379269" lon="123.936546"><ele>-1.660863</ele><time>2024-09-10T05:53:46Z</time><name>4067</name><sym>Flag, Blue</sym></wpt><wpt lat="10.379237" lon="123.936510"><ele>-1.017045</ele><time>2024-09-10T05:54:39Z</time><name>4068</name><sym>Flag, Blue</sym></wpt><wpt lat="10.379177" lon="123.936440"><ele>0.111968</ele><time>2024-09-10T05:55:01Z</time><name>4069</name><sym>Flag, Blue</sym></wpt><wpt lat="10.379162" lon="123.936420"><ele>0.615826</ele><time>2024-09-10T05:55:17Z</time><name>4070</name><sym>Flag, Blue</sym></wpt><wpt lat="10.379156" lon="123.936410"><ele>0.849093</ele><time>2024-09-10T05:55:28Z</time><name>4071</name><sym>Flag, Blue</sym></wpt><wpt lat="10.379151" lon="123.936403"><ele>0.951731</ele><time>2024-09-10T05:55:36Z</time><name>4072</name><sym>Flag, Blue</sym></wpt><wpt lat="10.379120" lon="123.936383"><ele>0.933069</ele><time>2024-09-10T05:55:50Z</time><name>4073</name><sym>Flag, Blue</sym></wpt><wpt lat="10.379069" lon="123.936083"><ele>4.441409</ele><time>2024-09-10T05:57:19Z</time><name>4074</name><sym>Flag, Blue</sym></wpt><wpt lat="10.379082" lon="123.936038"><ele>5.346487</ele><time>2024-09-10T05:57:39Z</time><name>4075</name><sym>Flag, Blue</sym></wpt><wpt lat="10.379083" lon="123.936033"><ele>5.701053</ele><time>2024-09-10T05:57:45Z</time><name>4076</name><sym>Flag, Blue</sym></wpt><wpt lat="10.379126" lon="123.935998"><ele>5.673060</ele><time>2024-09-10T05:57:55Z</time><name>4077</name><sym>Flag, Blue</sym></wpt><wpt lat="10.379261" lon="123.935550"><ele>8.015064</ele><time>2024-09-10T05:59:05Z</time><name>4078</name><sym>Flag, Blue</sym></wpt><wpt lat="10.379251" lon="123.935540"><ele>8.248331</ele><time>2024-09-10T05:59:14Z</time><name>4079</name><sym>Flag, Blue</sym></wpt><wpt lat="10.379248" lon="123.935531"><ele>8.322977</ele><time>2024-09-10T05:59:18Z</time><name>4080</name><sym>Flag, Blue</sym></wpt><wpt lat="10.379275" lon="123.935497"><ele>7.884435</ele><time>2024-09-10T05:59:31Z</time><name>4081</name><sym>Flag, Blue</sym></wpt><wpt lat="10.379278" lon="123.935490"><ele>8.294985</ele><time>2024-09-10T05:59:38Z</time><name>4082</name><sym>Flag, Blue</sym></wpt><wpt lat="10.379265" lon="123.935481"><ele>8.294985</ele><time>2024-09-10T05:59:42Z</time><name>4083</name><sym>Flag, Blue</sym></wpt><wpt lat="10.379260" lon="123.935464"><ele>8.462937</ele><time>2024-09-10T05:59:49Z</time><name>4084</name><sym>Flag, Blue</sym></wpt><wpt lat="10.379270" lon="123.935464"><ele>8.350969</ele><time>2024-09-10T06:00:21Z</time><name>4085</name><sym>Flag, Blue</sym></wpt><wpt lat="10.379248" lon="123.935360"><ele>9.004118</ele><time>2024-09-10T06:00:44Z</time><name>4086</name><sym>Flag, Blue</sym></wpt><wpt lat="10.379244" lon="123.935341"><ele>9.153409</ele><time>2024-09-10T06:00:52Z</time><name>4087</name><sym>Flag, Blue</sym></wpt><wpt lat="10.379259" lon="123.935418"><ele>8.658882</ele><time>2024-09-10T06:01:05Z</time><name>4088</name><sym>Flag, Blue</sym></wpt><wpt lat="10.379278" lon="123.935451"><ele>8.528253</ele><time>2024-09-10T06:01:16Z</time><name>4089</name><sym>Flag, Blue</sym></wpt><wpt lat="10.379272" lon="123.935446"><ele>8.528253</ele><time>2024-09-10T06:01:19Z</time><name>4090</name><sym>Flag, Blue</sym></wpt><wpt lat="10.379272" lon="123.935430"><ele>8.509591</ele><time>2024-09-10T06:01:23Z</time><name>4091</name><sym>Flag, Blue</sym></wpt><wpt lat="10.379247" lon="123.935338"><ele>8.425614</ele><time>2024-09-10T06:02:57Z</time><name>4092</name><sym>Flag, Blue</sym></wpt><wpt lat="10.379199" lon="123.935236"><ele>8.425614</ele><time>2024-09-10T06:03:15Z</time><name>4093</name><sym>Flag, Blue</sym></wpt><wpt lat="10.379198" lon="123.935234"><ele>8.425614</ele><time>2024-09-10T06:03:19Z</time><name>4094</name><sym>Flag, Blue</sym></wpt><wpt lat="10.379176" lon="123.935131"><ele>8.425614</ele><time>2024-09-10T06:05:32Z</time><name>4095</name><sym>Flag, Blue</sym></wpt><wpt lat="10.379188" lon="123.935066"><ele>8.425614</ele><time>2024-09-10T06:05:54Z</time><name>4096</name><sym>Flag, Blue</sym></wpt><wpt lat="10.379184" lon="123.935045"><ele>8.425614</ele><time>2024-09-10T06:05:59Z</time><name>4097</name><sym>Flag, Blue</sym></wpt><wpt lat="10.379182" lon="123.935027"><ele>8.425614</ele><time>2024-09-10T06:06:04Z</time><name>4098</name><sym>Flag, Blue</sym></wpt><wpt lat="10.379186" lon="123.935017"><ele>8.425614</ele><time>2024-09-10T06:06:09Z</time><name>4099</name><sym>Flag, Blue</sym></wpt><wpt lat="10.379237" lon="123.935017"><ele>11.262145</ele><time>2024-09-10T06:07:01Z</time><name>4100</name><sym>Flag, Blue</sym></wpt><wpt lat="10.379224" lon="123.935010"><ele>11.262145</ele><time>2024-09-10T06:07:05Z</time><name>4101</name><sym>Flag, Blue</sym></wpt><wpt lat="10.379203" lon="123.934997"><ele>11.262145</ele><time>2024-09-10T06:07:10Z</time><name>4102</name><sym>Flag, Blue</sym></wpt><wpt lat="10.379211" lon="123.934952"><ele>11.262145</ele><time>2024-09-10T06:07:18Z</time><name>4103</name><sym>Flag, Blue</sym></wpt><wpt lat="10.379212" lon="123.934938"><ele>11.262145</ele><time>2024-09-10T06:07:22Z</time><name>4104</name><sym>Flag, Blue</sym></wpt><wpt lat="10.379220" lon="123.934899"><ele>11.262145</ele><time>2024-09-10T06:07:27Z</time><name>4105</name><sym>Flag, Blue</sym></wpt><wpt lat="10.379231" lon="123.934893"><ele>11.262145</ele><time>2024-09-10T06:07:36Z</time><name>4106</name><sym>Flag, Blue</sym></wpt><wpt lat="10.379235" lon="123.934898"><ele>11.262145</ele><time>2024-09-10T06:07:46Z</time><name>4107</name><sym>Flag, Blue</sym></wpt><wpt lat="10.379214" lon="123.934864"><ele>13.436196</ele><time>2024-09-10T06:17:15Z</time><name>4108</name><sym>Flag, Blue</sym></wpt><wpt lat="10.376447" lon="123.934442"><ele>13.426866</ele><time>2024-09-10T06:18:23Z</time><name>4109</name><sym>Flag, Blue</sym></wpt><wpt lat="10.376427" lon="123.934449"><ele>13.426866</ele><time>2024-09-10T06:18:28Z</time><name>4110</name><sym>Flag, Blue</sym></wpt><wpt lat="10.376399" lon="123.934477"><ele>13.426866</ele><time>2024-09-10T06:18:37Z</time><name>4111</name><sym>Flag, Blue</sym></wpt><wpt lat="10.376371" lon="123.934516"><ele>13.426866</ele><time>2024-09-10T06:18:44Z</time><name>4112</name><sym>Flag, Blue</sym></wpt><wpt lat="10.376348" lon="123.934541"><ele>13.426866</ele><time>2024-09-10T06:18:48Z</time><name>4113</name><sym>Flag, Blue</sym></wpt><wpt lat="10.376330" lon="123.934617"><ele>13.426866</ele><time>2024-09-10T06:19:47Z</time><name>4114</name><sym>Flag, Blue</sym></wpt><wpt lat="10.376324" lon="123.934674"><ele>13.426866</ele><time>2024-09-10T06:20:27Z</time><name>4115</name><sym>Flag, Blue</sym></wpt><wpt lat="10.376317" lon="123.934699"><ele>13.426866</ele><time>2024-09-10T06:20:42Z</time><name>4116</name><sym>Flag, Blue</sym></wpt><wpt lat="10.376279" lon="123.934731"><ele>13.426866</ele><time>2024-09-10T06:20:57Z</time><name>4117</name><sym>Flag, Blue</sym></wpt><wpt lat="10.376269" lon="123.934789"><ele>13.426866</ele><time>2024-09-10T06:21:15Z</time><name>4118</name><sym>Flag, Blue</sym></wpt><wpt lat="10.376221" lon="123.934830"><ele>13.426866</ele><time>2024-09-10T06:21:27Z</time><name>4119</name><sym>Flag, Blue</sym></wpt><wpt lat="10.376202" lon="123.934890"><ele>13.426866</ele><time>2024-09-10T06:21:39Z</time><name>4120</name><sym>Flag, Blue</sym></wpt><wpt lat="10.376196" lon="123.934897"><ele>13.426866</ele><time>2024-09-10T06:21:54Z</time><name>4121</name><sym>Flag, Blue</sym></wpt><wpt lat="10.376188" lon="123.934911"><ele>13.426866</ele><time>2024-09-10T06:21:58Z</time><name>4122</name><sym>Flag, Blue</sym></wpt><wpt lat="10.376164" lon="123.934944"><ele>13.426866</ele><time>2024-09-10T06:22:03Z</time><name>4123</name><sym>Flag, Blue</sym></wpt><wpt lat="10.376126" lon="123.934998"><ele>13.426866</ele><time>2024-09-10T06:22:26Z</time><name>4124</name><sym>Flag, Blue</sym></wpt><wpt lat="10.376129" lon="123.935002"><ele>13.426866</ele><time>2024-09-10T06:22:57Z</time><name>4125</name><sym>Flag, Blue</sym></wpt><wpt lat="10.376119" lon="123.935017"><ele>13.426866</ele><time>2024-09-10T06:23:08Z</time><name>4126</name><sym>Flag, Blue</sym></wpt><wpt lat="10.376116" lon="123.935051"><ele>13.426866</ele><time>2024-09-10T06:23:15Z</time><name>4127</name><sym>Flag, Blue</sym></wpt><wpt lat="10.376116" lon="123.935084"><ele>13.426866</ele><time>2024-09-10T06:23:23Z</time><name>4128</name><sym>Flag, Blue</sym></wpt><wpt lat="10.376123" lon="123.935099"><ele>13.426866</ele><time>2024-09-10T06:23:25Z</time><name>4129</name><sym>Flag, Blue</sym></wpt><wpt lat="10.376074" lon="123.935165"><ele>13.426866</ele><time>2024-09-10T06:23:43Z</time><name>4130</name><sym>Flag, Blue</sym></wpt><wpt lat="10.376107" lon="123.935246"><ele>13.426866</ele><time>2024-09-10T06:24:14Z</time><name>4131</name><sym>Flag, Blue</sym></wpt><wpt lat="10.376066" lon="123.935256"><ele>13.426866</ele><time>2024-09-10T06:24:20Z</time><name>4132</name><sym>Flag, Blue</sym></wpt><wpt lat="10.376050" lon="123.935287"><ele>13.426866</ele><time>2024-09-10T06:24:25Z</time><name>4133</name><sym>Flag, Blue</sym></wpt><wpt lat="10.376047" lon="123.935304"><ele>13.426866</ele><time>2024-09-10T06:24:33Z</time><name>4134</name><sym>Flag, Blue</sym></wpt><wpt lat="10.376053" lon="123.935335"><ele>13.426866</ele><time>2024-09-10T06:24:40Z</time><name>4135</name><sym>Flag, Blue</sym></wpt><wpt lat="10.376047" lon="123.935357"><ele>13.426866</ele><time>2024-09-10T06:24:47Z</time><name>4136</name><sym>Flag, Blue</sym></wpt><wpt lat="10.376039" lon="123.935383"><ele>13.426866</ele><time>2024-09-10T06:24:53Z</time><name>4137</name><sym>Flag, Blue</sym></wpt><wpt lat="10.376064" lon="123.935341"><ele>13.426866</ele><time>2024-09-10T06:25:23Z</time><name>4138</name><sym>Flag, Blue</sym></wpt><wpt lat="10.375979" lon="123.935533"><ele>13.426866</ele><time>2024-09-10T06:26:26Z</time><name>4139</name><sym>Flag, Blue</sym></wpt><wpt lat="10.375979" lon="123.935552"><ele>13.426866</ele><time>2024-09-10T06:26:31Z</time><name>4140</name><sym>Flag, Blue</sym></wpt><wpt lat="10.375971" lon="123.935580"><ele>13.426866</ele><time>2024-09-10T06:26:36Z</time><name>4141</name><sym>Flag, Blue</sym></wpt><wpt lat="10.375939" lon="123.935606"><ele>13.426866</ele><time>2024-09-10T06:26:46Z</time><name>4142</name><sym>Flag, Blue</sym></wpt><wpt lat="10.375931" lon="123.935624"><ele>13.426866</ele><time>2024-09-10T06:26:58Z</time><name>4143</name><sym>Flag, Blue</sym></wpt><wpt lat="10.375888" lon="123.935671"><ele>13.426866</ele><time>2024-09-10T06:27:20Z</time><name>4144</name><sym>Flag, Blue</sym></wpt><wpt lat="10.375676" lon="123.935840"><ele>13.426866</ele><time>2024-09-10T06:28:09Z</time><name>4145</name><sym>Flag, Blue</sym></wpt><wpt lat="10.375641" lon="123.935889"><ele>13.426866</ele><time>2024-09-10T06:28:21Z</time><name>4146</name><sym>Flag, Blue</sym></wpt><wpt lat="10.375590" lon="123.935908"><ele>13.426866</ele><time>2024-09-10T06:28:30Z</time><name>4147</name><sym>Flag, Blue</sym></wpt><wpt lat="10.375507" lon="123.935970"><ele>13.426866</ele><time>2024-09-10T06:28:52Z</time><name>4148</name><sym>Flag, Blue</sym></wpt><wpt lat="10.375447" lon="123.936029"><ele>13.426866</ele><time>2024-09-10T06:29:05Z</time><name>4149</name><sym>Flag, Blue</sym></wpt><wpt lat="10.375362" lon="123.936099"><ele>13.426866</ele><time>2024-09-10T06:29:36Z</time><name>4150</name><sym>Flag, Blue</sym></wpt><wpt lat="10.375351" lon="123.936110"><ele>13.426866</ele><time>2024-09-10T06:29:40Z</time><name>4151</name><sym>Flag, Blue</sym></wpt><wpt lat="10.375339" lon="123.936126"><ele>13.426866</ele><time>2024-09-10T06:29:43Z</time><name>4152</name><sym>Flag, Blue</sym></wpt><wpt lat="10.375324" lon="123.936134"><ele>13.426866</ele><time>2024-09-10T06:29:48Z</time><name>4153</name><sym>Flag, Blue</sym></wpt><wpt lat="10.375415" lon="123.935972"><ele>13.426866</ele><time>2024-09-10T06:30:18Z</time><name>4154</name><sym>Flag, Blue</sym></wpt><wpt lat="10.375414" lon="123.935989"><ele>13.426866</ele><time>2024-09-10T06:30:27Z</time><name>4155</name><sym>Flag, Blue</sym></wpt><wpt lat="10.375395" lon="123.936020"><ele>13.426866</ele><time>2024-09-10T06:30:39Z</time><name>4156</name><sym>Flag, Blue</sym></wpt><wpt lat="10.375370" lon="123.936027"><ele>13.426866</ele><time>2024-09-10T06:30:45Z</time><name>4157</name><sym>Flag, Blue</sym></wpt></gpx>