<?xml version="1.0" encoding="UTF-8" standalone="no" ?><gpx xmlns="http://www.topografix.com/GPX/1/1" xmlns:gpxx="http://www.garmin.com/xmlschemas/GpxExtensions/v3" xmlns:wptx1="http://www.garmin.com/xmlschemas/WaypointExtension/v1" xmlns:gpxtpx="http://www.garmin.com/xmlschemas/TrackPointExtension/v1" creator="eTrex 22x" version="1.1" xmlns:xsi="http://www.w3.org/2001/XMLSchema-instance" xsi:schemaLocation="http://www.topografix.com/GPX/1/1 http://www.topografix.com/GPX/1/1/gpx.xsd http://www.garmin.com/xmlschemas/GpxExtensions/v3 http://www8.garmin.com/xmlschemas/GpxExtensionsv3.xsd http://www.garmin.com/xmlschemas/TrackStatsExtension/v1 http://www8.garmin.com/xmlschemas/TrackStatsExtension.xsd http://www.garmin.com/xmlschemas/WaypointExtension/v1 http://www8.garmin.com/xmlschemas/WaypointExtensionv1.xsd http://www.garmin.com/xmlschemas/TrackPointExtension/v1 http://www.garmin.com/xmlschemas/TrackPointExtensionv1.xsd"><metadata><link href="http://www.garmin.com"><text>Garmin International</text></link><time>2024-09-09T17:55:37Z</time></metadata><wpt lat="10.367961" lon="123.940447"><ele>38.487041</ele><time>2024-09-09T17:55:37Z</time><name>1593</name><sym>Flag, Blue</sym></wpt><wpt lat="10.367961" lon="123.940447"><ele>38.487041</ele><time>2024-09-09T17:56:03Z</time><name>1594</name><sym>Flag, Blue</sym></wpt><wpt lat="10.367961" lon="123.940447"><ele>38.487041</ele><time>2024-09-09T17:56:42Z</time><name>1595</name><sym>Flag, Blue</sym></wpt><wpt lat="10.367961" lon="123.940447"><ele>38.487041</ele><time>2024-09-09T17:57:18Z</time><name>1596</name><sym>Flag, Blue</sym></wpt><wpt lat="10.367961" lon="123.940447"><ele>38.487041</ele><time>2024-09-09T17:58:39Z</time><name>1597</name><sym>Flag, Blue</sym></wpt><wpt lat="10.367961" lon="123.940447"><ele>38.487041</ele><time>2024-09-09T18:00:26Z</time><name>1598</name><sym>Flag, Blue</sym></wpt><wpt lat="10.367961" lon="123.940447"><ele>38.487041</ele><time>2024-09-09T18:00:40Z</time><name>1599</name><sym>Flag, Blue</sym></wpt><wpt lat="10.367961" lon="123.940447"><ele>38.487041</ele><time>2024-09-09T18:01:01Z</time><name>1600</name><sym>Flag, Blue</sym></wpt><wpt lat="10.367961" lon="123.940447"><ele>38.487041</ele><time>2024-09-09T18:01:34Z</time><name>1601</name><sym>Flag, Blue</sym></wpt><wpt lat="10.367961" lon="123.940447"><ele>38.487041</ele><time>2024-09-09T18:02:00Z</time><name>1602</name><sym>Flag, Blue</sym></wpt><wpt lat="10.367961" lon="123.940447"><ele>38.487041</ele><time>2024-09-09T18:02:06Z</time><name>1603</name><sym>Flag, Blue</sym></wpt><wpt lat="10.367961" lon="123.940447"><ele>38.487041</ele><time>2024-09-09T18:02:30Z</time><name>1604</name><sym>Flag, Blue</sym></wpt><wpt lat="10.367961" lon="123.940447"><ele>38.487041</ele><time>2024-09-09T18:03:11Z</time><name>1605</name><sym>Flag, Blue</sym></wpt><wpt lat="10.367961" lon="123.940447"><ele>38.487041</ele><time>2024-09-09T18:03:28Z</time><name>1606</name><sym>Flag, Blue</sym></wpt><wpt lat="10.367961" lon="123.940447"><ele>38.487041</ele><time>2024-09-09T18:04:03Z</time><name>1607</name><sym>Flag, Blue</sym></wpt><wpt lat="10.367961" lon="123.940447"><ele>38.487041</ele><time>2024-09-09T18:04:36Z</time><name>1608</name><sym>Flag, Blue</sym></wpt><wpt lat="10.367961" lon="123.940447"><ele>38.487041</ele><time>2024-09-09T18:05:03Z</time><name>1609</name><sym>Flag, Blue</sym></wpt><wpt lat="10.367961" lon="123.940447"><ele>38.487041</ele><time>2024-09-09T18:05:37Z</time><name>1610</name><sym>Flag, Blue</sym></wpt><wpt lat="10.367961" lon="123.940447"><ele>38.487041</ele><time>2024-09-09T18:05:52Z</time><name>1611</name><sym>Flag, Blue</sym></wpt><wpt lat="10.367961" lon="123.940447"><ele>38.487041</ele><time>2024-09-09T18:06:00Z</time><name>1612</name><sym>Flag, Blue</sym></wpt><wpt lat="10.367961" lon="123.940447"><ele>38.487041</ele><time>2024-09-09T18:06:20Z</time><name>1613</name><sym>Flag, Blue</sym></wpt><wpt lat="10.367961" lon="123.940447"><ele>38.487041</ele><time>2024-09-09T18:06:27Z</time><name>1614</name><sym>Flag, Blue</sym></wpt><wpt lat="10.367961" lon="123.940447"><ele>38.487041</ele><time>2024-09-09T18:06:50Z</time><name>1615</name><sym>Flag, Blue</sym></wpt><wpt lat="10.367961" lon="123.940447"><ele>38.487041</ele><time>2024-09-09T18:07:07Z</time><name>1616</name><sym>Flag, Blue</sym></wpt><wpt lat="10.367961" lon="123.940447"><ele>38.487041</ele><time>2024-09-09T18:07:38Z</time><name>1617</name><sym>Flag, Blue</sym></wpt><wpt lat="10.367961" lon="123.940447"><ele>38.487041</ele><time>2024-09-09T18:07:57Z</time><name>1618</name><sym>Flag, Blue</sym></wpt><wpt lat="10.367961" lon="123.940447"><ele>38.487041</ele><time>2024-09-09T18:08:46Z</time><name>1619</name><sym>Flag, Blue</sym></wpt><wpt lat="10.367961" lon="123.940447"><ele>38.487041</ele><time>2024-09-09T18:10:58Z</time><name>1620</name><sym>Flag, Blue</sym></wpt><wpt lat="10.367961" lon="123.940447"><time>2024-09-10T02:32:47Z</time><name>1621</name><sym>Flag, Blue</sym></wpt><wpt lat="10.394380" lon="123.926758"><ele>108.321365</ele><time>2024-09-10T02:33:32Z</time><name>1622</name><sym>Flag, Blue</sym></wpt><wpt lat="10.394331" lon="123.926787"><ele>107.902786</ele><time>2024-09-10T02:33:47Z</time><name>1623</name><sym>Flag, Blue</sym></wpt><wpt lat="10.394331" lon="123.926790"><ele>108.087288</ele><time>2024-09-10T02:33:53Z</time><name>1624</name><sym>Flag, Blue</sym></wpt><wpt lat="10.394297" lon="123.926809"><ele>105.563538</ele><time>2024-09-10T02:34:07Z</time><name>1625</name><sym>Flag, Blue</sym></wpt><wpt lat="10.394261" lon="123.926839"><ele>107.368195</ele><time>2024-09-10T02:34:52Z</time><name>1626</name><sym>Flag, Blue</sym></wpt><wpt lat="10.394062" lon="123.926920"><ele>107.994835</ele><time>2024-09-10T02:35:26Z</time><name>1627</name><sym>Flag, Blue</sym></wpt><wpt lat="10.394042" lon="123.926941"><ele>108.271538</ele><time>2024-09-10T02:35:35Z</time><name>1628</name><sym>Flag, Blue</sym></wpt><wpt lat="10.394017" lon="123.926948"><ele>108.458412</ele><time>2024-09-10T02:35:45Z</time><name>1629</name><sym>Flag, Blue</sym></wpt><wpt lat="10.393993" lon="123.926953"><ele>108.489548</ele><time>2024-09-10T02:36:01Z</time><name>1630</name><sym>Flag, Blue</sym></wpt><wpt lat="10.393395" lon="123.927177"><ele>104.095703</ele><time>2024-09-10T02:37:29Z</time><name>1631</name><sym>Flag, Blue</sym></wpt><wpt lat="10.393138" lon="123.927197"><ele>102.291992</ele><time>2024-09-10T02:38:07Z</time><name>1632</name><sym>Flag, Blue</sym></wpt><wpt lat="10.393145" lon="123.927191"><ele>103.414749</ele><time>2024-09-10T02:38:21Z</time><name>1633</name><sym>Flag, Blue</sym></wpt><wpt lat="10.393100" lon="123.927186"><ele>103.709579</ele><time>2024-09-10T02:38:33Z</time><name>1634</name><sym>Flag, Blue</sym></wpt><wpt lat="10.392771" lon="123.926966"><ele>97.952057</ele><time>2024-09-10T02:39:46Z</time><name>1635</name><sym>Flag, Blue</sym></wpt><wpt lat="10.392222" lon="123.926491"><ele>107.466103</ele><time>2024-09-10T02:43:10Z</time><name>1636</name><sym>Flag, Blue</sym></wpt><wpt lat="10.392195" lon="123.926473"><ele>107.187408</ele><time>2024-09-10T02:43:22Z</time><name>1637</name><sym>Flag, Blue</sym></wpt><wpt lat="10.392163" lon="123.926466"><ele>107.243385</ele><time>2024-09-10T02:43:39Z</time><name>1638</name><sym>Flag, Blue</sym></wpt><wpt lat="10.392134" lon="123.926451"><ele>105.871208</ele><time>2024-09-10T02:44:00Z</time><name>1639</name><sym>Flag, Blue</sym></wpt><wpt lat="10.392115" lon="123.926450"><ele>105.519707</ele><time>2024-09-10T02:44:32Z</time><name>1640</name><sym>Flag, Blue</sym></wpt><wpt lat="10.392100" lon="123.926439"><ele>106.423973</ele><time>2024-09-10T02:44:48Z</time><name>1641</name><sym>Flag, Blue</sym></wpt><wpt lat="10.391871" lon="123.926370"><ele>109.761765</ele><time>2024-09-10T02:46:13Z</time><name>1642</name><sym>Flag, Blue</sym></wpt><wpt lat="10.391852" lon="123.926368"><ele>110.138535</ele><time>2024-09-10T02:46:26Z</time><name>1643</name><sym>Flag, Blue</sym></wpt><wpt lat="10.391654" lon="123.926461"><ele>111.463058</ele><time>2024-09-10T02:46:53Z</time><name>1644</name><sym>Flag, Blue</sym></wpt><wpt lat="10.391623" lon="123.926525"><ele>109.736259</ele><time>2024-09-10T02:47:15Z</time><name>1645</name><sym>Flag, Blue</sym></wpt><wpt lat="10.391616" lon="123.926523"><ele>110.669853</ele><time>2024-09-10T02:47:30Z</time><name>1646</name><sym>Flag, Blue</sym></wpt><wpt lat="10.391606" lon="123.926526"><ele>111.886322</ele><time>2024-09-10T02:47:50Z</time><name>1647</name><sym>Flag, Blue</sym></wpt><wpt lat="10.391540" lon="123.926559"><ele>110.861588</ele><time>2024-09-10T02:48:23Z</time><name>1648</name><sym>Flag, Blue</sym></wpt><wpt lat="10.391198" lon="123.926578"><ele>108.716652</ele><time>2024-09-10T02:49:15Z</time><name>1649</name><sym>Flag, Blue</sym></wpt><wpt lat="10.391241" lon="123.926595"><ele>109.737961</ele><time>2024-09-10T02:49:47Z</time><name>1650</name><sym>Flag, Blue</sym></wpt><wpt lat="10.391145" lon="123.926559"><ele>111.165497</ele><time>2024-09-10T02:50:22Z</time><name>1651</name><sym>Flag, Blue</sym></wpt><wpt lat="10.391151" lon="123.926560"><ele>109.741974</ele><time>2024-09-10T02:50:31Z</time><name>1652</name><sym>Flag, Blue</sym></wpt><wpt lat="10.391090" lon="123.926541"><ele>107.769913</ele><time>2024-09-10T02:50:52Z</time><name>1653</name><sym>Flag, Blue</sym></wpt><wpt lat="10.390816" lon="123.926521"><ele>108.560417</ele><time>2024-09-10T02:51:38Z</time><name>1654</name><sym>Flag, Blue</sym></wpt><wpt lat="10.390773" lon="123.926539"><ele>109.216812</ele><time>2024-09-10T02:52:00Z</time><name>1655</name><sym>Flag, Blue</sym></wpt><wpt lat="10.390766" lon="123.926545"><ele>109.038162</ele><time>2024-09-10T02:52:10Z</time><name>1656</name><sym>Flag, Blue</sym></wpt><wpt lat="10.390729" lon="123.926564"><ele>111.118698</ele><time>2024-09-10T02:52:28Z</time><name>1657</name><sym>Flag, Blue</sym></wpt><wpt lat="10.390492" lon="123.926865"><ele>117.559471</ele><time>2024-09-10T02:53:30Z</time><name>1658</name><sym>Flag, Blue</sym></wpt><wpt lat="10.390461" lon="123.926865"><ele>116.567108</ele><time>2024-09-10T02:53:42Z</time><name>1659</name><sym>Flag, Blue</sym></wpt><wpt lat="10.390464" lon="123.926912"><ele>116.771088</ele><time>2024-09-10T02:53:59Z</time><name>1660</name><sym>Flag, Blue</sym></wpt><wpt lat="10.390409" lon="123.926970"><ele>113.431763</ele><time>2024-09-10T02:54:26Z</time><name>1661</name><sym>Flag, Blue</sym></wpt><wpt lat="10.389335" lon="123.926915"><time>2024-09-10T02:58:27Z</time><name>1662</name><sym>Flag, Blue</sym></wpt><wpt lat="10.389341" lon="123.926891"><ele>118.707001</ele><time>2024-09-10T02:59:05Z</time><name>1663</name><sym>Flag, Blue</sym></wpt><wpt lat="10.389034" lon="123.926727"><ele>115.453812</ele><time>2024-09-10T02:59:52Z</time><name>1664</name><sym>Flag, Blue</sym></wpt><wpt lat="10.388356" lon="123.926736"><ele>116.190887</ele><time>2024-09-10T03:01:20Z</time><name>1665</name><sym>Flag, Blue</sym></wpt><wpt lat="10.388325" lon="123.926718"><ele>115.039902</ele><time>2024-09-10T03:01:34Z</time><name>1666</name><sym>Flag, Blue</sym></wpt><wpt lat="10.388315" lon="123.926720"><ele>113.994705</ele><time>2024-09-10T03:01:56Z</time><name>1667</name><sym>Flag, Blue</sym></wpt><wpt lat="10.388298" lon="123.926746"><ele>117.979675</ele><time>2024-09-10T03:02:32Z</time><name>1668</name><sym>Flag, Blue</sym></wpt><wpt lat="10.388247" lon="123.926743"><ele>117.576553</ele><time>2024-09-10T03:02:59Z</time><name>1669</name><sym>Flag, Blue</sym></wpt><wpt lat="10.387605" lon="123.927603"><ele>121.094223</ele><time>2024-09-10T03:04:47Z</time><name>1670</name><sym>Flag, Blue</sym></wpt><wpt lat="10.387607" lon="123.927601"><ele>120.478119</ele><time>2024-09-10T03:05:07Z</time><name>1671</name><sym>Flag, Blue</sym></wpt><wpt lat="10.387537" lon="123.927611"><ele>119.833687</ele><time>2024-09-10T03:06:01Z</time><name>1672</name><sym>Flag, Blue</sym></wpt><wpt lat="10.387437" lon="123.927618"><ele>122.068230</ele><time>2024-09-10T03:06:22Z</time><name>1673</name><sym>Flag, Blue</sym></wpt><wpt lat="10.387369" lon="123.927637"><ele>123.081245</ele><time>2024-09-10T03:06:43Z</time><name>1674</name><sym>Flag, Blue</sym></wpt><wpt lat="10.387365" lon="123.927642"><ele>122.085495</ele><time>2024-09-10T03:06:48Z</time><name>1675</name><sym>Flag, Blue</sym></wpt><wpt lat="10.387221" lon="123.927633"><ele>120.415894</ele><time>2024-09-10T03:07:32Z</time><name>1676</name><sym>Flag, Blue</sym></wpt><wpt lat="10.387225" lon="123.927636"><ele>119.581070</ele><time>2024-09-10T03:07:39Z</time><name>1677</name><sym>Flag, Blue</sym></wpt><wpt lat="10.387193" lon="123.927654"><ele>119.922806</ele><time>2024-09-10T03:07:59Z</time><name>1678</name><sym>Flag, Blue</sym></wpt><wpt lat="10.387143" lon="123.927681"><ele>115.507423</ele><time>2024-09-10T03:08:21Z</time><name>1679</name><sym>Flag, Blue</sym></wpt><wpt lat="10.387129" lon="123.927689"><ele>117.084450</ele><time>2024-09-10T03:08:36Z</time><name>1680</name><sym>Flag, Blue</sym></wpt><wpt lat="10.387090" lon="123.927720"><ele>118.959633</ele><time>2024-09-10T03:09:07Z</time><name>1681</name><sym>Flag, Blue</sym></wpt><wpt lat="10.387032" lon="123.927728"><ele>122.034142</ele><time>2024-09-10T03:09:33Z</time><name>1682</name><sym>Flag, Blue</sym></wpt><wpt lat="10.386990" lon="123.927725"><ele>120.663063</ele><time>2024-09-10T03:09:51Z</time><name>1683</name><sym>Flag, Blue</sym></wpt><wpt lat="10.386983" lon="123.927752"><ele>119.088615</ele><time>2024-09-10T03:09:58Z</time><name>1684</name><sym>Flag, Blue</sym></wpt><wpt lat="10.386932" lon="123.927775"><ele>118.564857</ele><time>2024-09-10T03:10:14Z</time><name>1685</name><sym>Flag, Blue</sym></wpt><wpt lat="10.386947" lon="123.927792"><ele>119.103554</ele><time>2024-09-10T03:10:35Z</time><name>1686</name><sym>Flag, Blue</sym></wpt><wpt lat="10.386934" lon="123.927793"><ele>118.502785</ele><time>2024-09-10T03:10:43Z</time><name>1687</name><sym>Flag, Blue</sym></wpt><wpt lat="10.386877" lon="123.927835"><ele>117.357109</ele><time>2024-09-10T03:11:04Z</time><name>1688</name><sym>Flag, Blue</sym></wpt><wpt lat="10.386854" lon="123.927832"><ele>118.750656</ele><time>2024-09-10T03:11:20Z</time><name>1689</name><sym>Flag, Blue</sym></wpt><wpt lat="10.386823" lon="123.927829"><ele>118.587296</ele><time>2024-09-10T03:11:43Z</time><name>1690</name><sym>Flag, Blue</sym></wpt><wpt lat="10.386775" lon="123.927816"><ele>118.635818</ele><time>2024-09-10T03:12:15Z</time><name>1691</name><sym>Flag, Blue</sym></wpt><wpt lat="10.386756" lon="123.927817"><ele>116.048004</ele><time>2024-09-10T03:12:55Z</time><name>1692</name><sym>Flag, Blue</sym></wpt><wpt lat="10.386726" lon="123.927811"><ele>114.217644</ele><time>2024-09-10T03:13:18Z</time><name>1693</name><sym>Flag, Blue</sym></wpt><wpt lat="10.386598" lon="123.927823"><ele>113.815964</ele><time>2024-09-10T03:14:02Z</time><name>1694</name><sym>Flag, Blue</sym></wpt><wpt lat="10.386499" lon="123.927820"><ele>114.287643</ele><time>2024-09-10T03:14:29Z</time><name>1695</name><sym>Flag, Blue</sym></wpt><wpt lat="10.386456" lon="123.927838"><ele>115.848923</ele><time>2024-09-10T03:14:44Z</time><name>1696</name><sym>Flag, Blue</sym></wpt><wpt lat="10.386377" lon="123.927811"><ele>120.080566</ele><time>2024-09-10T03:15:25Z</time><name>1697</name><sym>Flag, Blue</sym></wpt><wpt lat="10.386324" lon="123.927817"><ele>122.963242</ele><time>2024-09-10T03:15:51Z</time><name>1698</name><sym>Flag, Blue</sym></wpt><wpt lat="10.386304" lon="123.927819"><ele>120.643562</ele><time>2024-09-10T03:16:07Z</time><name>1699</name><sym>Flag, Blue</sym></wpt><wpt lat="10.386245" lon="123.927780"><ele>118.406708</ele><time>2024-09-10T03:16:25Z</time><name>1700</name><sym>Flag, Blue</sym></wpt><wpt lat="10.386191" lon="123.927756"><ele>119.182785</ele><time>2024-09-10T03:16:46Z</time><name>1701</name><sym>Flag, Blue</sym></wpt><wpt lat="10.386175" lon="123.927747"><ele>118.663513</ele><time>2024-09-10T03:16:53Z</time><name>1702</name><sym>Flag, Blue</sym></wpt><wpt lat="10.386086" lon="123.927742"><ele>118.781075</ele><time>2024-09-10T03:17:11Z</time><name>1703</name><sym>Flag, Blue</sym></wpt><wpt lat="10.385660" lon="123.927616"><ele>128.588806</ele><time>2024-09-10T03:18:33Z</time><name>1704</name><sym>Flag, Blue</sym></wpt><wpt lat="10.385627" lon="123.927582"><ele>126.674103</ele><time>2024-09-10T03:18:51Z</time><name>1705</name><sym>Flag, Blue</sym></wpt><wpt lat="10.385472" lon="123.927429"><ele>122.134308</ele><time>2024-09-10T03:19:45Z</time><name>1706</name><sym>Flag, Blue</sym></wpt><wpt lat="10.385109" lon="123.927243"><ele>118.913727</ele><time>2024-09-10T03:20:40Z</time><name>1707</name><sym>Flag, Blue</sym></wpt><wpt lat="10.384985" lon="123.927281"><ele>117.193497</ele><time>2024-09-10T03:21:21Z</time><name>1708</name><sym>Flag, Blue</sym></wpt><wpt lat="10.384917" lon="123.927315"><ele>116.621536</ele><time>2024-09-10T03:22:07Z</time><name>1709</name><sym>Flag, Blue</sym></wpt><wpt lat="10.384924" lon="123.927344"><ele>118.833725</ele><time>2024-09-10T03:22:27Z</time><name>1710</name><sym>Flag, Blue</sym></wpt><wpt lat="10.384901" lon="123.927350"><ele>121.056511</ele><time>2024-09-10T03:22:44Z</time><name>1711</name><sym>Flag, Blue</sym></wpt><wpt lat="10.384908" lon="123.927362"><ele>123.326050</ele><time>2024-09-10T03:22:53Z</time><name>1712</name><sym>Flag, Blue</sym></wpt><wpt lat="10.384867" lon="123.927360"><ele>125.033997</ele><time>2024-09-10T03:23:16Z</time><name>1713</name><sym>Flag, Blue</sym></wpt><wpt lat="10.384667" lon="123.927534"><ele>122.109787</ele><time>2024-09-10T03:24:35Z</time><name>1714</name><sym>Flag, Blue</sym></wpt><wpt lat="10.384493" lon="123.927601"><ele>117.234222</ele><time>2024-09-10T03:25:08Z</time><name>1715</name><sym>Flag, Blue</sym></wpt><wpt lat="10.384257" lon="123.927667"><ele>114.388138</ele><time>2024-09-10T03:25:47Z</time><name>1716</name><sym>Flag, Blue</sym></wpt><wpt lat="10.380046" lon="123.932225"><ele>10089.000000</ele><time>2024-09-10T03:38:20Z</time><name>1717</name><sym>Flag, Blue</sym></wpt><wpt lat="10.383613" lon="123.929268"><ele>108.122490</ele><time>2024-09-10T04:44:29Z</time><name>1718</name><sym>Flag, Blue</sym></wpt><wpt lat="10.383611" lon="123.929260"><ele>106.995644</ele><time>2024-09-10T04:44:43Z</time><name>1719</name><sym>Flag, Blue</sym></wpt><wpt lat="10.383620" lon="123.929252"><ele>106.119469</ele><time>2024-09-10T04:44:48Z</time><name>1720</name><sym>Flag, Blue</sym></wpt><wpt lat="10.383604" lon="123.929303"><ele>108.553848</ele><time>2024-09-10T04:45:32Z</time><name>1721</name><sym>Flag, Blue</sym></wpt><wpt lat="10.383602" lon="123.929372"><ele>105.408585</ele><time>2024-09-10T04:46:06Z</time><name>1722</name><sym>Flag, Blue</sym></wpt><wpt lat="10.383607" lon="123.929404"><ele>105.059052</ele><time>2024-09-10T04:46:23Z</time><name>1723</name><sym>Flag, Blue</sym></wpt><wpt lat="10.383613" lon="123.929450"><ele>105.934509</ele><time>2024-09-10T04:46:42Z</time><name>1724</name><sym>Flag, Blue</sym></wpt><wpt lat="10.383607" lon="123.929490"><ele>106.683594</ele><time>2024-09-10T04:46:58Z</time><name>1725</name><sym>Flag, Blue</sym></wpt><wpt lat="10.383601" lon="123.929505"><ele>105.973526</ele><time>2024-09-10T04:47:09Z</time><name>1726</name><sym>Flag, Blue</sym></wpt><wpt lat="10.383594" lon="123.929509"><ele>104.785492</ele><time>2024-09-10T04:47:19Z</time><name>1727</name><sym>Flag, Blue</sym></wpt><wpt lat="10.383383" lon="123.929849"><ele>100.111076</ele><time>2024-09-10T04:48:31Z</time><name>1728</name><sym>Flag, Blue</sym></wpt><wpt lat="10.383304" lon="123.929883"><ele>97.777954</ele><time>2024-09-10T04:49:16Z</time><name>1729</name><sym>Flag, Blue</sym></wpt><wpt lat="10.383159" lon="123.929980"><ele>99.050308</ele><time>2024-09-10T04:49:58Z</time><name>1730</name><sym>Flag, Blue</sym></wpt><wpt lat="10.383095" lon="123.930035"><ele>97.973839</ele><time>2024-09-10T04:50:18Z</time><name>1731</name><sym>Flag, Blue</sym></wpt><wpt lat="10.383037" lon="123.930081"><ele>98.841454</ele><time>2024-09-10T04:50:34Z</time><name>1732</name><sym>Flag, Blue</sym></wpt><wpt lat="10.383023" lon="123.930083"><ele>98.009224</ele><time>2024-09-10T04:50:49Z</time><name>1733</name><sym>Flag, Blue</sym></wpt><wpt lat="10.383017" lon="123.930098"><ele>97.738708</ele><time>2024-09-10T04:51:15Z</time><name>1734</name><sym>Flag, Blue</sym></wpt><wpt lat="10.382981" lon="123.930103"><ele>96.560501</ele><time>2024-09-10T04:51:41Z</time><name>1735</name><sym>Flag, Blue</sym></wpt><wpt lat="10.382966" lon="123.930111"><ele>96.341339</ele><time>2024-09-10T04:51:58Z</time><name>1736</name><sym>Flag, Blue</sym></wpt><wpt lat="10.382959" lon="123.930108"><ele>97.964355</ele><time>2024-09-10T04:52:10Z</time><name>1737</name><sym>Flag, Blue</sym></wpt><wpt lat="10.382956" lon="123.930132"><ele>99.288681</ele><time>2024-09-10T04:52:26Z</time><name>1738</name><sym>Flag, Blue</sym></wpt><wpt lat="10.382927" lon="123.930139"><ele>99.737289</ele><time>2024-09-10T04:52:42Z</time><name>1739</name><sym>Flag, Blue</sym></wpt><wpt lat="10.382936" lon="123.930136"><ele>100.375580</ele><time>2024-09-10T04:52:54Z</time><name>1740</name><sym>Flag, Blue</sym></wpt><wpt lat="10.382904" lon="123.930150"><ele>101.352448</ele><time>2024-09-10T04:53:10Z</time><name>1741</name><sym>Flag, Blue</sym></wpt><wpt lat="10.382905" lon="123.930150"><ele>101.839958</ele><time>2024-09-10T04:53:23Z</time><name>1742</name><sym>Flag, Blue</sym></wpt><wpt lat="10.382894" lon="123.930164"><ele>101.248863</ele><time>2024-09-10T04:53:36Z</time><name>1743</name><sym>Flag, Blue</sym></wpt><wpt lat="10.382871" lon="123.930183"><ele>98.693169</ele><time>2024-09-10T04:54:01Z</time><name>1744</name><sym>Flag, Blue</sym></wpt><wpt lat="10.382878" lon="123.930208"><ele>100.327576</ele><time>2024-09-10T04:54:14Z</time><name>1745</name><sym>Flag, Blue</sym></wpt><wpt lat="10.382860" lon="123.930201"><ele>99.122070</ele><time>2024-09-10T04:54:30Z</time><name>1746</name><sym>Flag, Blue</sym></wpt><wpt lat="10.382853" lon="123.930227"><ele>100.081345</ele><time>2024-09-10T04:54:47Z</time><name>1747</name><sym>Flag, Blue</sym></wpt><wpt lat="10.382834" lon="123.930233"><ele>100.935471</ele><time>2024-09-10T04:55:01Z</time><name>1748</name><sym>Flag, Blue</sym></wpt><wpt lat="10.382834" lon="123.930225"><ele>100.547928</ele><time>2024-09-10T04:55:15Z</time><name>1749</name><sym>Flag, Blue</sym></wpt><wpt lat="10.382813" lon="123.930242"><ele>100.590240</ele><time>2024-09-10T04:55:28Z</time><name>1750</name><sym>Flag, Blue</sym></wpt><wpt lat="10.382740" lon="123.930272"><ele>99.222610</ele><time>2024-09-10T04:56:22Z</time><name>1751</name><sym>Flag, Blue</sym></wpt><wpt lat="10.382575" lon="123.930416"><ele>99.816711</ele><time>2024-09-10T04:57:05Z</time><name>1752</name><sym>Flag, Blue</sym></wpt><wpt lat="10.382466" lon="123.930528"><ele>99.836838</ele><time>2024-09-10T04:58:02Z</time><name>1753</name><sym>Flag, Blue</sym></wpt><wpt lat="10.382441" lon="123.930529"><ele>96.958572</ele><time>2024-09-10T04:58:18Z</time><name>1754</name><sym>Flag, Blue</sym></wpt><wpt lat="10.382357" lon="123.930581"><ele>97.150711</ele><time>2024-09-10T04:58:43Z</time><name>1755</name><sym>Flag, Blue</sym></wpt><wpt lat="10.382295" lon="123.930637"><ele>100.728088</ele><time>2024-09-10T04:59:12Z</time><name>1756</name><sym>Flag, Blue</sym></wpt><wpt lat="10.382246" lon="123.930706"><ele>102.986946</ele><time>2024-09-10T04:59:38Z</time><name>1757</name><sym>Flag, Blue</sym></wpt><wpt lat="10.382140" lon="123.931055"><ele>101.086548</ele><time>2024-09-10T05:00:39Z</time><name>1758</name><sym>Flag, Blue</sym></wpt><wpt lat="10.382094" lon="123.931154"><ele>100.081924</ele><time>2024-09-10T05:01:16Z</time><name>1759</name><sym>Flag, Blue</sym></wpt><wpt lat="10.381900" lon="123.931344"><ele>98.552109</ele><time>2024-09-10T05:02:37Z</time><name>1760</name><sym>Flag, Blue</sym></wpt><wpt lat="10.381894" lon="123.931344"><ele>98.680603</ele><time>2024-09-10T05:02:46Z</time><name>1761</name><sym>Flag, Blue</sym></wpt></gpx>