<?xml version="1.0" encoding="UTF-8" standalone="no" ?><gpx xmlns="http://www.topografix.com/GPX/1/1" xmlns:gpxx="http://www.garmin.com/xmlschemas/GpxExtensions/v3" xmlns:wptx1="http://www.garmin.com/xmlschemas/WaypointExtension/v1" xmlns:gpxtpx="http://www.garmin.com/xmlschemas/TrackPointExtension/v1" creator="eTrex 22x" version="1.1" xmlns:xsi="http://www.w3.org/2001/XMLSchema-instance" xsi:schemaLocation="http://www.topografix.com/GPX/1/1 http://www.topografix.com/GPX/1/1/gpx.xsd http://www.garmin.com/xmlschemas/GpxExtensions/v3 http://www8.garmin.com/xmlschemas/GpxExtensionsv3.xsd http://www.garmin.com/xmlschemas/TrackStatsExtension/v1 http://www8.garmin.com/xmlschemas/TrackStatsExtension.xsd http://www.garmin.com/xmlschemas/WaypointExtension/v1 http://www8.garmin.com/xmlschemas/WaypointExtensionv1.xsd http://www.garmin.com/xmlschemas/TrackPointExtension/v1 http://www.garmin.com/xmlschemas/TrackPointExtensionv1.xsd"><metadata><link href="http://www.garmin.com"><text>Garmin International</text></link><time>2024-10-04T02:30:20Z</time></metadata><wpt lat="10.346994" lon="123.932569"><ele>38.159149</ele><time>2024-10-04T02:30:20Z</time><name>496</name><sym>Flag, Blue</sym></wpt><wpt lat="10.345783" lon="123.933305"><ele>24.065691</ele><time>2024-10-04T02:32:08Z</time><name>497</name><sym>Flag, Blue</sym></wpt><wpt lat="10.345217" lon="123.933527"><ele>45.387783</ele><time>2024-10-04T02:33:39Z</time><name>498</name><sym>Flag, Blue</sym></wpt><wpt lat="10.345183" lon="123.933500"><ele>45.741505</ele><time>2024-10-04T02:33:50Z</time><name>499</name><sym>Flag, Blue</sym></wpt><wpt lat="10.345153" lon="123.933471"><ele>44.995365</ele><time>2024-10-04T02:34:02Z</time><name>500</name><sym>Flag, Blue</sym></wpt><wpt lat="10.344684" lon="123.933203"><ele>35.951626</ele><time>2024-10-04T02:35:25Z</time><name>501</name><sym>Flag, Blue</sym></wpt><wpt lat="10.344642" lon="123.933176"><ele>40.312855</ele><time>2024-10-04T02:35:57Z</time><name>502</name><sym>Flag, Blue</sym></wpt><wpt lat="10.348134" lon="123.935464"><ele>40.585072</ele><time>2024-10-04T02:38:30Z</time><name>503</name><sym>Flag, Blue</sym></wpt><wpt lat="10.348116" lon="123.935484"><ele>37.239857</ele><time>2024-10-04T02:38:45Z</time><name>504</name><sym>Flag, Blue</sym></wpt><wpt lat="10.348157" lon="123.935493"><ele>35.985874</ele><time>2024-10-04T02:39:03Z</time><name>505</name><sym>Flag, Blue</sym></wpt><wpt lat="10.348099" lon="123.935486"><ele>31.355453</ele><time>2024-10-04T02:39:40Z</time><name>506</name><sym>Flag, Blue</sym></wpt><wpt lat="10.348078" lon="123.935496"><ele>32.082581</ele><time>2024-10-04T02:39:48Z</time><name>507</name><sym>Flag, Blue</sym></wpt><wpt lat="10.348054" lon="123.935494"><ele>32.612572</ele><time>2024-10-04T02:39:55Z</time><name>508</name><sym>Flag, Blue</sym></wpt><wpt lat="10.347863" lon="123.935472"><ele>40.628918</ele><time>2024-10-04T02:40:20Z</time><name>509</name><sym>Flag, Blue</sym></wpt><wpt lat="10.347840" lon="123.935472"><ele>42.809849</ele><time>2024-10-04T02:40:26Z</time><name>510</name><sym>Flag, Blue</sym></wpt><wpt lat="10.347821" lon="123.935474"><ele>44.141247</ele><time>2024-10-04T02:40:34Z</time><name>511</name><sym>Flag, Blue</sym></wpt><wpt lat="10.347802" lon="123.935470"><ele>44.764462</ele><time>2024-10-04T02:40:41Z</time><name>512</name><sym>Flag, Blue</sym></wpt><wpt lat="10.347748" lon="123.935467"><ele>45.034046</ele><time>2024-10-04T02:40:55Z</time><name>513</name><sym>Flag, Blue</sym></wpt><wpt lat="10.347719" lon="123.935465"><ele>44.995304</ele><time>2024-10-04T02:41:06Z</time><name>514</name><sym>Flag, Blue</sym></wpt><wpt lat="10.347672" lon="123.935455"><ele>45.278267</ele><time>2024-10-04T02:41:25Z</time><name>515</name><sym>Flag, Blue</sym></wpt><wpt lat="10.347579" lon="123.935426"><ele>44.525200</ele><time>2024-10-04T02:41:47Z</time><name>516</name><sym>Flag, Blue</sym></wpt><wpt lat="10.347555" lon="123.935419"><ele>44.439156</ele><time>2024-10-04T02:41:59Z</time><name>517</name><sym>Flag, Blue</sym></wpt><wpt lat="10.347523" lon="123.935419"><ele>44.476265</ele><time>2024-10-04T02:42:10Z</time><name>518</name><sym>Flag, Blue</sym></wpt><wpt lat="10.347509" lon="123.935416"><ele>44.615959</ele><time>2024-10-04T02:42:17Z</time><name>519</name><sym>Flag, Blue</sym></wpt><wpt lat="10.347460" lon="123.935411"><ele>43.800461</ele><time>2024-10-04T02:42:26Z</time><name>520</name><sym>Flag, Blue</sym></wpt><wpt lat="10.347385" lon="123.935432"><ele>42.143242</ele><time>2024-10-04T02:42:39Z</time><name>521</name><sym>Flag, Blue</sym></wpt><wpt lat="10.347328" lon="123.935410"><ele>41.769592</ele><time>2024-10-04T02:42:49Z</time><name>522</name><sym>Flag, Blue</sym></wpt><wpt lat="10.347294" lon="123.935391"><ele>40.669334</ele><time>2024-10-04T02:42:59Z</time><name>523</name><sym>Flag, Blue</sym></wpt><wpt lat="10.347262" lon="123.935386"><ele>39.384464</ele><time>2024-10-04T02:43:08Z</time><name>524</name><sym>Flag, Blue</sym></wpt><wpt lat="10.347218" lon="123.935372"><ele>39.001339</ele><time>2024-10-04T02:43:16Z</time><name>525</name><sym>Flag, Blue</sym></wpt><wpt lat="10.346891" lon="123.935356"><ele>41.909924</ele><time>2024-10-04T02:44:03Z</time><name>526</name><sym>Flag, Blue</sym></wpt><wpt lat="10.346747" lon="123.935364"><ele>41.785538</ele><time>2024-10-04T02:44:19Z</time><name>527</name><sym>Flag, Blue</sym></wpt><wpt lat="10.346655" lon="123.935296"><ele>38.383865</ele><time>2024-10-04T02:44:31Z</time><name>528</name><sym>Flag, Blue</sym></wpt><wpt lat="10.346646" lon="123.935286"><ele>38.644218</ele><time>2024-10-04T02:44:38Z</time><name>529</name><sym>Flag, Blue</sym></wpt><wpt lat="10.346609" lon="123.935258"><ele>38.941994</ele><time>2024-10-04T02:44:47Z</time><name>530</name><sym>Flag, Blue</sym></wpt><wpt lat="10.346497" lon="123.935212"><ele>39.405396</ele><time>2024-10-04T02:44:57Z</time><name>531</name><sym>Flag, Blue</sym></wpt><wpt lat="10.345428" lon="123.934990"><ele>46.824989</ele><time>2024-10-04T02:45:39Z</time><name>532</name><sym>Flag, Blue</sym></wpt><wpt lat="10.345370" lon="123.934971"><ele>45.200291</ele><time>2024-10-04T02:45:47Z</time><name>533</name><sym>Flag, Blue</sym></wpt><wpt lat="10.345331" lon="123.934954"><ele>43.221302</ele><time>2024-10-04T02:45:56Z</time><name>534</name><sym>Flag, Blue</sym></wpt><wpt lat="10.344817" lon="123.934589"><ele>51.782898</ele><time>2024-10-04T02:46:28Z</time><name>535</name><sym>Flag, Blue</sym></wpt><wpt lat="10.344507" lon="123.934358"><ele>48.395535</ele><time>2024-10-04T02:47:21Z</time><name>536</name><sym>Flag, Blue</sym></wpt><wpt lat="10.344446" lon="123.934304"><ele>46.870354</ele><time>2024-10-04T02:47:28Z</time><name>537</name><sym>Flag, Blue</sym></wpt><wpt lat="10.344716" lon="123.933285"><ele>53.575878</ele><time>2024-10-04T02:48:27Z</time><name>538</name><sym>Flag, Blue</sym></wpt><wpt lat="10.345898" lon="123.931203"><ele>55.982979</ele><time>2024-10-04T02:51:17Z</time><name>539</name><sym>Flag, Blue</sym></wpt><wpt lat="10.340786" lon="123.933772"><ele>45.139610</ele><time>2024-10-04T02:54:23Z</time><name>540</name><sym>Flag, Blue</sym></wpt><wpt lat="10.340678" lon="123.933778"><ele>42.743198</ele><time>2024-10-04T02:54:37Z</time><name>541</name><sym>Flag, Blue</sym></wpt><wpt lat="10.340140" lon="123.933765"><ele>39.024532</ele><time>2024-10-04T02:55:04Z</time><name>542</name><sym>Flag, Blue</sym></wpt><wpt lat="10.339677" lon="123.933349"><ele>39.241455</ele><time>2024-10-04T02:55:35Z</time><name>543</name><sym>Flag, Blue</sym></wpt><wpt lat="10.339080" lon="123.932736"><ele>36.926842</ele><time>2024-10-04T02:56:05Z</time><name>544</name><sym>Flag, Blue</sym></wpt><wpt lat="10.338867" lon="123.932572"><ele>36.886467</ele><time>2024-10-04T02:56:58Z</time><name>545</name><sym>Flag, Blue</sym></wpt><wpt lat="10.338861" lon="123.932567"><ele>37.774216</ele><time>2024-10-04T02:57:06Z</time><name>546</name><sym>Flag, Blue</sym></wpt><wpt lat="10.338814" lon="123.932533"><ele>38.856705</ele><time>2024-10-04T02:57:16Z</time><name>547</name><sym>Flag, Blue</sym></wpt><wpt lat="10.338822" lon="123.932519"><ele>38.627548</ele><time>2024-10-04T02:57:21Z</time><name>548</name><sym>Flag, Blue</sym></wpt><wpt lat="10.338794" lon="123.932513"><ele>38.658844</ele><time>2024-10-04T02:57:29Z</time><name>549</name><sym>Flag, Blue</sym></wpt><wpt lat="10.338785" lon="123.932488"><ele>37.365143</ele><time>2024-10-04T02:57:36Z</time><name>550</name><sym>Flag, Blue</sym></wpt><wpt lat="10.338774" lon="123.932461"><ele>36.290009</ele><time>2024-10-04T02:57:43Z</time><name>551</name><sym>Flag, Blue</sym></wpt><wpt lat="10.339926" lon="123.930926"><ele>30.002869</ele><time>2024-10-04T02:58:53Z</time><name>552</name><sym>Flag, Blue</sym></wpt><wpt lat="10.339904" lon="123.930931"><ele>32.244827</ele><time>2024-10-04T02:59:11Z</time><name>553</name><sym>Flag, Blue</sym></wpt><wpt lat="10.339902" lon="123.930928"><ele>31.760292</ele><time>2024-10-04T02:59:41Z</time><name>554</name><sym>Flag, Blue</sym></wpt><wpt lat="10.339921" lon="123.930917"><ele>31.513290</ele><time>2024-10-04T02:59:48Z</time><name>555</name><sym>Flag, Blue</sym></wpt><wpt lat="10.339933" lon="123.930898"><ele>31.826683</ele><time>2024-10-04T02:59:56Z</time><name>556</name><sym>Flag, Blue</sym></wpt><wpt lat="10.339946" lon="123.930891"><ele>32.201447</ele><time>2024-10-04T03:00:02Z</time><name>557</name><sym>Flag, Blue</sym></wpt><wpt lat="10.339954" lon="123.930868"><ele>33.231586</ele><time>2024-10-04T03:00:08Z</time><name>558</name><sym>Flag, Blue</sym></wpt><wpt lat="10.340031" lon="123.930782"><ele>34.196987</ele><time>2024-10-04T03:00:25Z</time><name>559</name><sym>Flag, Blue</sym></wpt><wpt lat="10.340028" lon="123.930769"><ele>33.758640</ele><time>2024-10-04T03:00:32Z</time><name>560</name><sym>Flag, Blue</sym></wpt><wpt lat="10.340021" lon="123.930757"><ele>33.833118</ele><time>2024-10-04T03:00:40Z</time><name>561</name><sym>Flag, Blue</sym></wpt><wpt lat="10.340034" lon="123.930740"><ele>33.694790</ele><time>2024-10-04T03:00:48Z</time><name>562</name><sym>Flag, Blue</sym></wpt><wpt lat="10.340032" lon="123.930716"><ele>34.511639</ele><time>2024-10-04T03:00:57Z</time><name>563</name><sym>Flag, Blue</sym></wpt><wpt lat="10.340040" lon="123.930686"><ele>35.872837</ele><time>2024-10-04T03:01:03Z</time><name>564</name><sym>Flag, Blue</sym></wpt><wpt lat="10.340098" lon="123.930584"><ele>40.310432</ele><time>2024-10-04T03:01:17Z</time><name>565</name><sym>Flag, Blue</sym></wpt><wpt lat="10.341522" lon="123.928870"><ele>39.489651</ele><time>2024-10-04T03:02:36Z</time><name>566</name><sym>Flag, Blue</sym></wpt><wpt lat="10.341715" lon="123.928653"><ele>36.317478</ele><time>2024-10-04T03:03:23Z</time><name>567</name><sym>Flag, Blue</sym></wpt><wpt lat="10.342855" lon="123.928538"><ele>36.021626</ele><time>2024-10-04T03:05:49Z</time><name>568</name><sym>Flag, Blue</sym></wpt><wpt lat="10.343133" lon="123.928854"><ele>32.392666</ele><time>2024-10-04T03:06:14Z</time><name>569</name><sym>Flag, Blue</sym></wpt><wpt lat="10.343142" lon="123.928862"><ele>31.609089</ele><time>2024-10-04T03:06:25Z</time><name>570</name><sym>Flag, Blue</sym></wpt><wpt lat="10.343328" lon="123.929174"><ele>33.698433</ele><time>2024-10-04T03:06:46Z</time><name>571</name><sym>Flag, Blue</sym></wpt><wpt lat="10.343378" lon="123.929179"><ele>36.130844</ele><time>2024-10-04T03:07:32Z</time><name>572</name><sym>Flag, Blue</sym></wpt><wpt lat="10.343478" lon="123.929230"><ele>28.865120</ele><time>2024-10-04T03:07:53Z</time><name>573</name><sym>Flag, Blue</sym></wpt><wpt lat="10.343497" lon="123.929248"><ele>27.615387</ele><time>2024-10-04T03:08:02Z</time><name>574</name><sym>Flag, Blue</sym></wpt><wpt lat="10.343509" lon="123.929254"><ele>26.396130</ele><time>2024-10-04T03:08:11Z</time><name>575</name><sym>Flag, Blue</sym></wpt><wpt lat="10.343540" lon="123.929279"><ele>25.908840</ele><time>2024-10-04T03:08:25Z</time><name>576</name><sym>Flag, Blue</sym></wpt><wpt lat="10.343541" lon="123.929272"><ele>25.110424</ele><time>2024-10-04T03:08:38Z</time><name>577</name><sym>Flag, Blue</sym></wpt><wpt lat="10.343542" lon="123.929276"><ele>25.227100</ele><time>2024-10-04T03:08:49Z</time><name>578</name><sym>Flag, Blue</sym></wpt><wpt lat="10.343555" lon="123.929291"><ele>25.241558</ele><time>2024-10-04T03:09:00Z</time><name>579</name><sym>Flag, Blue</sym></wpt><wpt lat="10.343590" lon="123.929318"><ele>25.628033</ele><time>2024-10-04T03:09:07Z</time><name>580</name><sym>Flag, Blue</sym></wpt><wpt lat="10.343674" lon="123.929166"><ele>23.892590</ele><time>2024-10-04T03:09:35Z</time><name>581</name><sym>Flag, Blue</sym></wpt><wpt lat="10.343852" lon="123.928721"><ele>22.366524</ele><time>2024-10-04T03:10:57Z</time><name>582</name><sym>Flag, Blue</sym></wpt><wpt lat="10.343828" lon="123.928731"><ele>23.545265</ele><time>2024-10-04T03:11:07Z</time><name>583</name><sym>Flag, Blue</sym></wpt><wpt lat="10.343819" lon="123.928728"><ele>22.512310</ele><time>2024-10-04T03:11:13Z</time><name>584</name><sym>Flag, Blue</sym></wpt><wpt lat="10.343818" lon="123.928683"><ele>25.749836</ele><time>2024-10-04T03:11:31Z</time><name>585</name><sym>Flag, Blue</sym></wpt><wpt lat="10.343819" lon="123.928683"><ele>24.610729</ele><time>2024-10-04T03:11:37Z</time><name>586</name><sym>Flag, Blue</sym></wpt><wpt lat="10.343865" lon="123.928693"><ele>24.224209</ele><time>2024-10-04T03:11:52Z</time><name>587</name><sym>Flag, Blue</sym></wpt><wpt lat="10.343892" lon="123.928678"><ele>25.322083</ele><time>2024-10-04T03:12:11Z</time><name>588</name><sym>Flag, Blue</sym></wpt><wpt lat="10.344001" lon="123.928829"><ele>28.126907</ele><time>2024-10-04T03:12:25Z</time><name>589</name><sym>Flag, Blue</sym></wpt><wpt lat="10.343979" lon="123.929280"><ele>30.820545</ele><time>2024-10-04T03:13:59Z</time><name>590</name><sym>Flag, Blue</sym></wpt><wpt lat="10.343945" lon="123.929318"><ele>29.308857</ele><time>2024-10-04T03:14:13Z</time><name>591</name><sym>Flag, Blue</sym></wpt><wpt lat="10.343937" lon="123.929321"><ele>29.192341</ele><time>2024-10-04T03:14:21Z</time><name>592</name><sym>Flag, Blue</sym></wpt><wpt lat="10.343929" lon="123.929332"><ele>28.813282</ele><time>2024-10-04T03:14:31Z</time><name>593</name><sym>Flag, Blue</sym></wpt><wpt lat="10.343923" lon="123.929354"><ele>28.880527</ele><time>2024-10-04T03:14:36Z</time><name>594</name><sym>Flag, Blue</sym></wpt><wpt lat="10.343914" lon="123.929361"><ele>28.136356</ele><time>2024-10-04T03:14:44Z</time><name>595</name><sym>Flag, Blue</sym></wpt><wpt lat="10.343879" lon="123.929391"><ele>27.466717</ele><time>2024-10-04T03:14:55Z</time><name>596</name><sym>Flag, Blue</sym></wpt><wpt lat="10.343849" lon="123.929429"><ele>26.665798</ele><time>2024-10-04T03:15:07Z</time><name>597</name><sym>Flag, Blue</sym></wpt><wpt lat="10.343844" lon="123.929452"><ele>26.544117</ele><time>2024-10-04T03:15:13Z</time><name>598</name><sym>Flag, Blue</sym></wpt><wpt lat="10.343781" lon="123.929472"><ele>31.479359</ele><time>2024-10-04T03:15:35Z</time><name>599</name><sym>Flag, Blue</sym></wpt><wpt lat="10.343767" lon="123.929494"><ele>32.804417</ele><time>2024-10-04T03:15:44Z</time><name>600</name><sym>Flag, Blue</sym></wpt><wpt lat="10.343742" lon="123.929491"><ele>36.152050</ele><time>2024-10-04T03:15:51Z</time><name>601</name><sym>Flag, Blue</sym></wpt><wpt lat="10.343714" lon="123.929476"><ele>35.774647</ele><time>2024-10-04T03:16:02Z</time><name>602</name><sym>Flag, Blue</sym></wpt><wpt lat="10.343715" lon="123.929461"><ele>34.217331</ele><time>2024-10-04T03:16:09Z</time><name>603</name><sym>Flag, Blue</sym></wpt><wpt lat="10.343688" lon="123.929419"><ele>33.058517</ele><time>2024-10-04T03:16:20Z</time><name>604</name><sym>Flag, Blue</sym></wpt><wpt lat="10.343673" lon="123.929405"><ele>33.447571</ele><time>2024-10-04T03:16:28Z</time><name>605</name><sym>Flag, Blue</sym></wpt><wpt lat="10.343663" lon="123.929395"><ele>32.744141</ele><time>2024-10-04T03:16:40Z</time><name>606</name><sym>Flag, Blue</sym></wpt><wpt lat="10.343668" lon="123.929392"><ele>33.302628</ele><time>2024-10-04T03:16:48Z</time><name>607</name><sym>Flag, Blue</sym></wpt><wpt lat="10.343603" lon="123.929407"><ele>32.025425</ele><time>2024-10-04T03:17:12Z</time><name>608</name><sym>Flag, Blue</sym></wpt><wpt lat="10.344796" lon="123.930338"><ele>37.528656</ele><time>2024-10-04T03:19:14Z</time><name>609</name><sym>Flag, Blue</sym></wpt><wpt lat="10.344876" lon="123.930520"><ele>37.376221</ele><time>2024-10-04T03:19:49Z</time><name>610</name><sym>Flag, Blue</sym></wpt><wpt lat="10.344886" lon="123.930533"><ele>37.612938</ele><time>2024-10-04T03:19:56Z</time><name>611</name><sym>Flag, Blue</sym></wpt><wpt lat="10.344717" lon="123.930808"><ele>42.294582</ele><time>2024-10-04T03:20:27Z</time><name>612</name><sym>Flag, Blue</sym></wpt><wpt lat="10.344623" lon="123.930813"><ele>40.601162</ele><time>2024-10-04T03:20:50Z</time><name>613</name><sym>Flag, Blue</sym></wpt><wpt lat="10.344469" lon="123.930874"><ele>36.371166</ele><time>2024-10-04T03:21:05Z</time><name>614</name><sym>Flag, Blue</sym></wpt><wpt lat="10.344478" lon="123.930937"><ele>35.962292</ele><time>2024-10-04T03:21:18Z</time><name>615</name><sym>Flag, Blue</sym></wpt><wpt lat="10.345053" lon="123.930878"><ele>38.507660</ele><time>2024-10-04T03:22:09Z</time><name>616</name><sym>Flag, Blue</sym></wpt><wpt lat="10.346927" lon="123.928927"><ele>31.698107</ele><time>2024-10-04T03:23:31Z</time><name>617</name><sym>Flag, Blue</sym></wpt><wpt lat="10.346960" lon="123.928946"><ele>31.028389</ele><time>2024-10-04T03:23:41Z</time><name>618</name><sym>Flag, Blue</sym></wpt><wpt lat="10.348949" lon="123.929561"><ele>32.434513</ele><time>2024-10-04T03:24:36Z</time><name>619</name><sym>Flag, Blue</sym></wpt><wpt lat="10.348962" lon="123.929561"><ele>33.496937</ele><time>2024-10-04T03:24:46Z</time><name>620</name><sym>Flag, Blue</sym></wpt><wpt lat="10.348993" lon="123.929545"><ele>34.227406</ele><time>2024-10-04T03:24:55Z</time><name>621</name><sym>Flag, Blue</sym></wpt><wpt lat="10.349049" lon="123.929514"><ele>35.760532</ele><time>2024-10-04T03:25:04Z</time><name>622</name><sym>Flag, Blue</sym></wpt><wpt lat="10.349198" lon="123.929443"><ele>38.137558</ele><time>2024-10-04T03:25:23Z</time><name>623</name><sym>Flag, Blue</sym></wpt><wpt lat="10.349827" lon="123.929266"><ele>38.749233</ele><time>2024-10-04T03:25:45Z</time><name>624</name><sym>Flag, Blue</sym></wpt><wpt lat="10.350617" lon="123.929276"><ele>36.739731</ele><time>2024-10-04T03:26:57Z</time><name>625</name><sym>Flag, Blue</sym></wpt><wpt lat="10.350662" lon="123.929272"><ele>32.296452</ele><time>2024-10-04T03:27:12Z</time><name>626</name><sym>Flag, Blue</sym></wpt><wpt lat="10.350796" lon="123.929280"><ele>31.609571</ele><time>2024-10-04T03:27:33Z</time><name>627</name><sym>Flag, Blue</sym></wpt><wpt lat="10.350829" lon="123.929283"><ele>32.417339</ele><time>2024-10-04T03:27:41Z</time><name>628</name><sym>Flag, Blue</sym></wpt><wpt lat="10.350854" lon="123.929285"><ele>32.804050</ele><time>2024-10-04T03:27:50Z</time><name>629</name><sym>Flag, Blue</sym></wpt><wpt lat="10.350871" lon="123.929292"><ele>31.238823</ele><time>2024-10-04T03:27:58Z</time><name>630</name><sym>Flag, Blue</sym></wpt><wpt lat="10.350892" lon="123.929315"><ele>31.958160</ele><time>2024-10-04T03:28:06Z</time><name>631</name><sym>Flag, Blue</sym></wpt><wpt lat="10.350910" lon="123.929344"><ele>32.113708</ele><time>2024-10-04T03:28:14Z</time><name>632</name><sym>Flag, Blue</sym></wpt><wpt lat="10.350915" lon="123.929367"><ele>32.360893</ele><time>2024-10-04T03:28:22Z</time><name>633</name><sym>Flag, Blue</sym></wpt><wpt lat="10.350989" lon="123.929602"><ele>32.959328</ele><time>2024-10-04T03:28:50Z</time><name>634</name><sym>Flag, Blue</sym></wpt><wpt lat="10.351007" lon="123.929628"><ele>36.377773</ele><time>2024-10-04T03:29:25Z</time><name>635</name><sym>Flag, Blue</sym></wpt><wpt lat="10.352250" lon="123.930317"><ele>37.718483</ele><time>2024-10-04T03:30:26Z</time><name>636</name><sym>Flag, Blue</sym></wpt><wpt lat="10.352291" lon="123.930324"><ele>37.566162</ele><time>2024-10-04T03:30:41Z</time><name>637</name><sym>Flag, Blue</sym></wpt><wpt lat="10.352647" lon="123.931300"><ele>35.166260</ele><time>2024-10-04T03:31:44Z</time><name>638</name><sym>Flag, Blue</sym></wpt><wpt lat="10.353275" lon="123.931207"><ele>32.888355</ele><time>2024-10-04T03:32:14Z</time><name>639</name><sym>Flag, Blue</sym></wpt><wpt lat="10.353306" lon="123.931227"><ele>32.741379</ele><time>2024-10-04T03:32:25Z</time><name>640</name><sym>Flag, Blue</sym></wpt><wpt lat="10.353390" lon="123.931208"><ele>30.565430</ele><time>2024-10-04T03:32:43Z</time><name>641</name><sym>Flag, Blue</sym></wpt><wpt lat="10.353392" lon="123.931201"><ele>29.548531</ele><time>2024-10-04T03:32:55Z</time><name>642</name><sym>Flag, Blue</sym></wpt><wpt lat="10.353526" lon="123.931174"><ele>26.005077</ele><time>2024-10-04T03:33:13Z</time><name>643</name><sym>Flag, Blue</sym></wpt><wpt lat="10.353699" lon="123.931180"><ele>22.595196</ele><time>2024-10-04T03:33:41Z</time><name>644</name><sym>Flag, Blue</sym></wpt><wpt lat="10.353721" lon="123.931166"><ele>21.152142</ele><time>2024-10-04T03:33:54Z</time><name>645</name><sym>Flag, Blue</sym></wpt><wpt lat="10.353744" lon="123.931136"><ele>21.707993</ele><time>2024-10-04T03:34:14Z</time><name>646</name><sym>Flag, Blue</sym></wpt><wpt lat="10.353826" lon="123.931149"><ele>22.394690</ele><time>2024-10-04T03:34:31Z</time><name>647</name><sym>Flag, Blue</sym></wpt><wpt lat="10.353842" lon="123.931159"><ele>21.043488</ele><time>2024-10-04T03:34:45Z</time><name>648</name><sym>Flag, Blue</sym></wpt><wpt lat="10.354022" lon="123.931150"><ele>23.201355</ele><time>2024-10-04T03:35:04Z</time><name>649</name><sym>Flag, Blue</sym></wpt><wpt lat="10.354019" lon="123.931154"><ele>23.956352</ele><time>2024-10-04T03:35:10Z</time><name>650</name><sym>Flag, Blue</sym></wpt><wpt lat="10.354015" lon="123.931160"><ele>24.855148</ele><time>2024-10-04T03:35:16Z</time><name>651</name><sym>Flag, Blue</sym></wpt><wpt lat="10.354103" lon="123.931113"><ele>23.060900</ele><time>2024-10-04T03:35:31Z</time><name>652</name><sym>Flag, Blue</sym></wpt><wpt lat="10.354111" lon="123.931098"><ele>24.968025</ele><time>2024-10-04T03:35:39Z</time><name>653</name><sym>Flag, Blue</sym></wpt><wpt lat="10.354133" lon="123.931101"><ele>26.540283</ele><time>2024-10-04T03:35:56Z</time><name>654</name><sym>Flag, Blue</sym></wpt><wpt lat="10.354180" lon="123.931024"><ele>26.008352</ele><time>2024-10-04T03:36:19Z</time><name>655</name><sym>Flag, Blue</sym></wpt><wpt lat="10.354211" lon="123.930825"><ele>28.211540</ele><time>2024-10-04T03:36:55Z</time><name>656</name><sym>Flag, Blue</sym></wpt><wpt lat="10.354202" lon="123.930839"><ele>26.376839</ele><time>2024-10-04T03:37:14Z</time><name>657</name><sym>Flag, Blue</sym></wpt><wpt lat="10.354208" lon="123.930808"><ele>26.213966</ele><time>2024-10-04T03:37:24Z</time><name>658</name><sym>Flag, Blue</sym></wpt><wpt lat="10.354010" lon="123.930775"><ele>30.322060</ele><time>2024-10-04T03:38:08Z</time><name>659</name><sym>Flag, Blue</sym></wpt><wpt lat="10.354015" lon="123.930742"><ele>29.598156</ele><time>2024-10-04T03:38:19Z</time><name>660</name><sym>Flag, Blue</sym></wpt><wpt lat="10.354032" lon="123.930740"><ele>29.502407</ele><time>2024-10-04T03:38:29Z</time><name>661</name><sym>Flag, Blue</sym></wpt><wpt lat="10.354041" lon="123.930734"><ele>30.142773</ele><time>2024-10-04T03:38:38Z</time><name>662</name><sym>Flag, Blue</sym></wpt><wpt lat="10.354053" lon="123.930640"><ele>28.573837</ele><time>2024-10-04T03:39:24Z</time><name>663</name><sym>Flag, Blue</sym></wpt><wpt lat="10.354046" lon="123.930793"><ele>27.027321</ele><time>2024-10-04T03:40:05Z</time><name>664</name><sym>Flag, Blue</sym></wpt><wpt lat="10.353883" lon="123.930837"><ele>25.557938</ele><time>2024-10-04T03:40:34Z</time><name>665</name><sym>Flag, Blue</sym></wpt><wpt lat="10.353846" lon="123.930842"><ele>25.656876</ele><time>2024-10-04T03:40:48Z</time><name>666</name><sym>Flag, Blue</sym></wpt><wpt lat="10.353841" lon="123.930858"><ele>26.901840</ele><time>2024-10-04T03:41:07Z</time><name>667</name><sym>Flag, Blue</sym></wpt><wpt lat="10.353811" lon="123.930862"><ele>29.145088</ele><time>2024-10-04T03:41:22Z</time><name>668</name><sym>Flag, Blue</sym></wpt><wpt lat="10.353729" lon="123.930785"><ele>23.485023</ele><time>2024-10-04T03:41:50Z</time><name>669</name><sym>Flag, Blue</sym></wpt><wpt lat="10.353280" lon="123.930794"><ele>27.056664</ele><time>2024-10-04T03:42:35Z</time><name>670</name><sym>Flag, Blue</sym></wpt><wpt lat="10.353272" lon="123.930817"><ele>31.798912</ele><time>2024-10-04T03:43:01Z</time><name>671</name><sym>Flag, Blue</sym></wpt><wpt lat="10.353231" lon="123.930845"><ele>33.463337</ele><time>2024-10-04T03:43:14Z</time><name>672</name><sym>Flag, Blue</sym></wpt><wpt lat="10.353109" lon="123.930869"><ele>33.571831</ele><time>2024-10-04T03:43:37Z</time><name>673</name><sym>Flag, Blue</sym></wpt><wpt lat="10.352939" lon="123.930829"><ele>30.053673</ele><time>2024-10-04T03:44:07Z</time><name>674</name><sym>Flag, Blue</sym></wpt><wpt lat="10.352915" lon="123.930816"><ele>29.734859</ele><time>2024-10-04T03:44:25Z</time><name>675</name><sym>Flag, Blue</sym></wpt><wpt lat="10.352885" lon="123.930818"><ele>30.671139</ele><time>2024-10-04T03:44:34Z</time><name>676</name><sym>Flag, Blue</sym></wpt><wpt lat="10.352878" lon="123.930811"><ele>31.027370</ele><time>2024-10-04T03:44:42Z</time><name>677</name><sym>Flag, Blue</sym></wpt><wpt lat="10.352835" lon="123.930861"><ele>31.420517</ele><time>2024-10-04T03:44:56Z</time><name>678</name><sym>Flag, Blue</sym></wpt><wpt lat="10.352462" lon="123.930486"><ele>37.607380</ele><time>2024-10-04T03:45:59Z</time><name>679</name><sym>Flag, Blue</sym></wpt><wpt lat="10.352469" lon="123.930504"><ele>41.014767</ele><time>2024-10-04T03:46:20Z</time><name>680</name><sym>Flag, Blue</sym></wpt><wpt lat="10.352474" lon="123.930497"><ele>41.279629</ele><time>2024-10-04T03:46:28Z</time><name>681</name><sym>Flag, Blue</sym></wpt><wpt lat="10.352466" lon="123.930413"><ele>42.793446</ele><time>2024-10-04T03:46:47Z</time><name>682</name><sym>Flag, Blue</sym></wpt><wpt lat="10.352478" lon="123.930416"><ele>42.251659</ele><time>2024-10-04T03:46:55Z</time><name>683</name><sym>Flag, Blue</sym></wpt><wpt lat="10.352474" lon="123.930418"><ele>41.652599</ele><time>2024-10-04T03:47:03Z</time><name>684</name><sym>Flag, Blue</sym></wpt><wpt lat="10.352472" lon="123.930407"><ele>40.750481</ele><time>2024-10-04T03:47:20Z</time><name>685</name><sym>Flag, Blue</sym></wpt><wpt lat="10.352472" lon="123.930397"><ele>40.220757</ele><time>2024-10-04T03:47:28Z</time><name>686</name><sym>Flag, Blue</sym></wpt><wpt lat="10.352477" lon="123.930380"><ele>40.390556</ele><time>2024-10-04T03:47:35Z</time><name>687</name><sym>Flag, Blue</sym></wpt><wpt lat="10.352476" lon="123.930370"><ele>40.062119</ele><time>2024-10-04T03:47:40Z</time><name>688</name><sym>Flag, Blue</sym></wpt><wpt lat="10.352487" lon="123.930360"><ele>39.129356</ele><time>2024-10-04T03:47:48Z</time><name>689</name><sym>Flag, Blue</sym></wpt><wpt lat="10.352494" lon="123.930358"><ele>38.657814</ele><time>2024-10-04T03:47:54Z</time><name>690</name><sym>Flag, Blue</sym></wpt><wpt lat="10.352499" lon="123.930357"><ele>37.968132</ele><time>2024-10-04T03:48:04Z</time><name>691</name><sym>Flag, Blue</sym></wpt><wpt lat="10.352508" lon="123.930358"><ele>38.012314</ele><time>2024-10-04T03:48:11Z</time><name>692</name><sym>Flag, Blue</sym></wpt><wpt lat="10.352526" lon="123.930348"><ele>39.583176</ele><time>2024-10-04T03:48:25Z</time><name>693</name><sym>Flag, Blue</sym></wpt><wpt lat="10.352533" lon="123.930349"><ele>39.627594</ele><time>2024-10-04T03:48:31Z</time><name>694</name><sym>Flag, Blue</sym></wpt><wpt lat="10.352539" lon="123.930350"><ele>38.643532</ele><time>2024-10-04T03:48:39Z</time><name>695</name><sym>Flag, Blue</sym></wpt><wpt lat="10.352633" lon="123.930275"><ele>34.846630</ele><time>2024-10-04T03:49:32Z</time><name>696</name><sym>Flag, Blue</sym></wpt><wpt lat="10.352655" lon="123.930264"><ele>36.215267</ele><time>2024-10-04T03:49:40Z</time><name>697</name><sym>Flag, Blue</sym></wpt><wpt lat="10.352646" lon="123.930288"><ele>37.170696</ele><time>2024-10-04T03:49:48Z</time><name>698</name><sym>Flag, Blue</sym></wpt><wpt lat="10.352638" lon="123.930307"><ele>37.674374</ele><time>2024-10-04T03:49:57Z</time><name>699</name><sym>Flag, Blue</sym></wpt><wpt lat="10.352654" lon="123.930297"><ele>39.015820</ele><time>2024-10-04T03:50:06Z</time><name>700</name><sym>Flag, Blue</sym></wpt><wpt lat="10.352663" lon="123.930302"><ele>36.653214</ele><time>2024-10-04T03:50:14Z</time><name>701</name><sym>Flag, Blue</sym></wpt><wpt lat="10.352669" lon="123.930302"><ele>37.173256</ele><time>2024-10-04T03:50:23Z</time><name>702</name><sym>Flag, Blue</sym></wpt><wpt lat="10.352677" lon="123.930307"><ele>38.579895</ele><time>2024-10-04T03:50:30Z</time><name>703</name><sym>Flag, Blue</sym></wpt><wpt lat="10.352676" lon="123.930310"><ele>38.604034</ele><time>2024-10-04T03:50:40Z</time><name>704</name><sym>Flag, Blue</sym></wpt><wpt lat="10.352683" lon="123.930292"><ele>38.652695</ele><time>2024-10-04T03:50:48Z</time><name>705</name><sym>Flag, Blue</sym></wpt><wpt lat="10.352692" lon="123.930291"><ele>38.190842</ele><time>2024-10-04T03:50:56Z</time><name>706</name><sym>Flag, Blue</sym></wpt><wpt lat="10.352696" lon="123.930299"><ele>41.953598</ele><time>2024-10-04T03:51:05Z</time><name>707</name><sym>Flag, Blue</sym></wpt><wpt lat="10.352704" lon="123.930296"><ele>42.364433</ele><time>2024-10-04T03:51:14Z</time><name>708</name><sym>Flag, Blue</sym></wpt><wpt lat="10.352700" lon="123.930311"><ele>42.514549</ele><time>2024-10-04T03:51:21Z</time><name>709</name><sym>Flag, Blue</sym></wpt><wpt lat="10.352704" lon="123.930325"><ele>42.701134</ele><time>2024-10-04T03:51:29Z</time><name>710</name><sym>Flag, Blue</sym></wpt><wpt lat="10.352708" lon="123.930330"><ele>42.275429</ele><time>2024-10-04T03:51:36Z</time><name>711</name><sym>Flag, Blue</sym></wpt><wpt lat="10.352713" lon="123.930328"><ele>42.687553</ele><time>2024-10-04T03:51:44Z</time><name>712</name><sym>Flag, Blue</sym></wpt><wpt lat="10.352720" lon="123.930310"><ele>43.550285</ele><time>2024-10-04T03:51:53Z</time><name>713</name><sym>Flag, Blue</sym></wpt><wpt lat="10.352730" lon="123.930330"><ele>44.597160</ele><time>2024-10-04T03:52:04Z</time><name>714</name><sym>Flag, Blue</sym></wpt><wpt lat="10.352727" lon="123.930326"><ele>44.510574</ele><time>2024-10-04T03:52:11Z</time><name>715</name><sym>Flag, Blue</sym></wpt><wpt lat="10.352747" lon="123.930335"><ele>44.879913</ele><time>2024-10-04T03:52:20Z</time><name>716</name><sym>Flag, Blue</sym></wpt><wpt lat="10.352757" lon="123.930333"><ele>44.857338</ele><time>2024-10-04T03:52:37Z</time><name>717</name><sym>Flag, Blue</sym></wpt><wpt lat="10.352761" lon="123.930331"><ele>46.632591</ele><time>2024-10-04T03:52:47Z</time><name>718</name><sym>Flag, Blue</sym></wpt><wpt lat="10.352758" lon="123.930337"><ele>46.461761</ele><time>2024-10-04T03:52:55Z</time><name>719</name><sym>Flag, Blue</sym></wpt><wpt lat="10.352767" lon="123.930343"><ele>46.401779</ele><time>2024-10-04T03:53:08Z</time><name>720</name><sym>Flag, Blue</sym></wpt><wpt lat="10.352762" lon="123.930306"><ele>46.944878</ele><time>2024-10-04T03:54:07Z</time><name>721</name><sym>Flag, Blue</sym></wpt><wpt lat="10.352769" lon="123.930317"><ele>46.694889</ele><time>2024-10-04T03:54:21Z</time><name>722</name><sym>Flag, Blue</sym></wpt><wpt lat="10.352782" lon="123.930318"><ele>46.647243</ele><time>2024-10-04T03:54:35Z</time><name>723</name><sym>Flag, Blue</sym></wpt><wpt lat="10.352807" lon="123.930333"><ele>47.407223</ele><time>2024-10-04T03:54:47Z</time><name>724</name><sym>Flag, Blue</sym></wpt><wpt lat="10.352823" lon="123.930322"><ele>47.090855</ele><time>2024-10-04T03:54:56Z</time><name>725</name><sym>Flag, Blue</sym></wpt><wpt lat="10.352849" lon="123.930348"><ele>47.751598</ele><time>2024-10-04T03:55:16Z</time><name>726</name><sym>Flag, Blue</sym></wpt><wpt lat="10.352858" lon="123.930332"><ele>47.587666</ele><time>2024-10-04T03:55:23Z</time><name>727</name><sym>Flag, Blue</sym></wpt><wpt lat="10.352855" lon="123.930325"><ele>48.310085</ele><time>2024-10-04T03:55:31Z</time><name>728</name><sym>Flag, Blue</sym></wpt><wpt lat="10.352866" lon="123.930333"><ele>50.844753</ele><time>2024-10-04T03:55:41Z</time><name>729</name><sym>Flag, Blue</sym></wpt><wpt lat="10.352883" lon="123.930315"><ele>49.557446</ele><time>2024-10-04T03:55:55Z</time><name>730</name><sym>Flag, Blue</sym></wpt><wpt lat="10.352884" lon="123.930311"><ele>49.480816</ele><time>2024-10-04T03:56:01Z</time><name>731</name><sym>Flag, Blue</sym></wpt><wpt lat="10.352884" lon="123.930309"><ele>49.405975</ele><time>2024-10-04T03:56:12Z</time><name>732</name><sym>Flag, Blue</sym></wpt><wpt lat="10.352888" lon="123.930335"><ele>49.771973</ele><time>2024-10-04T03:56:28Z</time><name>733</name><sym>Flag, Blue</sym></wpt><wpt lat="10.352889" lon="123.930334"><ele>50.682770</ele><time>2024-10-04T03:56:56Z</time><name>734</name><sym>Flag, Blue</sym></wpt><wpt lat="10.352896" lon="123.930341"><ele>50.358841</ele><time>2024-10-04T03:57:04Z</time><name>735</name><sym>Flag, Blue</sym></wpt><wpt lat="10.352904" lon="123.930324"><ele>49.618065</ele><time>2024-10-04T03:57:13Z</time><name>736</name><sym>Flag, Blue</sym></wpt><wpt lat="10.352918" lon="123.930323"><ele>49.228714</ele><time>2024-10-04T03:57:22Z</time><name>737</name><sym>Flag, Blue</sym></wpt><wpt lat="10.352931" lon="123.930318"><ele>49.275070</ele><time>2024-10-04T03:57:30Z</time><name>738</name><sym>Flag, Blue</sym></wpt><wpt lat="10.352944" lon="123.930328"><ele>49.504501</ele><time>2024-10-04T03:57:38Z</time><name>739</name><sym>Flag, Blue</sym></wpt><wpt lat="10.352946" lon="123.930322"><ele>49.442940</ele><time>2024-10-04T03:57:45Z</time><name>740</name><sym>Flag, Blue</sym></wpt><wpt lat="10.352944" lon="123.930324"><ele>49.113220</ele><time>2024-10-04T03:57:53Z</time><name>741</name><sym>Flag, Blue</sym></wpt><wpt lat="10.352953" lon="123.930319"><ele>49.104542</ele><time>2024-10-04T03:58:10Z</time><name>742</name><sym>Flag, Blue</sym></wpt><wpt lat="10.352954" lon="123.930345"><ele>48.668568</ele><time>2024-10-04T03:58:19Z</time><name>743</name><sym>Flag, Blue</sym></wpt><wpt lat="10.352963" lon="123.930342"><ele>48.456028</ele><time>2024-10-04T03:58:27Z</time><name>744</name><sym>Flag, Blue</sym></wpt><wpt lat="10.352971" lon="123.930325"><ele>48.314747</ele><time>2024-10-04T03:58:36Z</time><name>745</name><sym>Flag, Blue</sym></wpt><wpt lat="10.352971" lon="123.930325"><ele>49.148083</ele><time>2024-10-04T03:58:44Z</time><name>746</name><sym>Flag, Blue</sym></wpt><wpt lat="10.352981" lon="123.930324"><ele>49.724598</ele><time>2024-10-04T03:58:50Z</time><name>747</name><sym>Flag, Blue</sym></wpt><wpt lat="10.352992" lon="123.930340"><ele>49.752705</ele><time>2024-10-04T03:58:58Z</time><name>748</name><sym>Flag, Blue</sym></wpt><wpt lat="10.353004" lon="123.930353"><ele>49.364536</ele><time>2024-10-04T03:59:06Z</time><name>749</name><sym>Flag, Blue</sym></wpt><wpt lat="10.353015" lon="123.930351"><ele>49.047356</ele><time>2024-10-04T03:59:15Z</time><name>750</name><sym>Flag, Blue</sym></wpt><wpt lat="10.353026" lon="123.930360"><ele>49.325600</ele><time>2024-10-04T03:59:22Z</time><name>751</name><sym>Flag, Blue</sym></wpt><wpt lat="10.353041" lon="123.930351"><ele>50.061600</ele><time>2024-10-04T03:59:30Z</time><name>752</name><sym>Flag, Blue</sym></wpt><wpt lat="10.353056" lon="123.930329"><ele>50.488426</ele><time>2024-10-04T03:59:48Z</time><name>753</name><sym>Flag, Blue</sym></wpt><wpt lat="10.353049" lon="123.930333"><ele>50.112679</ele><time>2024-10-04T03:59:54Z</time><name>754</name><sym>Flag, Blue</sym></wpt><wpt lat="10.353052" lon="123.930328"><ele>49.904671</ele><time>2024-10-04T04:00:00Z</time><name>755</name><sym>Flag, Blue</sym></wpt><wpt lat="10.353060" lon="123.930331"><ele>49.681725</ele><time>2024-10-04T04:00:07Z</time><name>756</name><sym>Flag, Blue</sym></wpt><wpt lat="10.353063" lon="123.930326"><ele>49.238960</ele><time>2024-10-04T04:00:13Z</time><name>757</name><sym>Flag, Blue</sym></wpt><wpt lat="10.353059" lon="123.930322"><ele>48.859985</ele><time>2024-10-04T04:00:21Z</time><name>758</name><sym>Flag, Blue</sym></wpt><wpt lat="10.353054" lon="123.930309"><ele>49.118134</ele><time>2024-10-04T04:00:28Z</time><name>759</name><sym>Flag, Blue</sym></wpt><wpt lat="10.353051" lon="123.930302"><ele>49.785240</ele><time>2024-10-04T04:00:35Z</time><name>760</name><sym>Flag, Blue</sym></wpt><wpt lat="10.353044" lon="123.930297"><ele>50.194405</ele><time>2024-10-04T04:00:41Z</time><name>761</name><sym>Flag, Blue</sym></wpt><wpt lat="10.353050" lon="123.930284"><ele>50.603645</ele><time>2024-10-04T04:00:49Z</time><name>762</name><sym>Flag, Blue</sym></wpt><wpt lat="10.353060" lon="123.930275"><ele>50.858940</ele><time>2024-10-04T04:00:56Z</time><name>763</name><sym>Flag, Blue</sym></wpt><wpt lat="10.353086" lon="123.930255"><ele>50.506393</ele><time>2024-10-04T04:01:02Z</time><name>764</name><sym>Flag, Blue</sym></wpt><wpt lat="10.353080" lon="123.930251"><ele>51.047157</ele><time>2024-10-04T04:01:08Z</time><name>765</name><sym>Flag, Blue</sym></wpt><wpt lat="10.353067" lon="123.930249"><ele>51.852882</ele><time>2024-10-04T04:01:13Z</time><name>766</name><sym>Flag, Blue</sym></wpt><wpt lat="10.353067" lon="123.930234"><ele>52.823769</ele><time>2024-10-04T04:01:21Z</time><name>767</name><sym>Flag, Blue</sym></wpt><wpt lat="10.353057" lon="123.930222"><ele>53.545380</ele><time>2024-10-04T04:01:27Z</time><name>768</name><sym>Flag, Blue</sym></wpt><wpt lat="10.349619" lon="123.929369"><time>2024-10-04T05:07:47Z</time><name>769</name><sym>Flag, Blue</sym></wpt><wpt lat="10.351202" lon="123.929717"><ele>46.518383</ele><time>2024-10-04T05:08:11Z</time><name>770</name><sym>Flag, Blue</sym></wpt><wpt lat="10.351354" lon="123.929769"><ele>43.568779</ele><time>2024-10-04T05:08:36Z</time><name>771</name><sym>Flag, Blue</sym></wpt><wpt lat="10.352641" lon="123.929886"><ele>50.641457</ele><time>2024-10-04T05:09:35Z</time><name>772</name><sym>Flag, Blue</sym></wpt><wpt lat="10.352751" lon="123.929819"><ele>61.799461</ele><time>2024-10-04T05:11:19Z</time><name>773</name><sym>Flag, Blue</sym></wpt><wpt lat="10.352790" lon="123.929829"><ele>63.554375</ele><time>2024-10-04T05:11:38Z</time><name>774</name><sym>Flag, Blue</sym></wpt><wpt lat="10.352898" lon="123.929836"><ele>68.305847</ele><time>2024-10-04T05:12:16Z</time><name>775</name><sym>Flag, Blue</sym></wpt><wpt lat="10.352924" lon="123.929861"><ele>66.955933</ele><time>2024-10-04T05:12:30Z</time><name>776</name><sym>Flag, Blue</sym></wpt><wpt lat="10.352983" lon="123.929871"><ele>61.891891</ele><time>2024-10-04T05:12:40Z</time><name>777</name><sym>Flag, Blue</sym></wpt><wpt lat="10.352998" lon="123.929880"><ele>58.227806</ele><time>2024-10-04T05:12:52Z</time><name>778</name><sym>Flag, Blue</sym></wpt><wpt lat="10.353023" lon="123.929892"><ele>53.322868</ele><time>2024-10-04T05:13:15Z</time><name>779</name><sym>Flag, Blue</sym></wpt><wpt lat="10.353050" lon="123.929917"><ele>49.459145</ele><time>2024-10-04T05:13:36Z</time><name>780</name><sym>Flag, Blue</sym></wpt><wpt lat="10.353050" lon="123.929924"><ele>47.691689</ele><time>2024-10-04T05:13:46Z</time><name>781</name><sym>Flag, Blue</sym></wpt><wpt lat="10.353056" lon="123.929938"><ele>47.258240</ele><time>2024-10-04T05:13:55Z</time><name>782</name><sym>Flag, Blue</sym></wpt><wpt lat="10.353064" lon="123.929961"><ele>47.019928</ele><time>2024-10-04T05:14:02Z</time><name>783</name><sym>Flag, Blue</sym></wpt><wpt lat="10.353054" lon="123.929969"><ele>44.817917</ele><time>2024-10-04T05:14:15Z</time><name>784</name><sym>Flag, Blue</sym></wpt><wpt lat="10.353071" lon="123.929968"><ele>43.688957</ele><time>2024-10-04T05:14:24Z</time><name>785</name><sym>Flag, Blue</sym></wpt><wpt lat="10.353074" lon="123.929977"><ele>43.344666</ele><time>2024-10-04T05:14:29Z</time><name>786</name><sym>Flag, Blue</sym></wpt><wpt lat="10.353089" lon="123.930006"><ele>43.632568</ele><time>2024-10-04T05:14:38Z</time><name>787</name><sym>Flag, Blue</sym></wpt><wpt lat="10.353100" lon="123.930018"><ele>43.155998</ele><time>2024-10-04T05:14:45Z</time><name>788</name><sym>Flag, Blue</sym></wpt><wpt lat="10.353083" lon="123.930020"><ele>44.041443</ele><time>2024-10-04T05:14:54Z</time><name>789</name><sym>Flag, Blue</sym></wpt><wpt lat="10.353079" lon="123.930040"><ele>44.376884</ele><time>2024-10-04T05:15:02Z</time><name>790</name><sym>Flag, Blue</sym></wpt><wpt lat="10.353080" lon="123.930047"><ele>44.798203</ele><time>2024-10-04T05:15:10Z</time><name>791</name><sym>Flag, Blue</sym></wpt><wpt lat="10.353078" lon="123.930054"><ele>45.722878</ele><time>2024-10-04T05:15:17Z</time><name>792</name><sym>Flag, Blue</sym></wpt><wpt lat="10.353085" lon="123.930069"><ele>45.192429</ele><time>2024-10-04T05:15:28Z</time><name>793</name><sym>Flag, Blue</sym></wpt><wpt lat="10.353079" lon="123.930072"><ele>44.980675</ele><time>2024-10-04T05:15:36Z</time><name>794</name><sym>Flag, Blue</sym></wpt><wpt lat="10.353075" lon="123.930075"><ele>45.751556</ele><time>2024-10-04T05:15:48Z</time><name>795</name><sym>Flag, Blue</sym></wpt><wpt lat="10.353068" lon="123.930081"><ele>45.087982</ele><time>2024-10-04T05:15:55Z</time><name>796</name><sym>Flag, Blue</sym></wpt><wpt lat="10.353075" lon="123.930102"><ele>43.724022</ele><time>2024-10-04T05:16:06Z</time><name>797</name><sym>Flag, Blue</sym></wpt><wpt lat="10.353065" lon="123.930101"><ele>43.978546</ele><time>2024-10-04T05:16:14Z</time><name>798</name><sym>Flag, Blue</sym></wpt><wpt lat="10.353077" lon="123.930117"><ele>44.993073</ele><time>2024-10-04T05:16:21Z</time><name>799</name><sym>Flag, Blue</sym></wpt><wpt lat="10.353077" lon="123.930127"><ele>45.346493</ele><time>2024-10-04T05:16:27Z</time><name>800</name><sym>Flag, Blue</sym></wpt><wpt lat="10.353076" lon="123.930138"><ele>46.069530</ele><time>2024-10-04T05:16:34Z</time><name>801</name><sym>Flag, Blue</sym></wpt><wpt lat="10.353068" lon="123.930144"><ele>45.925732</ele><time>2024-10-04T05:16:40Z</time><name>802</name><sym>Flag, Blue</sym></wpt><wpt lat="10.353071" lon="123.930157"><ele>45.331882</ele><time>2024-10-04T05:16:51Z</time><name>803</name><sym>Flag, Blue</sym></wpt><wpt lat="10.353006" lon="123.929885"><ele>38.829468</ele><time>2024-10-04T05:17:51Z</time><name>804</name><sym>Flag, Blue</sym></wpt><wpt lat="10.352991" lon="123.929895"><ele>38.402718</ele><time>2024-10-04T05:18:00Z</time><name>805</name><sym>Flag, Blue</sym></wpt><wpt lat="10.353194" lon="123.930343"><ele>42.616833</ele><time>2024-10-04T05:19:16Z</time><name>806</name><sym>Flag, Blue</sym></wpt><wpt lat="10.353236" lon="123.930357"><ele>43.043251</ele><time>2024-10-04T05:19:40Z</time><name>807</name><sym>Flag, Blue</sym></wpt><wpt lat="10.353439" lon="123.930379"><ele>42.380039</ele><time>2024-10-04T05:20:12Z</time><name>808</name><sym>Flag, Blue</sym></wpt><wpt lat="10.353520" lon="123.930394"><ele>39.386116</ele><time>2024-10-04T05:20:30Z</time><name>809</name><sym>Flag, Blue</sym></wpt><wpt lat="10.353533" lon="123.930398"><ele>39.128075</ele><time>2024-10-04T05:20:38Z</time><name>810</name><sym>Flag, Blue</sym></wpt><wpt lat="10.353550" lon="123.930387"><ele>39.318542</ele><time>2024-10-04T05:20:48Z</time><name>811</name><sym>Flag, Blue</sym></wpt><wpt lat="10.353550" lon="123.930390"><ele>39.561367</ele><time>2024-10-04T05:21:03Z</time><name>812</name><sym>Flag, Blue</sym></wpt><wpt lat="10.353611" lon="123.930374"><ele>40.002373</ele><time>2024-10-04T05:21:18Z</time><name>813</name><sym>Flag, Blue</sym></wpt><wpt lat="10.353625" lon="123.930371"><ele>37.939262</ele><time>2024-10-04T05:21:28Z</time><name>814</name><sym>Flag, Blue</sym></wpt><wpt lat="10.353636" lon="123.930367"><ele>37.994995</ele><time>2024-10-04T05:21:45Z</time><name>815</name><sym>Flag, Blue</sym></wpt><wpt lat="10.353812" lon="123.930233"><ele>39.292587</ele><time>2024-10-04T05:28:53Z</time><name>816</name><sym>Flag, Blue</sym></wpt><wpt lat="10.353871" lon="123.930220"><ele>37.701424</ele><time>2024-10-04T05:29:06Z</time><name>817</name><sym>Flag, Blue</sym></wpt><wpt lat="10.353936" lon="123.930199"><ele>37.316143</ele><time>2024-10-04T05:29:22Z</time><name>818</name><sym>Flag, Blue</sym></wpt><wpt lat="10.353662" lon="123.930394"><ele>37.163960</ele><time>2024-10-04T05:31:02Z</time><name>819</name><sym>Flag, Blue</sym></wpt><wpt lat="10.353694" lon="123.930391"><ele>37.278538</ele><time>2024-10-04T05:33:50Z</time><name>820</name><sym>Flag, Blue</sym></wpt><wpt lat="10.352927" lon="123.929571"><ele>44.132046</ele><time>2024-10-04T05:36:15Z</time><name>821</name><sym>Flag, Blue</sym></wpt><wpt lat="10.352855" lon="123.929521"><ele>41.491261</ele><time>2024-10-04T05:36:45Z</time><name>822</name><sym>Flag, Blue</sym></wpt><wpt lat="10.352856" lon="123.929526"><ele>40.768162</ele><time>2024-10-04T05:36:51Z</time><name>823</name><sym>Flag, Blue</sym></wpt><wpt lat="10.352788" lon="123.929433"><ele>40.561481</ele><time>2024-10-04T05:37:10Z</time><name>824</name><sym>Flag, Blue</sym></wpt><wpt lat="10.352333" lon="123.929096"><ele>49.019604</ele><time>2024-10-04T05:37:58Z</time><name>825</name><sym>Flag, Blue</sym></wpt><wpt lat="10.352283" lon="123.929071"><ele>44.514767</ele><time>2024-10-04T05:38:06Z</time><name>826</name><sym>Flag, Blue</sym></wpt><wpt lat="10.352288" lon="123.929062"><ele>43.756245</ele><time>2024-10-04T05:38:14Z</time><name>827</name><sym>Flag, Blue</sym></wpt><wpt lat="10.352285" lon="123.929052"><ele>42.584499</ele><time>2024-10-04T05:38:23Z</time><name>828</name><sym>Flag, Blue</sym></wpt><wpt lat="10.352350" lon="123.928909"><ele>39.399586</ele><time>2024-10-04T05:38:38Z</time><name>829</name><sym>Flag, Blue</sym></wpt><wpt lat="10.352365" lon="123.928897"><ele>37.046577</ele><time>2024-10-04T05:38:46Z</time><name>830</name><sym>Flag, Blue</sym></wpt><wpt lat="10.352404" lon="123.928878"><ele>37.121124</ele><time>2024-10-04T05:39:12Z</time><name>831</name><sym>Flag, Blue</sym></wpt><wpt lat="10.352399" lon="123.928862"><ele>36.615650</ele><time>2024-10-04T05:39:26Z</time><name>832</name><sym>Flag, Blue</sym></wpt><wpt lat="10.352409" lon="123.928866"><ele>36.869526</ele><time>2024-10-04T05:39:33Z</time><name>833</name><sym>Flag, Blue</sym></wpt><wpt lat="10.352415" lon="123.928864"><ele>37.544102</ele><time>2024-10-04T05:39:43Z</time><name>834</name><sym>Flag, Blue</sym></wpt><wpt lat="10.352427" lon="123.928865"><ele>38.905079</ele><time>2024-10-04T05:39:50Z</time><name>835</name><sym>Flag, Blue</sym></wpt><wpt lat="10.352441" lon="123.928875"><ele>39.368565</ele><time>2024-10-04T05:39:58Z</time><name>836</name><sym>Flag, Blue</sym></wpt><wpt lat="10.352455" lon="123.928880"><ele>40.037205</ele><time>2024-10-04T05:40:06Z</time><name>837</name><sym>Flag, Blue</sym></wpt><wpt lat="10.352470" lon="123.928884"><ele>38.885014</ele><time>2024-10-04T05:40:19Z</time><name>838</name><sym>Flag, Blue</sym></wpt><wpt lat="10.352472" lon="123.928884"><ele>39.146641</ele><time>2024-10-04T05:40:29Z</time><name>839</name><sym>Flag, Blue</sym></wpt><wpt lat="10.352478" lon="123.928885"><ele>39.655018</ele><time>2024-10-04T05:40:43Z</time><name>840</name><sym>Flag, Blue</sym></wpt><wpt lat="10.352512" lon="123.928877"><ele>42.704548</ele><time>2024-10-04T05:41:03Z</time><name>841</name><sym>Flag, Blue</sym></wpt><wpt lat="10.352517" lon="123.928882"><ele>45.166527</ele><time>2024-10-04T05:41:27Z</time><name>842</name><sym>Flag, Blue</sym></wpt><wpt lat="10.352531" lon="123.928885"><ele>46.366058</ele><time>2024-10-04T05:41:35Z</time><name>843</name><sym>Flag, Blue</sym></wpt><wpt lat="10.352557" lon="123.928899"><ele>47.120255</ele><time>2024-10-04T05:41:42Z</time><name>844</name><sym>Flag, Blue</sym></wpt><wpt lat="10.352581" lon="123.928899"><ele>47.053223</ele><time>2024-10-04T05:41:54Z</time><name>845</name><sym>Flag, Blue</sym></wpt><wpt lat="10.352590" lon="123.928896"><ele>47.361748</ele><time>2024-10-04T05:42:04Z</time><name>846</name><sym>Flag, Blue</sym></wpt><wpt lat="10.352588" lon="123.928900"><ele>46.010582</ele><time>2024-10-04T05:42:13Z</time><name>847</name><sym>Flag, Blue</sym></wpt><wpt lat="10.352727" lon="123.928958"><ele>42.055798</ele><time>2024-10-04T05:42:51Z</time><name>848</name><sym>Flag, Blue</sym></wpt><wpt lat="10.352682" lon="123.928951"><ele>40.287365</ele><time>2024-10-04T05:43:18Z</time><name>849</name><sym>Flag, Blue</sym></wpt><wpt lat="10.352439" lon="123.928835"><ele>25.466106</ele><time>2024-10-04T05:44:00Z</time><name>850</name><sym>Flag, Blue</sym></wpt><wpt lat="10.352391" lon="123.928834"><ele>25.880322</ele><time>2024-10-04T05:44:19Z</time><name>851</name><sym>Flag, Blue</sym></wpt><wpt lat="10.352320" lon="123.928848"><ele>29.372211</ele><time>2024-10-04T05:44:27Z</time><name>852</name><sym>Flag, Blue</sym></wpt><wpt lat="10.352304" lon="123.928878"><ele>33.614971</ele><time>2024-10-04T05:44:47Z</time><name>853</name><sym>Flag, Blue</sym></wpt><wpt lat="10.352301" lon="123.928884"><ele>33.987347</ele><time>2024-10-04T05:44:58Z</time><name>854</name><sym>Flag, Blue</sym></wpt><wpt lat="10.352296" lon="123.928896"><ele>34.697254</ele><time>2024-10-04T05:45:09Z</time><name>855</name><sym>Flag, Blue</sym></wpt><wpt lat="10.352290" lon="123.928898"><ele>33.612606</ele><time>2024-10-04T05:45:21Z</time><name>856</name><sym>Flag, Blue</sym></wpt><wpt lat="10.352127" lon="123.929389"><ele>38.101234</ele><time>2024-10-04T05:46:10Z</time><name>857</name><sym>Flag, Blue</sym></wpt><wpt lat="10.352147" lon="123.929385"><ele>40.648338</ele><time>2024-10-04T05:46:19Z</time><name>858</name><sym>Flag, Blue</sym></wpt><wpt lat="10.352128" lon="123.929387"><ele>39.691841</ele><time>2024-10-04T05:46:30Z</time><name>859</name><sym>Flag, Blue</sym></wpt><wpt lat="10.352100" lon="123.929396"><ele>38.862686</ele><time>2024-10-04T05:46:42Z</time><name>860</name><sym>Flag, Blue</sym></wpt><wpt lat="10.352072" lon="123.929395"><ele>37.649757</ele><time>2024-10-04T05:46:56Z</time><name>861</name><sym>Flag, Blue</sym></wpt><wpt lat="10.352063" lon="123.929383"><ele>39.595039</ele><time>2024-10-04T05:47:11Z</time><name>862</name><sym>Flag, Blue</sym></wpt><wpt lat="10.352012" lon="123.929383"><ele>38.742149</ele><time>2024-10-04T05:47:36Z</time><name>863</name><sym>Flag, Blue</sym></wpt><wpt lat="10.352029" lon="123.929392"><ele>38.335175</ele><time>2024-10-04T05:47:45Z</time><name>864</name><sym>Flag, Blue</sym></wpt><wpt lat="10.352029" lon="123.929384"><ele>38.831741</ele><time>2024-10-04T05:47:58Z</time><name>865</name><sym>Flag, Blue</sym></wpt><wpt lat="10.352010" lon="123.929376"><ele>40.688110</ele><time>2024-10-04T05:48:08Z</time><name>866</name><sym>Flag, Blue</sym></wpt><wpt lat="10.351998" lon="123.929362"><ele>41.591156</ele><time>2024-10-04T05:48:15Z</time><name>867</name><sym>Flag, Blue</sym></wpt><wpt lat="10.351980" lon="123.929347"><ele>40.555801</ele><time>2024-10-04T05:48:24Z</time><name>868</name><sym>Flag, Blue</sym></wpt><wpt lat="10.351457" lon="123.929321"><ele>39.081684</ele><time>2024-10-04T05:48:52Z</time><name>869</name><sym>Flag, Blue</sym></wpt><wpt lat="10.351252" lon="123.929243"><ele>37.959805</ele><time>2024-10-04T05:49:17Z</time><name>870</name><sym>Flag, Blue</sym></wpt><wpt lat="10.350539" lon="123.929213"><ele>35.930214</ele><time>2024-10-04T05:49:50Z</time><name>871</name><sym>Flag, Blue</sym></wpt><wpt lat="10.350525" lon="123.929226"><ele>38.099327</ele><time>2024-10-04T05:50:10Z</time><name>872</name><sym>Flag, Blue</sym></wpt><wpt lat="10.350479" lon="123.929229"><ele>38.467232</ele><time>2024-10-04T05:50:20Z</time><name>873</name><sym>Flag, Blue</sym></wpt><wpt lat="10.349641" lon="123.929326"><ele>39.402985</ele><time>2024-10-04T05:51:00Z</time><name>874</name><sym>Flag, Blue</sym></wpt><wpt lat="10.349638" lon="123.929338"><ele>40.769341</ele><time>2024-10-04T05:51:15Z</time><name>875</name><sym>Flag, Blue</sym></wpt><wpt lat="10.349622" lon="123.929338"><ele>41.155174</ele><time>2024-10-04T05:51:36Z</time><name>876</name><sym>Flag, Blue</sym></wpt><wpt lat="10.349563" lon="123.929337"><ele>44.064537</ele><time>2024-10-04T05:51:56Z</time><name>877</name><sym>Flag, Blue</sym></wpt><wpt lat="10.349535" lon="123.929347"><ele>45.861656</ele><time>2024-10-04T05:52:09Z</time><name>878</name><sym>Flag, Blue</sym></wpt><wpt lat="10.349274" lon="123.929408"><ele>44.987881</ele><time>2024-10-04T05:52:32Z</time><name>879</name><sym>Flag, Blue</sym></wpt><wpt lat="10.349159" lon="123.929423"><ele>45.359291</ele><time>2024-10-04T05:52:47Z</time><name>880</name><sym>Flag, Blue</sym></wpt><wpt lat="10.349119" lon="123.929431"><ele>45.689610</ele><time>2024-10-04T05:53:03Z</time><name>881</name><sym>Flag, Blue</sym></wpt><wpt lat="10.349106" lon="123.929452"><ele>43.226269</ele><time>2024-10-04T05:53:14Z</time><name>882</name><sym>Flag, Blue</sym></wpt><wpt lat="10.348959" lon="123.929490"><ele>43.395817</ele><time>2024-10-04T05:53:34Z</time><name>883</name><sym>Flag, Blue</sym></wpt><wpt lat="10.348970" lon="123.929499"><ele>41.305775</ele><time>2024-10-04T05:53:46Z</time><name>884</name><sym>Flag, Blue</sym></wpt><wpt lat="10.348808" lon="123.929510"><ele>39.410046</ele><time>2024-10-04T05:54:05Z</time><name>885</name><sym>Flag, Blue</sym></wpt><wpt lat="10.348771" lon="123.929499"><ele>40.195778</ele><time>2024-10-04T05:54:20Z</time><name>886</name><sym>Flag, Blue</sym></wpt><wpt lat="10.348544" lon="123.929512"><ele>35.410221</ele><time>2024-10-04T05:54:46Z</time><name>887</name><sym>Flag, Blue</sym></wpt><wpt lat="10.348264" lon="123.929518"><ele>36.054661</ele><time>2024-10-04T05:55:14Z</time><name>888</name><sym>Flag, Blue</sym></wpt><wpt lat="10.348234" lon="123.929524"><ele>37.451015</ele><time>2024-10-04T05:55:27Z</time><name>889</name><sym>Flag, Blue</sym></wpt><wpt lat="10.348214" lon="123.929521"><ele>37.062771</ele><time>2024-10-04T05:55:41Z</time><name>890</name><sym>Flag, Blue</sym></wpt><wpt lat="10.348080" lon="123.929533"><ele>38.103374</ele><time>2024-10-04T05:56:01Z</time><name>891</name><sym>Flag, Blue</sym></wpt><wpt lat="10.348040" lon="123.929542"><ele>33.825024</ele><time>2024-10-04T05:56:12Z</time><name>892</name><sym>Flag, Blue</sym></wpt><wpt lat="10.348029" lon="123.929540"><ele>32.702923</ele><time>2024-10-04T05:56:21Z</time><name>893</name><sym>Flag, Blue</sym></wpt><wpt lat="10.348021" lon="123.929546"><ele>32.299614</ele><time>2024-10-04T05:56:29Z</time><name>894</name><sym>Flag, Blue</sym></wpt><wpt lat="10.347056" lon="123.928943"><ele>36.529564</ele><time>2024-10-04T05:57:25Z</time><name>895</name><sym>Flag, Blue</sym></wpt></gpx>