<?xml version="1.0" encoding="UTF-8" standalone="no" ?><gpx xmlns="http://www.topografix.com/GPX/1/1" xmlns:gpxx="http://www.garmin.com/xmlschemas/GpxExtensions/v3" xmlns:wptx1="http://www.garmin.com/xmlschemas/WaypointExtension/v1" xmlns:gpxtpx="http://www.garmin.com/xmlschemas/TrackPointExtension/v1" creator="eTrex 22x" version="1.1" xmlns:xsi="http://www.w3.org/2001/XMLSchema-instance" xsi:schemaLocation="http://www.topografix.com/GPX/1/1 http://www.topografix.com/GPX/1/1/gpx.xsd http://www.garmin.com/xmlschemas/GpxExtensions/v3 http://www8.garmin.com/xmlschemas/GpxExtensionsv3.xsd http://www.garmin.com/xmlschemas/TrackStatsExtension/v1 http://www8.garmin.com/xmlschemas/TrackStatsExtension.xsd http://www.garmin.com/xmlschemas/WaypointExtension/v1 http://www8.garmin.com/xmlschemas/WaypointExtensionv1.xsd http://www.garmin.com/xmlschemas/TrackPointExtension/v1 http://www.garmin.com/xmlschemas/TrackPointExtensionv1.xsd"><metadata><link href="http://www.garmin.com"><text>Garmin International</text></link><time>2024-10-08T02:13:18Z</time></metadata><wpt lat="10.338988" lon="123.944699"><ele>21.800163</ele><time>2024-10-08T02:13:18Z</time><name>1108</name><sym>Flag, Blue</sym></wpt><wpt lat="10.338889" lon="123.944668"><ele>23.403252</ele><time>2024-10-08T02:14:06Z</time><name>1109</name><sym>Flag, Blue</sym></wpt><wpt lat="10.338896" lon="123.944656"><ele>23.457184</ele><time>2024-10-08T02:14:20Z</time><name>1110</name><sym>Flag, Blue</sym></wpt><wpt lat="10.338965" lon="123.944678"><ele>22.367298</ele><time>2024-10-08T02:15:03Z</time><name>1111</name><sym>Flag, Blue</sym></wpt><wpt lat="10.338977" lon="123.944733"><ele>22.967030</ele><time>2024-10-08T02:15:29Z</time><name>1112</name><sym>Flag, Blue</sym></wpt><wpt lat="10.338991" lon="123.944793"><ele>24.029480</ele><time>2024-10-08T02:15:54Z</time><name>1113</name><sym>Flag, Blue</sym></wpt><wpt lat="10.339106" lon="123.944856"><ele>20.495796</ele><time>2024-10-08T02:16:21Z</time><name>1114</name><sym>Flag, Blue</sym></wpt><wpt lat="10.339136" lon="123.944838"><ele>18.205460</ele><time>2024-10-08T02:16:43Z</time><name>1115</name><sym>Flag, Blue</sym></wpt><wpt lat="10.339166" lon="123.944886"><time>2024-10-08T02:30:51Z</time><name>1116</name><sym>Flag, Blue</sym></wpt><wpt lat="10.339168" lon="123.945043"><ele>15.964027</ele><time>2024-10-08T02:31:06Z</time><name>1117</name><sym>Flag, Blue</sym></wpt><wpt lat="10.339378" lon="123.945141"><ele>17.979942</ele><time>2024-10-08T02:31:58Z</time><name>1118</name><sym>Flag, Blue</sym></wpt><wpt lat="10.339387" lon="123.945166"><ele>16.472954</ele><time>2024-10-08T02:32:20Z</time><name>1119</name><sym>Flag, Blue</sym></wpt><wpt lat="10.339390" lon="123.945201"><ele>15.772388</ele><time>2024-10-08T02:33:11Z</time><name>1120</name><sym>Flag, Blue</sym></wpt><wpt lat="10.339391" lon="123.945184"><ele>16.641224</ele><time>2024-10-08T02:33:22Z</time><name>1121</name><sym>Flag, Blue</sym></wpt><wpt lat="10.339290" lon="123.945179"><ele>17.072292</ele><time>2024-10-08T02:34:10Z</time><name>1122</name><sym>Flag, Blue</sym></wpt><wpt lat="10.339322" lon="123.945212"><ele>15.869549</ele><time>2024-10-08T02:34:37Z</time><name>1123</name><sym>Flag, Blue</sym></wpt><wpt lat="10.339327" lon="123.945176"><ele>18.894436</ele><time>2024-10-08T02:35:03Z</time><name>1124</name><sym>Flag, Blue</sym></wpt><wpt lat="10.339378" lon="123.945245"><ele>20.494411</ele><time>2024-10-08T02:35:29Z</time><name>1125</name><sym>Flag, Blue</sym></wpt><wpt lat="10.339425" lon="123.945262"><ele>23.314205</ele><time>2024-10-08T02:35:49Z</time><name>1126</name><sym>Flag, Blue</sym></wpt><wpt lat="10.339467" lon="123.945249"><ele>25.416206</ele><time>2024-10-08T02:36:35Z</time><name>1127</name><sym>Flag, Blue</sym></wpt><wpt lat="10.339450" lon="123.945257"><ele>25.341881</ele><time>2024-10-08T02:36:59Z</time><name>1128</name><sym>Flag, Blue</sym></wpt><wpt lat="10.339479" lon="123.945226"><ele>23.740341</ele><time>2024-10-08T02:37:29Z</time><name>1129</name><sym>Flag, Blue</sym></wpt><wpt lat="10.339518" lon="123.945124"><ele>21.117065</ele><time>2024-10-08T02:38:03Z</time><name>1130</name><sym>Flag, Blue</sym></wpt><wpt lat="10.339572" lon="123.945012"><ele>22.539757</ele><time>2024-10-08T02:38:29Z</time><name>1131</name><sym>Flag, Blue</sym></wpt><wpt lat="10.339586" lon="123.944992"><ele>24.068157</ele><time>2024-10-08T02:38:41Z</time><name>1132</name><sym>Flag, Blue</sym></wpt><wpt lat="10.339450" lon="123.944997"><ele>23.231190</ele><time>2024-10-08T02:39:18Z</time><name>1133</name><sym>Flag, Blue</sym></wpt><wpt lat="10.339554" lon="123.945288"><ele>18.602226</ele><time>2024-10-08T02:40:27Z</time><name>1134</name><sym>Flag, Blue</sym></wpt><wpt lat="10.339491" lon="123.945261"><ele>19.646523</ele><time>2024-10-08T02:41:09Z</time><name>1135</name><sym>Flag, Blue</sym></wpt><wpt lat="10.339500" lon="123.945287"><ele>21.857468</ele><time>2024-10-08T02:41:28Z</time><name>1136</name><sym>Flag, Blue</sym></wpt><wpt lat="10.339498" lon="123.945288"><ele>22.397507</ele><time>2024-10-08T02:41:41Z</time><name>1137</name><sym>Flag, Blue</sym></wpt><wpt lat="10.339549" lon="123.945325"><ele>21.295624</ele><time>2024-10-08T02:42:08Z</time><name>1138</name><sym>Flag, Blue</sym></wpt><wpt lat="10.339594" lon="123.945330"><ele>21.226906</ele><time>2024-10-08T02:42:25Z</time><name>1139</name><sym>Flag, Blue</sym></wpt><wpt lat="10.339614" lon="123.945319"><ele>20.921169</ele><time>2024-10-08T02:42:38Z</time><name>1140</name><sym>Flag, Blue</sym></wpt><wpt lat="10.339700" lon="123.945358"><ele>21.044819</ele><time>2024-10-08T02:43:00Z</time><name>1141</name><sym>Flag, Blue</sym></wpt><wpt lat="10.339582" lon="123.945383"><ele>27.027420</ele><time>2024-10-08T02:43:36Z</time><name>1142</name><sym>Flag, Blue</sym></wpt><wpt lat="10.339602" lon="123.945401"><ele>28.260651</ele><time>2024-10-08T02:43:50Z</time><name>1143</name><sym>Flag, Blue</sym></wpt><wpt lat="10.339539" lon="123.945366"><ele>28.113770</ele><time>2024-10-08T02:44:10Z</time><name>1144</name><sym>Flag, Blue</sym></wpt><wpt lat="10.339465" lon="123.945360"><ele>28.309013</ele><time>2024-10-08T02:44:32Z</time><name>1145</name><sym>Flag, Blue</sym></wpt><wpt lat="10.339380" lon="123.945313"><ele>26.507118</ele><time>2024-10-08T02:45:01Z</time><name>1146</name><sym>Flag, Blue</sym></wpt><wpt lat="10.339342" lon="123.945299"><ele>26.084480</ele><time>2024-10-08T02:45:17Z</time><name>1147</name><sym>Flag, Blue</sym></wpt><wpt lat="10.339286" lon="123.945286"><ele>25.155163</ele><time>2024-10-08T02:45:45Z</time><name>1148</name><sym>Flag, Blue</sym></wpt><wpt lat="10.339281" lon="123.945277"><ele>26.096279</ele><time>2024-10-08T02:45:57Z</time><name>1149</name><sym>Flag, Blue</sym></wpt><wpt lat="10.339273" lon="123.945271"><ele>25.803204</ele><time>2024-10-08T02:46:13Z</time><name>1150</name><sym>Flag, Blue</sym></wpt><wpt lat="10.339250" lon="123.945282"><ele>25.024799</ele><time>2024-10-08T02:46:26Z</time><name>1151</name><sym>Flag, Blue</sym></wpt><wpt lat="10.339246" lon="123.945303"><ele>24.989838</ele><time>2024-10-08T02:46:40Z</time><name>1152</name><sym>Flag, Blue</sym></wpt><wpt lat="10.339267" lon="123.945313"><ele>25.342155</ele><time>2024-10-08T02:46:53Z</time><name>1153</name><sym>Flag, Blue</sym></wpt><wpt lat="10.339249" lon="123.945305"><ele>25.962730</ele><time>2024-10-08T02:47:07Z</time><name>1154</name><sym>Flag, Blue</sym></wpt><wpt lat="10.339238" lon="123.945280"><ele>28.128563</ele><time>2024-10-08T02:47:20Z</time><name>1155</name><sym>Flag, Blue</sym></wpt><wpt lat="10.339253" lon="123.945267"><ele>30.713921</ele><time>2024-10-08T02:47:31Z</time><name>1156</name><sym>Flag, Blue</sym></wpt><wpt lat="10.339184" lon="123.945257"><ele>33.028065</ele><time>2024-10-08T02:47:57Z</time><name>1157</name><sym>Flag, Blue</sym></wpt><wpt lat="10.339171" lon="123.945271"><ele>32.615849</ele><time>2024-10-08T02:48:09Z</time><name>1158</name><sym>Flag, Blue</sym></wpt><wpt lat="10.339167" lon="123.945285"><ele>32.809887</ele><time>2024-10-08T02:48:22Z</time><name>1159</name><sym>Flag, Blue</sym></wpt><wpt lat="10.339179" lon="123.945279"><ele>33.739906</ele><time>2024-10-08T02:48:43Z</time><name>1160</name><sym>Flag, Blue</sym></wpt><wpt lat="10.339176" lon="123.945271"><ele>31.959267</ele><time>2024-10-08T02:48:53Z</time><name>1161</name><sym>Flag, Blue</sym></wpt><wpt lat="10.339171" lon="123.945268"><ele>30.999306</ele><time>2024-10-08T02:49:02Z</time><name>1162</name><sym>Flag, Blue</sym></wpt><wpt lat="10.339145" lon="123.945241"><ele>32.858345</ele><time>2024-10-08T02:49:14Z</time><name>1163</name><sym>Flag, Blue</sym></wpt><wpt lat="10.339156" lon="123.945236"><ele>31.639259</ele><time>2024-10-08T02:49:23Z</time><name>1164</name><sym>Flag, Blue</sym></wpt><wpt lat="10.339127" lon="123.945214"><ele>29.581215</ele><time>2024-10-08T02:49:40Z</time><name>1165</name><sym>Flag, Blue</sym></wpt><wpt lat="10.339133" lon="123.945187"><ele>27.549728</ele><time>2024-10-08T02:49:58Z</time><name>1166</name><sym>Flag, Blue</sym></wpt><wpt lat="10.339110" lon="123.945168"><ele>24.796417</ele><time>2024-10-08T02:50:13Z</time><name>1167</name><sym>Flag, Blue</sym></wpt><wpt lat="10.339076" lon="123.945137"><ele>23.853668</ele><time>2024-10-08T02:50:32Z</time><name>1168</name><sym>Flag, Blue</sym></wpt><wpt lat="10.339102" lon="123.945108"><ele>22.384384</ele><time>2024-10-08T02:50:57Z</time><name>1169</name><sym>Flag, Blue</sym></wpt><wpt lat="10.339089" lon="123.945115"><ele>22.426025</ele><time>2024-10-08T02:51:12Z</time><name>1170</name><sym>Flag, Blue</sym></wpt><wpt lat="10.339068" lon="123.945119"><ele>22.638054</ele><time>2024-10-08T02:51:28Z</time><name>1171</name><sym>Flag, Blue</sym></wpt><wpt lat="10.339074" lon="123.945121"><ele>23.064117</ele><time>2024-10-08T02:51:38Z</time><name>1172</name><sym>Flag, Blue</sym></wpt><wpt lat="10.339080" lon="123.945130"><ele>24.356354</ele><time>2024-10-08T02:51:47Z</time><name>1173</name><sym>Flag, Blue</sym></wpt><wpt lat="10.339067" lon="123.945087"><ele>21.928860</ele><time>2024-10-08T02:52:40Z</time><name>1174</name><sym>Flag, Blue</sym></wpt><wpt lat="10.339068" lon="123.945088"><ele>22.633953</ele><time>2024-10-08T02:52:56Z</time><name>1175</name><sym>Flag, Blue</sym></wpt><wpt lat="10.339035" lon="123.945061"><ele>24.350117</ele><time>2024-10-08T02:53:11Z</time><name>1176</name><sym>Flag, Blue</sym></wpt><wpt lat="10.339042" lon="123.945041"><ele>25.474773</ele><time>2024-10-08T02:53:24Z</time><name>1177</name><sym>Flag, Blue</sym></wpt><wpt lat="10.339040" lon="123.945035"><ele>26.463718</ele><time>2024-10-08T02:53:38Z</time><name>1178</name><sym>Flag, Blue</sym></wpt><wpt lat="10.339022" lon="123.945015"><ele>28.509785</ele><time>2024-10-08T02:53:56Z</time><name>1179</name><sym>Flag, Blue</sym></wpt><wpt lat="10.339016" lon="123.944980"><ele>27.341885</ele><time>2024-10-08T02:54:11Z</time><name>1180</name><sym>Flag, Blue</sym></wpt><wpt lat="10.338970" lon="123.944950"><ele>17.745461</ele><time>2024-10-08T02:55:07Z</time><name>1181</name><sym>Flag, Blue</sym></wpt><wpt lat="10.337155" lon="123.942181"><ele>23.492184</ele><time>2024-10-08T03:07:31Z</time><name>1182</name><sym>Flag, Blue</sym></wpt><wpt lat="10.337188" lon="123.942135"><ele>33.620197</ele><time>2024-10-08T03:08:04Z</time><name>1183</name><sym>Flag, Blue</sym></wpt><wpt lat="10.337199" lon="123.942100"><ele>36.841228</ele><time>2024-10-08T03:08:20Z</time><name>1184</name><sym>Flag, Blue</sym></wpt><wpt lat="10.337304" lon="123.941944"><ele>39.818962</ele><time>2024-10-08T03:08:43Z</time><name>1185</name><sym>Flag, Blue</sym></wpt><wpt lat="10.337315" lon="123.941923"><ele>43.655804</ele><time>2024-10-08T03:09:00Z</time><name>1186</name><sym>Flag, Blue</sym></wpt><wpt lat="10.337350" lon="123.941933"><ele>44.110561</ele><time>2024-10-08T03:09:16Z</time><name>1187</name><sym>Flag, Blue</sym></wpt><wpt lat="10.337410" lon="123.941836"><ele>41.360085</ele><time>2024-10-08T03:09:39Z</time><name>1188</name><sym>Flag, Blue</sym></wpt><wpt lat="10.337688" lon="123.941401"><ele>40.721157</ele><time>2024-10-08T03:10:26Z</time><name>1189</name><sym>Flag, Blue</sym></wpt><wpt lat="10.338223" lon="123.940719"><ele>26.403431</ele><time>2024-10-08T03:11:43Z</time><name>1190</name><sym>Flag, Blue</sym></wpt><wpt lat="10.338213" lon="123.940716"><ele>25.944225</ele><time>2024-10-08T03:12:11Z</time><name>1191</name><sym>Flag, Blue</sym></wpt><wpt lat="10.337761" lon="123.941427"><ele>26.208370</ele><time>2024-10-08T03:13:25Z</time><name>1192</name><sym>Flag, Blue</sym></wpt><wpt lat="10.336933" lon="123.940906"><ele>30.254658</ele><time>2024-10-08T03:15:04Z</time><name>1193</name><sym>Flag, Blue</sym></wpt><wpt lat="10.336231" lon="123.940559"><ele>24.719112</ele><time>2024-10-08T03:16:39Z</time><name>1194</name><sym>Flag, Blue</sym></wpt><wpt lat="10.336198" lon="123.940512"><ele>26.740818</ele><time>2024-10-08T03:16:57Z</time><name>1195</name><sym>Flag, Blue</sym></wpt><wpt lat="10.336219" lon="123.940518"><ele>26.805164</ele><time>2024-10-08T03:17:11Z</time><name>1196</name><sym>Flag, Blue</sym></wpt><wpt lat="10.336231" lon="123.940550"><ele>27.643108</ele><time>2024-10-08T03:17:23Z</time><name>1197</name><sym>Flag, Blue</sym></wpt><wpt lat="10.336249" lon="123.940567"><ele>27.822758</ele><time>2024-10-08T03:17:34Z</time><name>1198</name><sym>Flag, Blue</sym></wpt><wpt lat="10.336282" lon="123.940584"><ele>27.039207</ele><time>2024-10-08T03:17:49Z</time><name>1199</name><sym>Flag, Blue</sym></wpt><wpt lat="10.336314" lon="123.940615"><ele>26.367798</ele><time>2024-10-08T03:18:01Z</time><name>1200</name><sym>Flag, Blue</sym></wpt><wpt lat="10.336378" lon="123.940702"><ele>28.705269</ele><time>2024-10-08T03:18:24Z</time><name>1201</name><sym>Flag, Blue</sym></wpt><wpt lat="10.336442" lon="123.940750"><ele>27.820839</ele><time>2024-10-08T03:18:44Z</time><name>1202</name><sym>Flag, Blue</sym></wpt><wpt lat="10.336622" lon="123.940853"><ele>26.064613</ele><time>2024-10-08T03:19:15Z</time><name>1203</name><sym>Flag, Blue</sym></wpt><wpt lat="10.336346" lon="123.941315"><ele>24.379253</ele><time>2024-10-08T03:20:36Z</time><name>1204</name><sym>Flag, Blue</sym></wpt><wpt lat="10.336119" lon="123.940971"><ele>22.818586</ele><time>2024-10-08T03:21:17Z</time><name>1205</name><sym>Flag, Blue</sym></wpt><wpt lat="10.334554" lon="123.937827"><ele>23.723814</ele><time>2024-10-08T03:23:11Z</time><name>1206</name><sym>Flag, Blue</sym></wpt><wpt lat="10.335415" lon="123.936978"><ele>24.446386</ele><time>2024-10-08T03:23:58Z</time><name>1207</name><sym>Flag, Blue</sym></wpt><wpt lat="10.335461" lon="123.936936"><ele>24.791698</ele><time>2024-10-08T03:24:10Z</time><name>1208</name><sym>Flag, Blue</sym></wpt><wpt lat="10.335787" lon="123.936656"><ele>29.396492</ele><time>2024-10-08T03:24:50Z</time><name>1209</name><sym>Flag, Blue</sym></wpt><wpt lat="10.335826" lon="123.936623"><ele>26.336899</ele><time>2024-10-08T03:25:03Z</time><name>1210</name><sym>Flag, Blue</sym></wpt><wpt lat="10.335838" lon="123.936602"><ele>24.534500</ele><time>2024-10-08T03:25:13Z</time><name>1211</name><sym>Flag, Blue</sym></wpt><wpt lat="10.335852" lon="123.936569"><ele>23.360634</ele><time>2024-10-08T03:25:22Z</time><name>1212</name><sym>Flag, Blue</sym></wpt><wpt lat="10.335906" lon="123.936536"><ele>24.466236</ele><time>2024-10-08T03:25:41Z</time><name>1213</name><sym>Flag, Blue</sym></wpt><wpt lat="10.335967" lon="123.936492"><ele>25.832981</ele><time>2024-10-08T03:25:51Z</time><name>1214</name><sym>Flag, Blue</sym></wpt><wpt lat="10.336033" lon="123.936451"><ele>27.537754</ele><time>2024-10-08T03:26:11Z</time><name>1215</name><sym>Flag, Blue</sym></wpt><wpt lat="10.336050" lon="123.936417"><ele>28.931568</ele><time>2024-10-08T03:26:22Z</time><name>1216</name><sym>Flag, Blue</sym></wpt><wpt lat="10.336053" lon="123.936411"><ele>30.497395</ele><time>2024-10-08T03:26:33Z</time><name>1217</name><sym>Flag, Blue</sym></wpt><wpt lat="10.336065" lon="123.936397"><ele>32.266739</ele><time>2024-10-08T03:26:44Z</time><name>1218</name><sym>Flag, Blue</sym></wpt><wpt lat="10.336080" lon="123.936350"><ele>31.415298</ele><time>2024-10-08T03:27:00Z</time><name>1219</name><sym>Flag, Blue</sym></wpt><wpt lat="10.336141" lon="123.936306"><ele>32.360817</ele><time>2024-10-08T03:27:23Z</time><name>1220</name><sym>Flag, Blue</sym></wpt><wpt lat="10.336174" lon="123.936260"><ele>33.509331</ele><time>2024-10-08T03:27:38Z</time><name>1221</name><sym>Flag, Blue</sym></wpt><wpt lat="10.337301" lon="123.935473"><ele>34.105190</ele><time>2024-10-08T03:28:33Z</time><name>1222</name><sym>Flag, Blue</sym></wpt><wpt lat="10.337285" lon="123.935451"><ele>34.536629</ele><time>2024-10-08T03:28:49Z</time><name>1223</name><sym>Flag, Blue</sym></wpt><wpt lat="10.337336" lon="123.935414"><ele>34.210209</ele><time>2024-10-08T03:29:00Z</time><name>1224</name><sym>Flag, Blue</sym></wpt><wpt lat="10.337377" lon="123.935413"><ele>34.541714</ele><time>2024-10-08T03:29:11Z</time><name>1225</name><sym>Flag, Blue</sym></wpt><wpt lat="10.337471" lon="123.935367"><ele>36.558937</ele><time>2024-10-08T03:29:30Z</time><name>1226</name><sym>Flag, Blue</sym></wpt><wpt lat="10.337474" lon="123.935354"><ele>36.373585</ele><time>2024-10-08T03:29:40Z</time><name>1227</name><sym>Flag, Blue</sym></wpt><wpt lat="10.337514" lon="123.935374"><ele>37.148167</ele><time>2024-10-08T03:30:09Z</time><name>1228</name><sym>Flag, Blue</sym></wpt><wpt lat="10.337547" lon="123.935314"><ele>36.554920</ele><time>2024-10-08T03:30:20Z</time><name>1229</name><sym>Flag, Blue</sym></wpt><wpt lat="10.337578" lon="123.935280"><ele>36.294643</ele><time>2024-10-08T03:30:36Z</time><name>1230</name><sym>Flag, Blue</sym></wpt><wpt lat="10.337601" lon="123.935244"><ele>36.479881</ele><time>2024-10-08T03:30:51Z</time><name>1231</name><sym>Flag, Blue</sym></wpt><wpt lat="10.337684" lon="123.935233"><ele>36.796165</ele><time>2024-10-08T03:31:19Z</time><name>1232</name><sym>Flag, Blue</sym></wpt><wpt lat="10.338216" lon="123.935067"><ele>33.760185</ele><time>2024-10-08T03:32:23Z</time><name>1233</name><sym>Flag, Blue</sym></wpt><wpt lat="10.338265" lon="123.935070"><ele>32.831848</ele><time>2024-10-08T03:32:55Z</time><name>1234</name><sym>Flag, Blue</sym></wpt><wpt lat="10.336438" lon="123.938051"><ele>25.637661</ele><time>2024-10-08T03:35:52Z</time><name>1235</name><sym>Flag, Blue</sym></wpt><wpt lat="10.337106" lon="123.937758"><ele>28.718782</ele><time>2024-10-08T03:36:47Z</time><name>1236</name><sym>Flag, Blue</sym></wpt><wpt lat="10.340187" lon="123.935570"><ele>32.537510</ele><time>2024-10-08T03:38:32Z</time><name>1237</name><sym>Flag, Blue</sym></wpt><wpt lat="10.340229" lon="123.935603"><ele>36.135605</ele><time>2024-10-08T03:39:38Z</time><name>1238</name><sym>Flag, Blue</sym></wpt><wpt lat="10.340238" lon="123.935582"><ele>34.794724</ele><time>2024-10-08T03:39:52Z</time><name>1239</name><sym>Flag, Blue</sym></wpt></gpx>