<?xml version="1.0" encoding="UTF-8" standalone="no" ?><gpx xmlns="http://www.topografix.com/GPX/1/1" xmlns:gpxx="http://www.garmin.com/xmlschemas/GpxExtensions/v3" xmlns:wptx1="http://www.garmin.com/xmlschemas/WaypointExtension/v1" xmlns:gpxtpx="http://www.garmin.com/xmlschemas/TrackPointExtension/v1" creator="eTrex 22x" version="1.1" xmlns:xsi="http://www.w3.org/2001/XMLSchema-instance" xsi:schemaLocation="http://www.topografix.com/GPX/1/1 http://www.topografix.com/GPX/1/1/gpx.xsd http://www.garmin.com/xmlschemas/GpxExtensions/v3 http://www8.garmin.com/xmlschemas/GpxExtensionsv3.xsd http://www.garmin.com/xmlschemas/TrackStatsExtension/v1 http://www8.garmin.com/xmlschemas/TrackStatsExtension.xsd http://www.garmin.com/xmlschemas/WaypointExtension/v1 http://www8.garmin.com/xmlschemas/WaypointExtensionv1.xsd http://www.garmin.com/xmlschemas/TrackPointExtension/v1 http://www.garmin.com/xmlschemas/TrackPointExtensionv1.xsd"><metadata><link href="http://www.garmin.com"><text>Garmin International</text></link><time>2024-10-07T01:39:28Z</time></metadata><wpt lat="10.348218" lon="123.935289"><ele>-52.364109</ele><time>2024-10-07T01:39:28Z</time><name>896</name><sym>Flag, Blue</sym></wpt><wpt lat="10.348147" lon="123.935270"><ele>-54.033020</ele><time>2024-10-07T01:39:59Z</time><name>897</name><sym>Flag, Blue</sym></wpt><wpt lat="10.348131" lon="123.935265"><ele>-54.519154</ele><time>2024-10-07T01:40:15Z</time><name>898</name><sym>Flag, Blue</sym></wpt><wpt lat="10.348080" lon="123.935249"><ele>-54.237648</ele><time>2024-10-07T01:40:30Z</time><name>899</name><sym>Flag, Blue</sym></wpt><wpt lat="10.347973" lon="123.935439"><ele>-5.667213</ele><time>2024-10-07T01:40:42Z</time><name>900</name><sym>Flag, Blue</sym></wpt><wpt lat="10.347869" lon="123.935527"><ele>14.707893</ele><time>2024-10-07T01:41:02Z</time><name>901</name><sym>Flag, Blue</sym></wpt><wpt lat="10.347859" lon="123.935519"><ele>16.168453</ele><time>2024-10-07T01:41:12Z</time><name>902</name><sym>Flag, Blue</sym></wpt><wpt lat="10.347848" lon="123.935521"><ele>17.957745</ele><time>2024-10-07T01:41:24Z</time><name>903</name><sym>Flag, Blue</sym></wpt><wpt lat="10.347828" lon="123.935517"><ele>19.963734</ele><time>2024-10-07T01:41:34Z</time><name>904</name><sym>Flag, Blue</sym></wpt><wpt lat="10.347813" lon="123.935512"><ele>22.285580</ele><time>2024-10-07T01:41:45Z</time><name>905</name><sym>Flag, Blue</sym></wpt><wpt lat="10.347793" lon="123.935503"><ele>23.553234</ele><time>2024-10-07T01:41:57Z</time><name>906</name><sym>Flag, Blue</sym></wpt><wpt lat="10.347784" lon="123.935468"><ele>26.000896</ele><time>2024-10-07T01:42:10Z</time><name>907</name><sym>Flag, Blue</sym></wpt><wpt lat="10.347770" lon="123.935461"><ele>29.432079</ele><time>2024-10-07T01:42:23Z</time><name>908</name><sym>Flag, Blue</sym></wpt><wpt lat="10.347764" lon="123.935448"><ele>31.135098</ele><time>2024-10-07T01:42:31Z</time><name>909</name><sym>Flag, Blue</sym></wpt><wpt lat="10.347746" lon="123.935442"><ele>32.125500</ele><time>2024-10-07T01:42:42Z</time><name>910</name><sym>Flag, Blue</sym></wpt><wpt lat="10.347734" lon="123.935444"><ele>33.589962</ele><time>2024-10-07T01:42:56Z</time><name>911</name><sym>Flag, Blue</sym></wpt><wpt lat="10.347711" lon="123.935433"><ele>35.058090</ele><time>2024-10-07T01:43:08Z</time><name>912</name><sym>Flag, Blue</sym></wpt><wpt lat="10.347668" lon="123.935427"><ele>36.451477</ele><time>2024-10-07T01:43:22Z</time><name>913</name><sym>Flag, Blue</sym></wpt><wpt lat="10.347133" lon="123.935453"><ele>28.270546</ele><time>2024-10-07T01:44:18Z</time><name>914</name><sym>Flag, Blue</sym></wpt><wpt lat="10.346823" lon="123.935386"><ele>29.587929</ele><time>2024-10-07T01:45:03Z</time><name>915</name><sym>Flag, Blue</sym></wpt><wpt lat="10.346632" lon="123.935303"><ele>31.642204</ele><time>2024-10-07T01:45:37Z</time><name>916</name><sym>Flag, Blue</sym></wpt><wpt lat="10.346609" lon="123.935300"><ele>32.295204</ele><time>2024-10-07T01:45:51Z</time><name>917</name><sym>Flag, Blue</sym></wpt><wpt lat="10.345868" lon="123.935141"><ele>32.110653</ele><time>2024-10-07T01:47:16Z</time><name>918</name><sym>Flag, Blue</sym></wpt><wpt lat="10.345586" lon="123.935056"><ele>33.879520</ele><time>2024-10-07T01:48:04Z</time><name>919</name><sym>Flag, Blue</sym></wpt><wpt lat="10.345502" lon="123.935013"><ele>34.570103</ele><time>2024-10-07T01:48:31Z</time><name>920</name><sym>Flag, Blue</sym></wpt><wpt lat="10.345325" lon="123.935082"><ele>30.379986</ele><time>2024-10-07T01:49:49Z</time><name>921</name><sym>Flag, Blue</sym></wpt><wpt lat="10.345299" lon="123.935134"><ele>33.391106</ele><time>2024-10-07T01:50:07Z</time><name>922</name><sym>Flag, Blue</sym></wpt><wpt lat="10.345300" lon="123.935189"><ele>34.435448</ele><time>2024-10-07T01:50:25Z</time><name>923</name><sym>Flag, Blue</sym></wpt><wpt lat="10.345305" lon="123.935287"><ele>32.982452</ele><time>2024-10-07T01:50:50Z</time><name>924</name><sym>Flag, Blue</sym></wpt><wpt lat="10.345199" lon="123.935935"><ele>30.802322</ele><time>2024-10-07T01:52:49Z</time><name>925</name><sym>Flag, Blue</sym></wpt><wpt lat="10.345184" lon="123.935967"><ele>31.144489</ele><time>2024-10-07T01:53:41Z</time><name>926</name><sym>Flag, Blue</sym></wpt><wpt lat="10.345178" lon="123.935982"><ele>32.478039</ele><time>2024-10-07T01:53:56Z</time><name>927</name><sym>Flag, Blue</sym></wpt><wpt lat="10.345159" lon="123.935990"><ele>32.860695</ele><time>2024-10-07T01:54:07Z</time><name>928</name><sym>Flag, Blue</sym></wpt><wpt lat="10.345182" lon="123.936023"><ele>35.934372</ele><time>2024-10-07T01:54:20Z</time><name>929</name><sym>Flag, Blue</sym></wpt><wpt lat="10.345164" lon="123.936050"><ele>36.277237</ele><time>2024-10-07T01:54:33Z</time><name>930</name><sym>Flag, Blue</sym></wpt><wpt lat="10.345139" lon="123.936073"><ele>35.431961</ele><time>2024-10-07T01:54:45Z</time><name>931</name><sym>Flag, Blue</sym></wpt><wpt lat="10.345141" lon="123.936112"><ele>35.959686</ele><time>2024-10-07T01:54:59Z</time><name>932</name><sym>Flag, Blue</sym></wpt><wpt lat="10.345131" lon="123.936128"><ele>36.414120</ele><time>2024-10-07T01:55:09Z</time><name>933</name><sym>Flag, Blue</sym></wpt><wpt lat="10.345125" lon="123.936153"><ele>36.696972</ele><time>2024-10-07T01:55:18Z</time><name>934</name><sym>Flag, Blue</sym></wpt><wpt lat="10.345098" lon="123.936215"><ele>37.445080</ele><time>2024-10-07T01:55:34Z</time><name>935</name><sym>Flag, Blue</sym></wpt><wpt lat="10.345091" lon="123.936205"><ele>35.333675</ele><time>2024-10-07T01:55:43Z</time><name>936</name><sym>Flag, Blue</sym></wpt><wpt lat="10.345099" lon="123.936355"><ele>33.580502</ele><time>2024-10-07T01:56:06Z</time><name>937</name><sym>Flag, Blue</sym></wpt><wpt lat="10.345097" lon="123.936475"><ele>33.482388</ele><time>2024-10-07T01:56:41Z</time><name>938</name><sym>Flag, Blue</sym></wpt><wpt lat="10.345118" lon="123.936476"><ele>32.938641</ele><time>2024-10-07T01:56:54Z</time><name>939</name><sym>Flag, Blue</sym></wpt><wpt lat="10.345105" lon="123.936550"><ele>34.988010</ele><time>2024-10-07T01:57:24Z</time><name>940</name><sym>Flag, Blue</sym></wpt><wpt lat="10.345108" lon="123.936680"><ele>35.458630</ele><time>2024-10-07T01:57:56Z</time><name>941</name><sym>Flag, Blue</sym></wpt><wpt lat="10.345018" lon="123.936450"><ele>33.788773</ele><time>2024-10-07T01:59:15Z</time><name>942</name><sym>Flag, Blue</sym></wpt><wpt lat="10.345043" lon="123.936476"><ele>33.505920</ele><time>2024-10-07T01:59:29Z</time><name>943</name><sym>Flag, Blue</sym></wpt><wpt lat="10.345038" lon="123.936506"><ele>33.658875</ele><time>2024-10-07T01:59:47Z</time><name>944</name><sym>Flag, Blue</sym></wpt><wpt lat="10.345034" lon="123.936530"><ele>33.458817</ele><time>2024-10-07T02:00:01Z</time><name>945</name><sym>Flag, Blue</sym></wpt><wpt lat="10.345039" lon="123.936539"><ele>33.764355</ele><time>2024-10-07T02:00:15Z</time><name>946</name><sym>Flag, Blue</sym></wpt><wpt lat="10.345046" lon="123.936561"><ele>34.055294</ele><time>2024-10-07T02:00:34Z</time><name>947</name><sym>Flag, Blue</sym></wpt><wpt lat="10.345056" lon="123.936562"><ele>34.400784</ele><time>2024-10-07T02:00:42Z</time><name>948</name><sym>Flag, Blue</sym></wpt><wpt lat="10.345051" lon="123.936587"><ele>35.107952</ele><time>2024-10-07T02:00:54Z</time><name>949</name><sym>Flag, Blue</sym></wpt><wpt lat="10.345056" lon="123.936595"><ele>35.346355</ele><time>2024-10-07T02:01:04Z</time><name>950</name><sym>Flag, Blue</sym></wpt><wpt lat="10.345072" lon="123.936694"><ele>35.787712</ele><time>2024-10-07T02:01:33Z</time><name>951</name><sym>Flag, Blue</sym></wpt><wpt lat="10.345041" lon="123.936696"><ele>35.089470</ele><time>2024-10-07T02:02:06Z</time><name>952</name><sym>Flag, Blue</sym></wpt><wpt lat="10.345069" lon="123.936751"><ele>35.520866</ele><time>2024-10-07T02:02:25Z</time><name>953</name><sym>Flag, Blue</sym></wpt><wpt lat="10.345104" lon="123.936744"><ele>38.161621</ele><time>2024-10-07T02:02:34Z</time><name>954</name><sym>Flag, Blue</sym></wpt><wpt lat="10.345090" lon="123.936755"><ele>40.389778</ele><time>2024-10-07T02:02:46Z</time><name>955</name><sym>Flag, Blue</sym></wpt><wpt lat="10.345083" lon="123.936775"><ele>40.439629</ele><time>2024-10-07T02:03:03Z</time><name>956</name><sym>Flag, Blue</sym></wpt><wpt lat="10.345080" lon="123.936785"><ele>41.533382</ele><time>2024-10-07T02:03:17Z</time><name>957</name><sym>Flag, Blue</sym></wpt><wpt lat="10.345079" lon="123.936800"><ele>41.796558</ele><time>2024-10-07T02:03:28Z</time><name>958</name><sym>Flag, Blue</sym></wpt><wpt lat="10.345090" lon="123.936811"><ele>42.513988</ele><time>2024-10-07T02:03:38Z</time><name>959</name><sym>Flag, Blue</sym></wpt><wpt lat="10.345095" lon="123.936817"><ele>42.331982</ele><time>2024-10-07T02:03:47Z</time><name>960</name><sym>Flag, Blue</sym></wpt><wpt lat="10.345091" lon="123.936836"><ele>41.524746</ele><time>2024-10-07T02:04:03Z</time><name>961</name><sym>Flag, Blue</sym></wpt><wpt lat="10.345109" lon="123.936833"><ele>41.219189</ele><time>2024-10-07T02:04:14Z</time><name>962</name><sym>Flag, Blue</sym></wpt><wpt lat="10.345104" lon="123.936832"><ele>41.288662</ele><time>2024-10-07T02:04:26Z</time><name>963</name><sym>Flag, Blue</sym></wpt><wpt lat="10.345101" lon="123.936866"><ele>42.149807</ele><time>2024-10-07T02:04:37Z</time><name>964</name><sym>Flag, Blue</sym></wpt><wpt lat="10.345083" lon="123.936909"><ele>41.554699</ele><time>2024-10-07T02:04:54Z</time><name>965</name><sym>Flag, Blue</sym></wpt><wpt lat="10.345097" lon="123.936910"><ele>39.916935</ele><time>2024-10-07T02:05:02Z</time><name>966</name><sym>Flag, Blue</sym></wpt><wpt lat="10.345097" lon="123.936930"><ele>39.174103</ele><time>2024-10-07T02:05:17Z</time><name>967</name><sym>Flag, Blue</sym></wpt><wpt lat="10.345080" lon="123.936929"><ele>39.177330</ele><time>2024-10-07T02:05:25Z</time><name>968</name><sym>Flag, Blue</sym></wpt><wpt lat="10.345097" lon="123.936951"><ele>39.016861</ele><time>2024-10-07T02:05:39Z</time><name>969</name><sym>Flag, Blue</sym></wpt><wpt lat="10.345108" lon="123.936967"><ele>40.541183</ele><time>2024-10-07T02:05:49Z</time><name>970</name><sym>Flag, Blue</sym></wpt><wpt lat="10.345100" lon="123.936996"><ele>42.009476</ele><time>2024-10-07T02:05:58Z</time><name>971</name><sym>Flag, Blue</sym></wpt><wpt lat="10.345118" lon="123.936774"><ele>34.929363</ele><time>2024-10-07T02:06:34Z</time><name>972</name><sym>Flag, Blue</sym></wpt><wpt lat="10.345121" lon="123.936895"><ele>34.428787</ele><time>2024-10-07T02:07:00Z</time><name>973</name><sym>Flag, Blue</sym></wpt><wpt lat="10.345072" lon="123.937023"><ele>32.741867</ele><time>2024-10-07T02:07:22Z</time><name>974</name><sym>Flag, Blue</sym></wpt><wpt lat="10.344973" lon="123.937153"><ele>27.426918</ele><time>2024-10-07T02:07:46Z</time><name>975</name><sym>Flag, Blue</sym></wpt><wpt lat="10.344953" lon="123.937190"><ele>25.764046</ele><time>2024-10-07T02:08:03Z</time><name>976</name><sym>Flag, Blue</sym></wpt><wpt lat="10.344269" lon="123.937776"><ele>29.503437</ele><time>2024-10-07T02:10:01Z</time><name>977</name><sym>Flag, Blue</sym></wpt><wpt lat="10.344236" lon="123.937795"><ele>29.908985</ele><time>2024-10-07T02:10:10Z</time><name>978</name><sym>Flag, Blue</sym></wpt><wpt lat="10.344211" lon="123.937802"><ele>29.968540</ele><time>2024-10-07T02:10:20Z</time><name>979</name><sym>Flag, Blue</sym></wpt><wpt lat="10.344206" lon="123.937811"><ele>30.481220</ele><time>2024-10-07T02:10:27Z</time><name>980</name><sym>Flag, Blue</sym></wpt><wpt lat="10.343998" lon="123.937648"><ele>30.614796</ele><time>2024-10-07T02:10:59Z</time><name>981</name><sym>Flag, Blue</sym></wpt><wpt lat="10.342615" lon="123.937046"><ele>30.216599</ele><time>2024-10-07T02:12:08Z</time><name>982</name><sym>Flag, Blue</sym></wpt><wpt lat="10.342624" lon="123.937052"><ele>30.642056</ele><time>2024-10-07T02:12:14Z</time><name>983</name><sym>Flag, Blue</sym></wpt><wpt lat="10.342201" lon="123.936815"><ele>33.168911</ele><time>2024-10-07T02:12:42Z</time><name>984</name><sym>Flag, Blue</sym></wpt><wpt lat="10.342485" lon="123.936296"><ele>34.559715</ele><time>2024-10-07T02:13:23Z</time><name>985</name><sym>Flag, Blue</sym></wpt><wpt lat="10.342571" lon="123.936179"><ele>36.670826</ele><time>2024-10-07T02:13:50Z</time><name>986</name><sym>Flag, Blue</sym></wpt><wpt lat="10.342611" lon="123.936127"><ele>36.597778</ele><time>2024-10-07T02:14:09Z</time><name>987</name><sym>Flag, Blue</sym></wpt><wpt lat="10.342633" lon="123.936098"><ele>38.111397</ele><time>2024-10-07T02:14:20Z</time><name>988</name><sym>Flag, Blue</sym></wpt><wpt lat="10.342647" lon="123.936062"><ele>38.261917</ele><time>2024-10-07T02:14:31Z</time><name>989</name><sym>Flag, Blue</sym></wpt><wpt lat="10.342738" lon="123.935959"><ele>37.494263</ele><time>2024-10-07T02:14:46Z</time><name>990</name><sym>Flag, Blue</sym></wpt><wpt lat="10.343070" lon="123.935580"><ele>39.173855</ele><time>2024-10-07T02:15:17Z</time><name>991</name><sym>Flag, Blue</sym></wpt><wpt lat="10.343782" lon="123.934640"><ele>39.891056</ele><time>2024-10-07T02:16:48Z</time><name>992</name><sym>Flag, Blue</sym></wpt><wpt lat="10.343172" lon="123.935372"><ele>38.331844</ele><time>2024-10-07T02:17:29Z</time><name>993</name><sym>Flag, Blue</sym></wpt><wpt lat="10.342992" lon="123.935532"><ele>38.795982</ele><time>2024-10-07T02:17:55Z</time><name>994</name><sym>Flag, Blue</sym></wpt><wpt lat="10.342842" lon="123.935699"><ele>38.274494</ele><time>2024-10-07T02:18:16Z</time><name>995</name><sym>Flag, Blue</sym></wpt><wpt lat="10.342775" lon="123.935804"><ele>36.986237</ele><time>2024-10-07T02:18:37Z</time><name>996</name><sym>Flag, Blue</sym></wpt><wpt lat="10.342645" lon="123.935955"><ele>34.916290</ele><time>2024-10-07T02:18:56Z</time><name>997</name><sym>Flag, Blue</sym></wpt><wpt lat="10.342141" lon="123.936592"><ele>34.279099</ele><time>2024-10-07T02:19:36Z</time><name>998</name><sym>Flag, Blue</sym></wpt><wpt lat="10.341729" lon="123.936615"><ele>30.708702</ele><time>2024-10-07T02:20:09Z</time><name>999</name><sym>Flag, Blue</sym></wpt><wpt lat="10.341315" lon="123.936575"><ele>31.479942</ele><time>2024-10-07T02:20:39Z</time><name>1000</name><sym>Flag, Blue</sym></wpt><wpt lat="10.340665" lon="123.936458"><ele>33.325619</ele><time>2024-10-07T02:21:32Z</time><name>1001</name><sym>Flag, Blue</sym></wpt><wpt lat="10.340652" lon="123.936462"><ele>33.553158</ele><time>2024-10-07T02:21:40Z</time><name>1002</name><sym>Flag, Blue</sym></wpt><wpt lat="10.340643" lon="123.936451"><ele>33.822269</ele><time>2024-10-07T02:21:47Z</time><name>1003</name><sym>Flag, Blue</sym></wpt><wpt lat="10.340628" lon="123.936457"><ele>33.621105</ele><time>2024-10-07T02:21:54Z</time><name>1004</name><sym>Flag, Blue</sym></wpt><wpt lat="10.340618" lon="123.936461"><ele>32.928692</ele><time>2024-10-07T02:22:03Z</time><name>1005</name><sym>Flag, Blue</sym></wpt><wpt lat="10.340599" lon="123.936459"><ele>33.227535</ele><time>2024-10-07T02:22:15Z</time><name>1006</name><sym>Flag, Blue</sym></wpt><wpt lat="10.340581" lon="123.936458"><ele>31.917324</ele><time>2024-10-07T02:22:26Z</time><name>1007</name><sym>Flag, Blue</sym></wpt><wpt lat="10.340532" lon="123.936431"><ele>29.921093</ele><time>2024-10-07T02:22:49Z</time><name>1008</name><sym>Flag, Blue</sym></wpt><wpt lat="10.340505" lon="123.936389"><ele>30.936077</ele><time>2024-10-07T02:22:57Z</time><name>1009</name><sym>Flag, Blue</sym></wpt><wpt lat="10.340482" lon="123.936347"><ele>31.005493</ele><time>2024-10-07T02:23:10Z</time><name>1010</name><sym>Flag, Blue</sym></wpt><wpt lat="10.340326" lon="123.936259"><ele>30.789549</ele><time>2024-10-07T02:23:39Z</time><name>1011</name><sym>Flag, Blue</sym></wpt><wpt lat="10.339934" lon="123.936093"><ele>25.834742</ele><time>2024-10-07T02:24:09Z</time><name>1012</name><sym>Flag, Blue</sym></wpt><wpt lat="10.339922" lon="123.936087"><ele>25.784496</ele><time>2024-10-07T02:24:14Z</time><name>1013</name><sym>Flag, Blue</sym></wpt><wpt lat="10.339901" lon="123.936066"><ele>26.861027</ele><time>2024-10-07T02:24:20Z</time><name>1014</name><sym>Flag, Blue</sym></wpt><wpt lat="10.339890" lon="123.936037"><ele>27.856228</ele><time>2024-10-07T02:24:28Z</time><name>1015</name><sym>Flag, Blue</sym></wpt><wpt lat="10.339872" lon="123.935991"><ele>26.690716</ele><time>2024-10-07T02:25:01Z</time><name>1016</name><sym>Flag, Blue</sym></wpt><wpt lat="10.339888" lon="123.936084"><ele>33.046829</ele><time>2024-10-07T02:26:00Z</time><name>1017</name><sym>Flag, Blue</sym></wpt><wpt lat="10.340058" lon="123.936167"><ele>27.835670</ele><time>2024-10-07T02:26:24Z</time><name>1018</name><sym>Flag, Blue</sym></wpt><wpt lat="10.340136" lon="123.936224"><ele>27.277191</ele><time>2024-10-07T02:26:34Z</time><name>1019</name><sym>Flag, Blue</sym></wpt><wpt lat="10.340177" lon="123.936245"><ele>27.532356</ele><time>2024-10-07T02:26:41Z</time><name>1020</name><sym>Flag, Blue</sym></wpt><wpt lat="10.340229" lon="123.936289"><ele>28.447292</ele><time>2024-10-07T02:26:51Z</time><name>1021</name><sym>Flag, Blue</sym></wpt><wpt lat="10.340243" lon="123.936306"><ele>28.738480</ele><time>2024-10-07T02:26:57Z</time><name>1022</name><sym>Flag, Blue</sym></wpt><wpt lat="10.340290" lon="123.936325"><ele>28.858479</ele><time>2024-10-07T02:27:05Z</time><name>1023</name><sym>Flag, Blue</sym></wpt><wpt lat="10.340317" lon="123.936340"><ele>28.913166</ele><time>2024-10-07T02:27:10Z</time><name>1024</name><sym>Flag, Blue</sym></wpt><wpt lat="10.340431" lon="123.936445"><ele>30.634586</ele><time>2024-10-07T02:27:25Z</time><name>1025</name><sym>Flag, Blue</sym></wpt><wpt lat="10.340497" lon="123.936467"><ele>30.043118</ele><time>2024-10-07T02:27:33Z</time><name>1026</name><sym>Flag, Blue</sym></wpt><wpt lat="10.340538" lon="123.936492"><ele>29.474255</ele><time>2024-10-07T02:27:38Z</time><name>1027</name><sym>Flag, Blue</sym></wpt><wpt lat="10.340723" lon="123.936542"><ele>29.361774</ele><time>2024-10-07T02:27:57Z</time><name>1028</name><sym>Flag, Blue</sym></wpt><wpt lat="10.340762" lon="123.936584"><ele>26.985714</ele><time>2024-10-07T02:28:03Z</time><name>1029</name><sym>Flag, Blue</sym></wpt><wpt lat="10.341978" lon="123.936831"><ele>27.829231</ele><time>2024-10-07T02:29:04Z</time><name>1030</name><sym>Flag, Blue</sym></wpt><wpt lat="10.342038" lon="123.936847"><ele>25.829239</ele><time>2024-10-07T02:29:11Z</time><name>1031</name><sym>Flag, Blue</sym></wpt><wpt lat="10.342067" lon="123.936843"><ele>24.764061</ele><time>2024-10-07T02:29:16Z</time><name>1032</name><sym>Flag, Blue</sym></wpt><wpt lat="10.342123" lon="123.936856"><ele>24.874130</ele><time>2024-10-07T02:29:27Z</time><name>1033</name><sym>Flag, Blue</sym></wpt><wpt lat="10.342163" lon="123.936864"><ele>24.670135</ele><time>2024-10-07T02:29:31Z</time><name>1034</name><sym>Flag, Blue</sym></wpt><wpt lat="10.342182" lon="123.936865"><ele>24.213768</ele><time>2024-10-07T02:29:35Z</time><name>1035</name><sym>Flag, Blue</sym></wpt><wpt lat="10.342195" lon="123.936866"><ele>23.869141</ele><time>2024-10-07T02:29:39Z</time><name>1036</name><sym>Flag, Blue</sym></wpt><wpt lat="10.342214" lon="123.936866"><ele>23.425735</ele><time>2024-10-07T02:29:45Z</time><name>1037</name><sym>Flag, Blue</sym></wpt><wpt lat="10.342236" lon="123.936875"><ele>23.166389</ele><time>2024-10-07T02:29:50Z</time><name>1038</name><sym>Flag, Blue</sym></wpt><wpt lat="10.342247" lon="123.936890"><ele>22.790604</ele><time>2024-10-07T02:29:54Z</time><name>1039</name><sym>Flag, Blue</sym></wpt><wpt lat="10.342256" lon="123.936907"><ele>22.676285</ele><time>2024-10-07T02:29:59Z</time><name>1040</name><sym>Flag, Blue</sym></wpt><wpt lat="10.342264" lon="123.936915"><ele>23.078297</ele><time>2024-10-07T02:30:06Z</time><name>1041</name><sym>Flag, Blue</sym></wpt><wpt lat="10.342308" lon="123.936951"><ele>24.375004</ele><time>2024-10-07T02:30:16Z</time><name>1042</name><sym>Flag, Blue</sym></wpt><wpt lat="10.342346" lon="123.936982"><ele>26.650593</ele><time>2024-10-07T02:30:28Z</time><name>1043</name><sym>Flag, Blue</sym></wpt><wpt lat="10.342396" lon="123.936991"><ele>30.258434</ele><time>2024-10-07T02:30:46Z</time><name>1044</name><sym>Flag, Blue</sym></wpt><wpt lat="10.342412" lon="123.936993"><ele>31.119877</ele><time>2024-10-07T02:30:51Z</time><name>1045</name><sym>Flag, Blue</sym></wpt><wpt lat="10.342432" lon="123.936983"><ele>32.241222</ele><time>2024-10-07T02:30:55Z</time><name>1046</name><sym>Flag, Blue</sym></wpt><wpt lat="10.342445" lon="123.936984"><ele>32.950680</ele><time>2024-10-07T02:31:02Z</time><name>1047</name><sym>Flag, Blue</sym></wpt><wpt lat="10.342452" lon="123.936981"><ele>33.326359</ele><time>2024-10-07T02:31:08Z</time><name>1048</name><sym>Flag, Blue</sym></wpt><wpt lat="10.342456" lon="123.936986"><ele>33.450016</ele><time>2024-10-07T02:31:13Z</time><name>1049</name><sym>Flag, Blue</sym></wpt><wpt lat="10.342471" lon="123.936991"><ele>33.748890</ele><time>2024-10-07T02:31:18Z</time><name>1050</name><sym>Flag, Blue</sym></wpt><wpt lat="10.342487" lon="123.937007"><ele>33.570316</ele><time>2024-10-07T02:31:28Z</time><name>1051</name><sym>Flag, Blue</sym></wpt><wpt lat="10.344102" lon="123.937748"><ele>20.467876</ele><time>2024-10-07T02:32:55Z</time><name>1052</name><sym>Flag, Blue</sym></wpt><wpt lat="10.342415" lon="123.941496"><ele>14.168182</ele><time>2024-10-07T02:38:45Z</time><name>1053</name><sym>Flag, Blue</sym></wpt><wpt lat="10.342356" lon="123.941579"><ele>22.464359</ele><time>2024-10-07T02:39:01Z</time><name>1054</name><sym>Flag, Blue</sym></wpt><wpt lat="10.342317" lon="123.941578"><ele>24.626217</ele><time>2024-10-07T02:39:11Z</time><name>1055</name><sym>Flag, Blue</sym></wpt><wpt lat="10.341253" lon="123.943263"><ele>24.223410</ele><time>2024-10-07T02:40:18Z</time><name>1056</name><sym>Flag, Blue</sym></wpt><wpt lat="10.341124" lon="123.943741"><ele>24.852070</ele><time>2024-10-07T02:40:47Z</time><name>1057</name><sym>Flag, Blue</sym></wpt><wpt lat="10.341022" lon="123.944087"><ele>24.353016</ele><time>2024-10-07T02:41:16Z</time><name>1058</name><sym>Flag, Blue</sym></wpt><wpt lat="10.341017" lon="123.944150"><ele>23.535767</ele><time>2024-10-07T02:41:23Z</time><name>1059</name><sym>Flag, Blue</sym></wpt><wpt lat="10.341003" lon="123.944191"><ele>24.003586</ele><time>2024-10-07T02:41:35Z</time><name>1060</name><sym>Flag, Blue</sym></wpt><wpt lat="10.340983" lon="123.944236"><ele>24.558441</ele><time>2024-10-07T02:41:50Z</time><name>1061</name><sym>Flag, Blue</sym></wpt><wpt lat="10.338967" lon="123.943020"><ele>8.395470</ele><time>2024-10-07T02:44:02Z</time><name>1062</name><sym>Flag, Blue</sym></wpt><wpt lat="10.339847" lon="123.942060"><ele>15.956985</ele><time>2024-10-07T02:44:50Z</time><name>1063</name><sym>Flag, Blue</sym></wpt><wpt lat="10.340163" lon="123.941682"><ele>21.318285</ele><time>2024-10-07T02:45:19Z</time><name>1064</name><sym>Flag, Blue</sym></wpt><wpt lat="10.340242" lon="123.941598"><ele>22.366997</ele><time>2024-10-07T02:45:31Z</time><name>1065</name><sym>Flag, Blue</sym></wpt><wpt lat="10.340595" lon="123.941006"><ele>22.943020</ele><time>2024-10-07T02:46:44Z</time><name>1066</name><sym>Flag, Blue</sym></wpt><wpt lat="10.340550" lon="123.941068"><ele>24.634235</ele><time>2024-10-07T02:46:56Z</time><name>1067</name><sym>Flag, Blue</sym></wpt><wpt lat="10.340027" lon="123.941757"><ele>23.233253</ele><time>2024-10-07T02:47:29Z</time><name>1068</name><sym>Flag, Blue</sym></wpt><wpt lat="10.339064" lon="123.942759"><ele>17.139784</ele><time>2024-10-07T02:48:40Z</time><name>1069</name><sym>Flag, Blue</sym></wpt><wpt lat="10.338990" lon="123.943012"><ele>23.337475</ele><time>2024-10-07T02:49:06Z</time><name>1070</name><sym>Flag, Blue</sym></wpt><wpt lat="10.338946" lon="123.943054"><ele>25.344143</ele><time>2024-10-07T02:49:13Z</time><name>1071</name><sym>Flag, Blue</sym></wpt><wpt lat="10.338849" lon="123.944732"><ele>15.556992</ele><time>2024-10-07T02:50:34Z</time><name>1072</name><sym>Flag, Blue</sym></wpt><wpt lat="10.338850" lon="123.944477"><ele>8.282550</ele><time>2024-10-07T02:52:00Z</time><name>1073</name><sym>Flag, Blue</sym></wpt><wpt lat="10.338865" lon="123.944447"><ele>8.606899</ele><time>2024-10-07T02:52:08Z</time><name>1074</name><sym>Flag, Blue</sym></wpt><wpt lat="10.338933" lon="123.944360"><ele>12.444614</ele><time>2024-10-07T02:52:29Z</time><name>1075</name><sym>Flag, Blue</sym></wpt><wpt lat="10.338932" lon="123.944343"><ele>15.511845</ele><time>2024-10-07T02:52:34Z</time><name>1076</name><sym>Flag, Blue</sym></wpt><wpt lat="10.339074" lon="123.944350"><ele>9.955242</ele><time>2024-10-07T02:53:19Z</time><name>1077</name><sym>Flag, Blue</sym></wpt><wpt lat="10.339066" lon="123.944345"><ele>10.047153</ele><time>2024-10-07T02:53:31Z</time><name>1078</name><sym>Flag, Blue</sym></wpt><wpt lat="10.339066" lon="123.944344"><ele>12.899059</ele><time>2024-10-07T02:53:41Z</time><name>1079</name><sym>Flag, Blue</sym></wpt><wpt lat="10.339065" lon="123.944350"><ele>13.425983</ele><time>2024-10-07T02:53:48Z</time><name>1080</name><sym>Flag, Blue</sym></wpt><wpt lat="10.339070" lon="123.944350"><ele>14.620220</ele><time>2024-10-07T02:53:54Z</time><name>1081</name><sym>Flag, Blue</sym></wpt><wpt lat="10.339086" lon="123.944335"><ele>15.268543</ele><time>2024-10-07T02:54:00Z</time><name>1082</name><sym>Flag, Blue</sym></wpt><wpt lat="10.339096" lon="123.944327"><ele>16.518089</ele><time>2024-10-07T02:54:07Z</time><name>1083</name><sym>Flag, Blue</sym></wpt><wpt lat="10.339108" lon="123.944328"><ele>16.027573</ele><time>2024-10-07T02:54:15Z</time><name>1084</name><sym>Flag, Blue</sym></wpt><wpt lat="10.339095" lon="123.944322"><ele>17.289185</ele><time>2024-10-07T02:54:23Z</time><name>1085</name><sym>Flag, Blue</sym></wpt><wpt lat="10.339104" lon="123.944309"><ele>17.272820</ele><time>2024-10-07T02:54:32Z</time><name>1086</name><sym>Flag, Blue</sym></wpt><wpt lat="10.339124" lon="123.944320"><ele>17.612083</ele><time>2024-10-07T02:54:40Z</time><name>1087</name><sym>Flag, Blue</sym></wpt><wpt lat="10.339132" lon="123.944323"><ele>17.002724</ele><time>2024-10-07T02:54:48Z</time><name>1088</name><sym>Flag, Blue</sym></wpt><wpt lat="10.339397" lon="123.944441"><ele>20.834164</ele><time>2024-10-07T02:55:41Z</time><name>1089</name><sym>Flag, Blue</sym></wpt><wpt lat="10.339547" lon="123.944453"><ele>19.860775</ele><time>2024-10-07T02:55:58Z</time><name>1090</name><sym>Flag, Blue</sym></wpt><wpt lat="10.339802" lon="123.944486"><ele>16.998753</ele><time>2024-10-07T02:56:22Z</time><name>1091</name><sym>Flag, Blue</sym></wpt><wpt lat="10.339819" lon="123.944492"><ele>16.430191</ele><time>2024-10-07T02:56:27Z</time><name>1092</name><sym>Flag, Blue</sym></wpt><wpt lat="10.339832" lon="123.944490"><ele>16.508247</ele><time>2024-10-07T02:56:32Z</time><name>1093</name><sym>Flag, Blue</sym></wpt><wpt lat="10.339843" lon="123.944486"><ele>17.173355</ele><time>2024-10-07T02:56:38Z</time><name>1094</name><sym>Flag, Blue</sym></wpt><wpt lat="10.339915" lon="123.944499"><ele>19.039280</ele><time>2024-10-07T02:56:49Z</time><name>1095</name><sym>Flag, Blue</sym></wpt><wpt lat="10.339935" lon="123.944498"><ele>19.636330</ele><time>2024-10-07T02:56:53Z</time><name>1096</name><sym>Flag, Blue</sym></wpt><wpt lat="10.339952" lon="123.944497"><ele>20.029228</ele><time>2024-10-07T02:56:59Z</time><name>1097</name><sym>Flag, Blue</sym></wpt><wpt lat="10.340582" lon="123.944611"><ele>16.984022</ele><time>2024-10-07T02:57:39Z</time><name>1098</name><sym>Flag, Blue</sym></wpt><wpt lat="10.340617" lon="123.944629"><ele>18.098515</ele><time>2024-10-07T02:57:45Z</time><name>1099</name><sym>Flag, Blue</sym></wpt><wpt lat="10.340838" lon="123.944630"><ele>20.686382</ele><time>2024-10-07T02:58:05Z</time><name>1100</name><sym>Flag, Blue</sym></wpt><wpt lat="10.340961" lon="123.944486"><ele>20.469082</ele><time>2024-10-07T02:58:30Z</time><name>1101</name><sym>Flag, Blue</sym></wpt><wpt lat="10.341007" lon="123.944384"><ele>18.585318</ele><time>2024-10-07T02:58:44Z</time><name>1102</name><sym>Flag, Blue</sym></wpt><wpt lat="10.341835" lon="123.942462"><ele>22.769768</ele><time>2024-10-07T02:59:59Z</time><name>1103</name><sym>Flag, Blue</sym></wpt><wpt lat="10.342211" lon="123.941721"><ele>22.499744</ele><time>2024-10-07T03:01:14Z</time><name>1104</name><sym>Flag, Blue</sym></wpt><wpt lat="10.343522" lon="123.939944"><ele>20.203573</ele><time>2024-10-07T03:02:11Z</time><name>1105</name><sym>Flag, Blue</sym></wpt><wpt lat="10.344266" lon="123.938630"><ele>22.731873</ele><time>2024-10-07T03:03:10Z</time><name>1106</name><sym>Flag, Blue</sym></wpt><wpt lat="10.344462" lon="123.938252"><ele>29.077372</ele><time>2024-10-07T03:03:33Z</time><name>1107</name><sym>Flag, Blue</sym></wpt></gpx>