<?xml version="1.0" encoding="UTF-8" standalone="no" ?><gpx xmlns="http://www.topografix.com/GPX/1/1" xmlns:gpxx="http://www.garmin.com/xmlschemas/GpxExtensions/v3" xmlns:wptx1="http://www.garmin.com/xmlschemas/WaypointExtension/v1" xmlns:gpxtpx="http://www.garmin.com/xmlschemas/TrackPointExtension/v1" creator="eTrex 22x" version="1.1" xmlns:xsi="http://www.w3.org/2001/XMLSchema-instance" xsi:schemaLocation="http://www.topografix.com/GPX/1/1 http://www.topografix.com/GPX/1/1/gpx.xsd http://www.garmin.com/xmlschemas/GpxExtensions/v3 http://www8.garmin.com/xmlschemas/GpxExtensionsv3.xsd http://www.garmin.com/xmlschemas/TrackStatsExtension/v1 http://www8.garmin.com/xmlschemas/TrackStatsExtension.xsd http://www.garmin.com/xmlschemas/WaypointExtension/v1 http://www8.garmin.com/xmlschemas/WaypointExtensionv1.xsd http://www.garmin.com/xmlschemas/TrackPointExtension/v1 http://www.garmin.com/xmlschemas/TrackPointExtensionv1.xsd"><metadata><link href="http://www.garmin.com"><text>Garmin International</text></link><time>2024-08-16T02:21:28Z</time></metadata><wpt lat="10.350096" lon="123.922892"><ele>46.063976</ele><time>2024-08-16T02:21:28Z</time><name>214</name><sym>Flag, Blue</sym></wpt><wpt lat="10.349840" lon="123.922567"><ele>42.238811</ele><time>2024-08-16T02:22:43Z</time><name>215</name><sym>Flag, Blue</sym></wpt><wpt lat="10.349822" lon="123.922541"><ele>39.565235</ele><time>2024-08-16T02:23:06Z</time><name>216</name><sym>Flag, Blue</sym></wpt><wpt lat="10.349799" lon="123.922512"><ele>36.284466</ele><time>2024-08-16T02:23:33Z</time><name>217</name><sym>Flag, Blue</sym></wpt><wpt lat="10.349666" lon="123.922266"><ele>39.102196</ele><time>2024-08-16T02:24:28Z</time><name>218</name><sym>Flag, Blue</sym></wpt><wpt lat="10.349941" lon="123.921873"><ele>37.271812</ele><time>2024-08-16T02:26:08Z</time><name>219</name><sym>Flag, Blue</sym></wpt><wpt lat="10.350001" lon="123.921904"><ele>35.758003</ele><time>2024-08-16T02:26:31Z</time><name>220</name><sym>Flag, Blue</sym></wpt><wpt lat="10.349974" lon="123.921882"><ele>36.339447</ele><time>2024-08-16T02:26:43Z</time><name>221</name><sym>Flag, Blue</sym></wpt><wpt lat="10.349961" lon="123.921866"><ele>38.243698</ele><time>2024-08-16T02:26:55Z</time><name>222</name><sym>Flag, Blue</sym></wpt><wpt lat="10.349967" lon="123.921856"><ele>39.127151</ele><time>2024-08-16T02:27:05Z</time><name>223</name><sym>Flag, Blue</sym></wpt><wpt lat="10.349960" lon="123.921851"><ele>40.549210</ele><time>2024-08-16T02:27:17Z</time><name>224</name><sym>Flag, Blue</sym></wpt><wpt lat="10.349938" lon="123.921795"><ele>41.792702</ele><time>2024-08-16T02:27:32Z</time><name>225</name><sym>Flag, Blue</sym></wpt><wpt lat="10.349935" lon="123.921703"><ele>40.874535</ele><time>2024-08-16T02:27:55Z</time><name>226</name><sym>Flag, Blue</sym></wpt><wpt lat="10.349525" lon="123.920908"><ele>32.774582</ele><time>2024-08-16T02:29:34Z</time><name>227</name><sym>Flag, Blue</sym></wpt><wpt lat="10.349340" lon="123.920736"><ele>35.828613</ele><time>2024-08-16T02:30:38Z</time><name>228</name><sym>Flag, Blue</sym></wpt><wpt lat="10.349266" lon="123.920686"><ele>35.909531</ele><time>2024-08-16T02:31:15Z</time><name>229</name><sym>Flag, Blue</sym></wpt><wpt lat="10.349253" lon="123.920695"><ele>40.377838</ele><time>2024-08-16T02:31:39Z</time><name>230</name><sym>Flag, Blue</sym></wpt><wpt lat="10.349234" lon="123.920689"><ele>41.911846</ele><time>2024-08-16T02:31:50Z</time><name>231</name><sym>Flag, Blue</sym></wpt><wpt lat="10.349150" lon="123.920767"><ele>40.754314</ele><time>2024-08-16T02:32:19Z</time><name>232</name><sym>Flag, Blue</sym></wpt><wpt lat="10.349161" lon="123.920799"><ele>39.728542</ele><time>2024-08-16T02:32:32Z</time><name>233</name><sym>Flag, Blue</sym></wpt><wpt lat="10.349102" lon="123.920814"><ele>41.654293</ele><time>2024-08-16T02:32:47Z</time><name>234</name><sym>Flag, Blue</sym></wpt><wpt lat="10.349106" lon="123.920808"><ele>42.201595</ele><time>2024-08-16T02:32:59Z</time><name>235</name><sym>Flag, Blue</sym></wpt><wpt lat="10.349104" lon="123.920821"><ele>43.861553</ele><time>2024-08-16T02:33:08Z</time><name>236</name><sym>Flag, Blue</sym></wpt><wpt lat="10.349086" lon="123.920824"><ele>45.966839</ele><time>2024-08-16T02:33:25Z</time><name>237</name><sym>Flag, Blue</sym></wpt><wpt lat="10.348984" lon="123.920968"><ele>46.410652</ele><time>2024-08-16T02:33:57Z</time><name>238</name><sym>Flag, Blue</sym></wpt><wpt lat="10.348963" lon="123.921009"><ele>48.437088</ele><time>2024-08-16T02:34:13Z</time><name>239</name><sym>Flag, Blue</sym></wpt><wpt lat="10.348967" lon="123.921078"><ele>50.732880</ele><time>2024-08-16T02:34:31Z</time><name>240</name><sym>Flag, Blue</sym></wpt><wpt lat="10.348959" lon="123.921067"><ele>50.041424</ele><time>2024-08-16T02:34:42Z</time><name>241</name><sym>Flag, Blue</sym></wpt><wpt lat="10.348910" lon="123.921151"><ele>50.831806</ele><time>2024-08-16T02:35:06Z</time><name>242</name><sym>Flag, Blue</sym></wpt><wpt lat="10.348895" lon="123.921194"><ele>54.726772</ele><time>2024-08-16T02:35:20Z</time><name>243</name><sym>Flag, Blue</sym></wpt><wpt lat="10.348692" lon="123.921361"><ele>51.362534</ele><time>2024-08-16T02:35:52Z</time><name>244</name><sym>Flag, Blue</sym></wpt><wpt lat="10.348645" lon="123.921436"><ele>49.157562</ele><time>2024-08-16T02:36:14Z</time><name>245</name><sym>Flag, Blue</sym></wpt><wpt lat="10.348629" lon="123.921449"><ele>50.034149</ele><time>2024-08-16T02:36:29Z</time><name>246</name><sym>Flag, Blue</sym></wpt><wpt lat="10.348541" lon="123.921622"><ele>46.098690</ele><time>2024-08-16T02:36:57Z</time><name>247</name><sym>Flag, Blue</sym></wpt><wpt lat="10.348119" lon="123.921986"><ele>41.944622</ele><time>2024-08-16T02:38:15Z</time><name>248</name><sym>Flag, Blue</sym></wpt><wpt lat="10.348123" lon="123.921987"><ele>42.120007</ele><time>2024-08-16T02:38:22Z</time><name>249</name><sym>Flag, Blue</sym></wpt><wpt lat="10.348106" lon="123.922004"><ele>44.285397</ele><time>2024-08-16T02:38:36Z</time><name>250</name><sym>Flag, Blue</sym></wpt><wpt lat="10.348058" lon="123.921916"><ele>46.543949</ele><time>2024-08-16T02:39:06Z</time><name>251</name><sym>Flag, Blue</sym></wpt><wpt lat="10.348042" lon="123.921963"><ele>44.833088</ele><time>2024-08-16T02:39:25Z</time><name>252</name><sym>Flag, Blue</sym></wpt><wpt lat="10.347938" lon="123.922021"><ele>44.197327</ele><time>2024-08-16T02:39:43Z</time><name>253</name><sym>Flag, Blue</sym></wpt><wpt lat="10.347794" lon="123.922145"><ele>42.308052</ele><time>2024-08-16T02:40:26Z</time><name>254</name><sym>Flag, Blue</sym></wpt><wpt lat="10.347747" lon="123.922155"><ele>39.794411</ele><time>2024-08-16T02:40:49Z</time><name>255</name><sym>Flag, Blue</sym></wpt><wpt lat="10.347692" lon="123.922157"><ele>40.366615</ele><time>2024-08-16T02:41:10Z</time><name>256</name><sym>Flag, Blue</sym></wpt><wpt lat="10.347663" lon="123.922167"><ele>42.334351</ele><time>2024-08-16T02:41:24Z</time><name>257</name><sym>Flag, Blue</sym></wpt><wpt lat="10.347632" lon="123.922203"><ele>46.473808</ele><time>2024-08-16T02:41:41Z</time><name>258</name><sym>Flag, Blue</sym></wpt><wpt lat="10.347624" lon="123.922259"><ele>48.133499</ele><time>2024-08-16T02:42:06Z</time><name>259</name><sym>Flag, Blue</sym></wpt><wpt lat="10.346774" lon="123.922534"><ele>38.813560</ele><time>2024-08-16T02:45:48Z</time><name>260</name><sym>Flag, Blue</sym></wpt><wpt lat="10.346750" lon="123.922526"><ele>40.887566</ele><time>2024-08-16T02:46:08Z</time><name>261</name><sym>Flag, Blue</sym></wpt><wpt lat="10.346698" lon="123.922526"><ele>41.156273</ele><time>2024-08-16T02:46:37Z</time><name>262</name><sym>Flag, Blue</sym></wpt><wpt lat="10.346689" lon="123.922541"><ele>39.677723</ele><time>2024-08-16T02:46:56Z</time><name>263</name><sym>Flag, Blue</sym></wpt><wpt lat="10.346344" lon="123.922621"><ele>36.208717</ele><time>2024-08-16T02:53:04Z</time><name>264</name><sym>Flag, Blue</sym></wpt><wpt lat="10.346207" lon="123.922625"><ele>33.323540</ele><time>2024-08-16T02:53:48Z</time><name>265</name><sym>Flag, Blue</sym></wpt><wpt lat="10.346146" lon="123.922644"><ele>36.146996</ele><time>2024-08-16T02:54:08Z</time><name>266</name><sym>Flag, Blue</sym></wpt><wpt lat="10.345897" lon="123.922727"><ele>37.179813</ele><time>2024-08-16T02:54:52Z</time><name>267</name><sym>Flag, Blue</sym></wpt><wpt lat="10.345893" lon="123.922751"><ele>36.896717</ele><time>2024-08-16T02:55:16Z</time><name>268</name><sym>Flag, Blue</sym></wpt><wpt lat="10.344523" lon="123.921604"><ele>32.687519</ele><time>2024-08-16T02:58:38Z</time><name>269</name><sym>Flag, Blue</sym></wpt><wpt lat="10.344279" lon="123.921426"><ele>36.366196</ele><time>2024-08-16T02:59:24Z</time><name>270</name><sym>Flag, Blue</sym></wpt><wpt lat="10.343985" lon="123.921115"><ele>38.196751</ele><time>2024-08-16T03:00:34Z</time><name>271</name><sym>Flag, Blue</sym></wpt><wpt lat="10.343874" lon="123.921053"><ele>34.489983</ele><time>2024-08-16T03:01:05Z</time><name>272</name><sym>Flag, Blue</sym></wpt><wpt lat="10.343666" lon="123.920845"><ele>34.569771</ele><time>2024-08-16T03:01:45Z</time><name>273</name><sym>Flag, Blue</sym></wpt><wpt lat="10.343522" lon="123.920680"><ele>39.261757</ele><time>2024-08-16T03:02:35Z</time><name>274</name><sym>Flag, Blue</sym></wpt><wpt lat="10.343141" lon="123.920341"><ele>39.256172</ele><time>2024-08-16T03:03:30Z</time><name>275</name><sym>Flag, Blue</sym></wpt><wpt lat="10.343105" lon="123.920302"><ele>38.563297</ele><time>2024-08-16T03:04:21Z</time><name>276</name><sym>Flag, Blue</sym></wpt><wpt lat="10.342421" lon="123.920197"><ele>38.996910</ele><time>2024-08-16T03:05:46Z</time><name>277</name><sym>Flag, Blue</sym></wpt><wpt lat="10.342370" lon="123.920185"><ele>39.007988</ele><time>2024-08-16T03:06:30Z</time><name>278</name><sym>Flag, Blue</sym></wpt><wpt lat="10.342370" lon="123.920183"><ele>39.134697</ele><time>2024-08-16T03:06:39Z</time><name>279</name><sym>Flag, Blue</sym></wpt><wpt lat="10.342279" lon="123.920116"><ele>34.398685</ele><time>2024-08-16T03:07:04Z</time><name>280</name><sym>Flag, Blue</sym></wpt><wpt lat="10.342241" lon="123.920106"><ele>36.201283</ele><time>2024-08-16T03:07:35Z</time><name>281</name><sym>Flag, Blue</sym></wpt><wpt lat="10.342208" lon="123.920100"><ele>35.978172</ele><time>2024-08-16T03:07:47Z</time><name>282</name><sym>Flag, Blue</sym></wpt><wpt lat="10.342194" lon="123.920092"><ele>36.590866</ele><time>2024-08-16T03:08:00Z</time><name>283</name><sym>Flag, Blue</sym></wpt><wpt lat="10.342202" lon="123.920079"><ele>36.825768</ele><time>2024-08-16T03:08:10Z</time><name>284</name><sym>Flag, Blue</sym></wpt><wpt lat="10.342177" lon="123.920068"><ele>36.216019</ele><time>2024-08-16T03:08:25Z</time><name>285</name><sym>Flag, Blue</sym></wpt><wpt lat="10.342171" lon="123.920054"><ele>36.586906</ele><time>2024-08-16T03:08:37Z</time><name>286</name><sym>Flag, Blue</sym></wpt><wpt lat="10.342172" lon="123.920056"><ele>36.988102</ele><time>2024-08-16T03:08:46Z</time><name>287</name><sym>Flag, Blue</sym></wpt><wpt lat="10.341831" lon="123.919938"><ele>33.514351</ele><time>2024-08-16T03:09:44Z</time><name>288</name><sym>Flag, Blue</sym></wpt><wpt lat="10.341766" lon="123.919904"><ele>34.090263</ele><time>2024-08-16T03:10:25Z</time><name>289</name><sym>Flag, Blue</sym></wpt><wpt lat="10.341728" lon="123.919853"><ele>32.176445</ele><time>2024-08-16T03:10:40Z</time><name>290</name><sym>Flag, Blue</sym></wpt><wpt lat="10.341718" lon="123.919844"><ele>33.894169</ele><time>2024-08-16T03:10:57Z</time><name>291</name><sym>Flag, Blue</sym></wpt><wpt lat="10.341698" lon="123.919842"><ele>35.053638</ele><time>2024-08-16T03:11:10Z</time><name>292</name><sym>Flag, Blue</sym></wpt><wpt lat="10.341676" lon="123.919828"><ele>36.188511</ele><time>2024-08-16T03:11:22Z</time><name>293</name><sym>Flag, Blue</sym></wpt><wpt lat="10.341624" lon="123.919788"><ele>35.816029</ele><time>2024-08-16T03:11:42Z</time><name>294</name><sym>Flag, Blue</sym></wpt><wpt lat="10.341581" lon="123.919734"><ele>35.285503</ele><time>2024-08-16T03:11:54Z</time><name>295</name><sym>Flag, Blue</sym></wpt><wpt lat="10.341502" lon="123.919703"><ele>33.663380</ele><time>2024-08-16T03:12:16Z</time><name>296</name><sym>Flag, Blue</sym></wpt><wpt lat="10.341493" lon="123.919719"><ele>33.207466</ele><time>2024-08-16T03:12:46Z</time><name>297</name><sym>Flag, Blue</sym></wpt><wpt lat="10.341507" lon="123.919729"><ele>33.810371</ele><time>2024-08-16T03:12:58Z</time><name>298</name><sym>Flag, Blue</sym></wpt><wpt lat="10.341275" lon="123.919611"><ele>28.853035</ele><time>2024-08-16T03:13:47Z</time><name>299</name><sym>Flag, Blue</sym></wpt><wpt lat="10.341223" lon="123.919722"><ele>28.201599</ele><time>2024-08-16T03:14:12Z</time><name>300</name><sym>Flag, Blue</sym></wpt></gpx>