<?xml version="1.0" encoding="UTF-8" standalone="no" ?><gpx xmlns="http://www.topografix.com/GPX/1/1" xmlns:gpxx="http://www.garmin.com/xmlschemas/GpxExtensions/v3" xmlns:wptx1="http://www.garmin.com/xmlschemas/WaypointExtension/v1" xmlns:gpxtpx="http://www.garmin.com/xmlschemas/TrackPointExtension/v1" creator="eTrex 22x" version="1.1" xmlns:xsi="http://www.w3.org/2001/XMLSchema-instance" xsi:schemaLocation="http://www.topografix.com/GPX/1/1 http://www.topografix.com/GPX/1/1/gpx.xsd http://www.garmin.com/xmlschemas/GpxExtensions/v3 http://www8.garmin.com/xmlschemas/GpxExtensionsv3.xsd http://www.garmin.com/xmlschemas/TrackStatsExtension/v1 http://www8.garmin.com/xmlschemas/TrackStatsExtension.xsd http://www.garmin.com/xmlschemas/WaypointExtension/v1 http://www8.garmin.com/xmlschemas/WaypointExtensionv1.xsd http://www.garmin.com/xmlschemas/TrackPointExtension/v1 http://www.garmin.com/xmlschemas/TrackPointExtensionv1.xsd"><metadata><link href="http://www.garmin.com"><text>Garmin International</text></link><time>2024-08-14T02:27:54Z</time></metadata><wpt lat="10.339535" lon="123.922603"><ele>62.040676</ele><time>2024-08-14T02:27:54Z</time><name>136</name><sym>Flag, Blue</sym></wpt><wpt lat="10.339485" lon="123.922589"><ele>59.833958</ele><time>2024-08-14T02:28:20Z</time><name>137</name><sym>Flag, Blue</sym></wpt><wpt lat="10.339330" lon="123.922597"><ele>58.534313</ele><time>2024-08-14T02:28:54Z</time><name>138</name><sym>Flag, Blue</sym></wpt><wpt lat="10.339294" lon="123.922576"><ele>58.854847</ele><time>2024-08-14T02:29:27Z</time><name>139</name><sym>Flag, Blue</sym></wpt><wpt lat="10.339261" lon="123.922558"><ele>54.838043</ele><time>2024-08-14T02:29:49Z</time><name>140</name><sym>Flag, Blue</sym></wpt><wpt lat="10.339247" lon="123.922544"><ele>53.080452</ele><time>2024-08-14T02:30:03Z</time><name>141</name><sym>Flag, Blue</sym></wpt><wpt lat="10.339233" lon="123.922562"><ele>51.330460</ele><time>2024-08-14T02:30:17Z</time><name>142</name><sym>Flag, Blue</sym></wpt><wpt lat="10.339173" lon="123.922551"><ele>51.230232</ele><time>2024-08-14T02:30:34Z</time><name>143</name><sym>Flag, Blue</sym></wpt><wpt lat="10.339171" lon="123.922570"><ele>49.420712</ele><time>2024-08-14T02:30:53Z</time><name>144</name><sym>Flag, Blue</sym></wpt><wpt lat="10.339172" lon="123.922561"><ele>46.709347</ele><time>2024-08-14T02:31:05Z</time><name>145</name><sym>Flag, Blue</sym></wpt><wpt lat="10.339165" lon="123.922566"><ele>46.188427</ele><time>2024-08-14T02:31:17Z</time><name>146</name><sym>Flag, Blue</sym></wpt><wpt lat="10.339168" lon="123.922535"><ele>44.684956</ele><time>2024-08-14T02:31:29Z</time><name>147</name><sym>Flag, Blue</sym></wpt><wpt lat="10.339147" lon="123.922537"><ele>43.383343</ele><time>2024-08-14T02:31:39Z</time><name>148</name><sym>Flag, Blue</sym></wpt><wpt lat="10.339143" lon="123.922523"><ele>43.145573</ele><time>2024-08-14T02:31:49Z</time><name>149</name><sym>Flag, Blue</sym></wpt><wpt lat="10.339139" lon="123.922511"><ele>43.332172</ele><time>2024-08-14T02:31:59Z</time><name>150</name><sym>Flag, Blue</sym></wpt><wpt lat="10.339134" lon="123.922512"><ele>43.667141</ele><time>2024-08-14T02:32:15Z</time><name>151</name><sym>Flag, Blue</sym></wpt><wpt lat="10.339132" lon="123.922537"><ele>45.020470</ele><time>2024-08-14T02:32:47Z</time><name>152</name><sym>Flag, Blue</sym></wpt><wpt lat="10.339086" lon="123.922548"><ele>42.021645</ele><time>2024-08-14T02:33:00Z</time><name>153</name><sym>Flag, Blue</sym></wpt><wpt lat="10.339071" lon="123.922528"><ele>40.563393</ele><time>2024-08-14T02:33:15Z</time><name>154</name><sym>Flag, Blue</sym></wpt><wpt lat="10.339242" lon="123.922588"><ele>37.332527</ele><time>2024-08-14T02:34:03Z</time><name>155</name><sym>Flag, Blue</sym></wpt><wpt lat="10.340191" lon="123.922996"><ele>31.472248</ele><time>2024-08-14T02:37:20Z</time><name>156</name><sym>Flag, Blue</sym></wpt><wpt lat="10.340303" lon="123.923052"><ele>36.312820</ele><time>2024-08-14T02:38:12Z</time><name>157</name><sym>Flag, Blue</sym></wpt><wpt lat="10.340981" lon="123.923341"><ele>33.777069</ele><time>2024-08-14T02:39:49Z</time><name>158</name><sym>Flag, Blue</sym></wpt><wpt lat="10.341057" lon="123.923391"><ele>30.349136</ele><time>2024-08-14T02:40:14Z</time><name>159</name><sym>Flag, Blue</sym></wpt><wpt lat="10.341778" lon="123.923621"><ele>40.456734</ele><time>2024-08-14T02:46:41Z</time><name>160</name><sym>Flag, Blue</sym></wpt><wpt lat="10.341781" lon="123.923633"><ele>39.959496</ele><time>2024-08-14T02:47:03Z</time><name>161</name><sym>Flag, Blue</sym></wpt><wpt lat="10.341803" lon="123.923655"><ele>39.879486</ele><time>2024-08-14T02:47:30Z</time><name>162</name><sym>Flag, Blue</sym></wpt><wpt lat="10.341813" lon="123.923655"><ele>38.184311</ele><time>2024-08-14T02:47:57Z</time><name>163</name><sym>Flag, Blue</sym></wpt><wpt lat="10.341786" lon="123.923745"><ele>35.667847</ele><time>2024-08-14T02:48:26Z</time><name>164</name><sym>Flag, Blue</sym></wpt><wpt lat="10.341765" lon="123.924160"><ele>45.011196</ele><time>2024-08-14T02:50:47Z</time><name>165</name><sym>Flag, Blue</sym></wpt><wpt lat="10.341726" lon="123.924181"><ele>41.445904</ele><time>2024-08-14T02:51:11Z</time><name>166</name><sym>Flag, Blue</sym></wpt><wpt lat="10.341726" lon="123.924204"><ele>39.773190</ele><time>2024-08-14T02:51:25Z</time><name>167</name><sym>Flag, Blue</sym></wpt><wpt lat="10.341699" lon="123.924209"><ele>39.482143</ele><time>2024-08-14T02:51:39Z</time><name>168</name><sym>Flag, Blue</sym></wpt><wpt lat="10.341657" lon="123.924372"><ele>40.628685</ele><time>2024-08-14T02:55:39Z</time><name>169</name><sym>Flag, Blue</sym></wpt><wpt lat="10.341636" lon="123.924411"><ele>35.609341</ele><time>2024-08-14T02:56:22Z</time><name>170</name><sym>Flag, Blue</sym></wpt><wpt lat="10.341621" lon="123.924436"><ele>35.388500</ele><time>2024-08-14T02:56:35Z</time><name>171</name><sym>Flag, Blue</sym></wpt><wpt lat="10.341515" lon="123.924312"><ele>34.570858</ele><time>2024-08-14T02:58:32Z</time><name>172</name><sym>Flag, Blue</sym></wpt><wpt lat="10.341508" lon="123.924287"><ele>36.269955</ele><time>2024-08-14T02:58:52Z</time><name>173</name><sym>Flag, Blue</sym></wpt><wpt lat="10.341528" lon="123.924187"><ele>39.261959</ele><time>2024-08-14T02:59:25Z</time><name>174</name><sym>Flag, Blue</sym></wpt><wpt lat="10.341570" lon="123.924182"><ele>40.502064</ele><time>2024-08-14T02:59:42Z</time><name>175</name><sym>Flag, Blue</sym></wpt><wpt lat="10.341602" lon="123.924108"><ele>37.207020</ele><time>2024-08-14T03:00:25Z</time><name>176</name><sym>Flag, Blue</sym></wpt><wpt lat="10.338641" lon="123.921227"><ele>41.321632</ele><time>2024-08-14T03:45:06Z</time><name>177</name><sym>Flag, Blue</sym></wpt><wpt lat="10.338629" lon="123.921270"><ele>35.176273</ele><time>2024-08-14T03:45:40Z</time><name>178</name><sym>Flag, Blue</sym></wpt><wpt lat="10.338642" lon="123.921324"><ele>33.951176</ele><time>2024-08-14T03:46:09Z</time><name>179</name><sym>Flag, Blue</sym></wpt><wpt lat="10.338597" lon="123.921366"><ele>31.967014</ele><time>2024-08-14T03:46:29Z</time><name>180</name><sym>Flag, Blue</sym></wpt><wpt lat="10.338557" lon="123.921513"><ele>32.445141</ele><time>2024-08-14T03:46:59Z</time><name>181</name><sym>Flag, Blue</sym></wpt><wpt lat="10.338505" lon="123.921632"><ele>32.519539</ele><time>2024-08-14T03:47:27Z</time><name>182</name><sym>Flag, Blue</sym></wpt><wpt lat="10.338506" lon="123.921730"><ele>31.902840</ele><time>2024-08-14T03:47:55Z</time><name>183</name><sym>Flag, Blue</sym></wpt><wpt lat="10.338428" lon="123.921991"><ele>29.772499</ele><time>2024-08-14T03:48:38Z</time><name>184</name><sym>Flag, Blue</sym></wpt><wpt lat="10.338295" lon="123.922638"><ele>34.887779</ele><time>2024-08-14T03:50:18Z</time><name>185</name><sym>Flag, Blue</sym></wpt><wpt lat="10.338296" lon="123.922637"><ele>35.443977</ele><time>2024-08-14T03:50:44Z</time><name>186</name><sym>Flag, Blue</sym></wpt><wpt lat="10.338142" lon="123.923197"><ele>35.030918</ele><time>2024-08-14T03:51:57Z</time><name>187</name><sym>Flag, Blue</sym></wpt><wpt lat="10.338169" lon="123.923312"><ele>34.209259</ele><time>2024-08-14T03:52:40Z</time><name>188</name><sym>Flag, Blue</sym></wpt><wpt lat="10.338086" lon="123.923338"><ele>33.238617</ele><time>2024-08-14T03:53:05Z</time><name>189</name><sym>Flag, Blue</sym></wpt><wpt lat="10.338045" lon="123.923704"><ele>37.548454</ele><time>2024-08-14T03:53:55Z</time><name>190</name><sym>Flag, Blue</sym></wpt><wpt lat="10.338059" lon="123.923791"><ele>38.870182</ele><time>2024-08-14T03:54:23Z</time><name>191</name><sym>Flag, Blue</sym></wpt><wpt lat="10.338027" lon="123.923905"><ele>44.888897</ele><time>2024-08-14T03:55:02Z</time><name>192</name><sym>Flag, Blue</sym></wpt><wpt lat="10.338041" lon="123.923895"><ele>44.530907</ele><time>2024-08-14T03:55:24Z</time><name>193</name><sym>Flag, Blue</sym></wpt><wpt lat="10.338013" lon="123.923952"><ele>42.812752</ele><time>2024-08-14T03:55:51Z</time><name>194</name><sym>Flag, Blue</sym></wpt><wpt lat="10.340802" lon="123.924961"><ele>28.043270</ele><time>2024-08-14T06:35:13Z</time><name>195</name><sym>Flag, Blue</sym></wpt><wpt lat="10.340640" lon="123.924939"><ele>28.195770</ele><time>2024-08-14T06:36:06Z</time><name>196</name><sym>Flag, Blue</sym></wpt><wpt lat="10.340552" lon="123.924865"><ele>27.008480</ele><time>2024-08-14T06:36:46Z</time><name>197</name><sym>Flag, Blue</sym></wpt><wpt lat="10.340557" lon="123.924878"><ele>26.194927</ele><time>2024-08-14T06:37:04Z</time><name>198</name><sym>Flag, Blue</sym></wpt><wpt lat="10.340597" lon="123.925062"><ele>29.072842</ele><time>2024-08-14T06:37:46Z</time><name>199</name><sym>Flag, Blue</sym></wpt><wpt lat="10.340528" lon="123.925029"><ele>30.177753</ele><time>2024-08-14T06:38:18Z</time><name>200</name><sym>Flag, Blue</sym></wpt><wpt lat="10.340349" lon="123.924898"><ele>29.348660</ele><time>2024-08-14T06:39:12Z</time><name>201</name><sym>Flag, Blue</sym></wpt><wpt lat="10.339305" lon="123.924564"><ele>23.746162</ele><time>2024-08-14T06:41:23Z</time><name>202</name><sym>Flag, Blue</sym></wpt><wpt lat="10.338783" lon="123.924450"><ele>30.550350</ele><time>2024-08-14T06:42:20Z</time><name>203</name><sym>Flag, Blue</sym></wpt><wpt lat="10.338864" lon="123.924588"><ele>35.462471</ele><time>2024-08-14T06:43:18Z</time><name>204</name><sym>Flag, Blue</sym></wpt><wpt lat="10.339156" lon="123.924628"><ele>34.512520</ele><time>2024-08-14T06:44:25Z</time><name>205</name><sym>Flag, Blue</sym></wpt><wpt lat="10.339571" lon="123.924216"><ele>25.046085</ele><time>2024-08-14T06:56:11Z</time><name>206</name><sym>Flag, Blue</sym></wpt><wpt lat="10.339649" lon="123.924050"><ele>30.531139</ele><time>2024-08-14T06:56:52Z</time><name>207</name><sym>Flag, Blue</sym></wpt><wpt lat="10.339651" lon="123.924038"><ele>31.231136</ele><time>2024-08-14T06:57:04Z</time><name>208</name><sym>Flag, Blue</sym></wpt><wpt lat="10.339655" lon="123.924024"><ele>31.825092</ele><time>2024-08-14T06:57:15Z</time><name>209</name><sym>Flag, Blue</sym></wpt><wpt lat="10.339653" lon="123.924007"><ele>32.903057</ele><time>2024-08-14T06:57:33Z</time><name>210</name><sym>Flag, Blue</sym></wpt><wpt lat="10.339666" lon="123.923961"><ele>35.722473</ele><time>2024-08-14T06:57:55Z</time><name>211</name><sym>Flag, Blue</sym></wpt><wpt lat="10.339760" lon="123.923722"><ele>28.816051</ele><time>2024-08-14T07:38:11Z</time><name>212</name><sym>Flag, Blue</sym></wpt><wpt lat="10.340140" lon="123.922685"><ele>55.669949</ele><time>2024-08-14T07:38:37Z</time><name>213</name><sym>Flag, Blue</sym></wpt></gpx>