<?xml version="1.0" encoding="UTF-8" standalone="no" ?><gpx xmlns="http://www.topografix.com/GPX/1/1" xmlns:gpxx="http://www.garmin.com/xmlschemas/GpxExtensions/v3" xmlns:wptx1="http://www.garmin.com/xmlschemas/WaypointExtension/v1" xmlns:gpxtpx="http://www.garmin.com/xmlschemas/TrackPointExtension/v1" creator="eTrex 22x" version="1.1" xmlns:xsi="http://www.w3.org/2001/XMLSchema-instance" xsi:schemaLocation="http://www.topografix.com/GPX/1/1 http://www.topografix.com/GPX/1/1/gpx.xsd http://www.garmin.com/xmlschemas/GpxExtensions/v3 http://www8.garmin.com/xmlschemas/GpxExtensionsv3.xsd http://www.garmin.com/xmlschemas/TrackStatsExtension/v1 http://www8.garmin.com/xmlschemas/TrackStatsExtension.xsd http://www.garmin.com/xmlschemas/WaypointExtension/v1 http://www8.garmin.com/xmlschemas/WaypointExtensionv1.xsd http://www.garmin.com/xmlschemas/TrackPointExtension/v1 http://www.garmin.com/xmlschemas/TrackPointExtensionv1.xsd"><metadata><link href="http://www.garmin.com"><text>Garmin International</text></link><time>2024-08-29T01:45:23Z</time></metadata><wpt lat="10.356533" lon="123.940896"><ele>41.541355</ele><time>2024-08-29T01:45:23Z</time><name>1012</name><sym>Flag, Blue</sym></wpt><wpt lat="10.355921" lon="123.941847"><ele>48.095299</ele><time>2024-08-29T01:48:09Z</time><name>1013</name><sym>Flag, Blue</sym></wpt><wpt lat="10.355879" lon="123.941824"><ele>48.883411</ele><time>2024-08-29T01:48:19Z</time><name>1014</name><sym>Flag, Blue</sym></wpt><wpt lat="10.355861" lon="123.941821"><ele>51.058823</ele><time>2024-08-29T01:48:56Z</time><name>1015</name><sym>Flag, Blue</sym></wpt><wpt lat="10.356327" lon="123.942088"><ele>35.594597</ele><time>2024-08-29T01:51:01Z</time><name>1016</name><sym>Flag, Blue</sym></wpt><wpt lat="10.356492" lon="123.942086"><ele>36.208691</ele><time>2024-08-29T01:51:42Z</time><name>1017</name><sym>Flag, Blue</sym></wpt><wpt lat="10.356603" lon="123.942122"><ele>36.532742</ele><time>2024-08-29T01:52:04Z</time><name>1018</name><sym>Flag, Blue</sym></wpt><wpt lat="10.356615" lon="123.942120"><ele>36.840221</ele><time>2024-08-29T01:52:15Z</time><name>1019</name><sym>Flag, Blue</sym></wpt><wpt lat="10.356644" lon="123.942176"><ele>36.087597</ele><time>2024-08-29T01:52:48Z</time><name>1020</name><sym>Flag, Blue</sym></wpt><wpt lat="10.356695" lon="123.942202"><ele>35.440884</ele><time>2024-08-29T01:53:12Z</time><name>1021</name><sym>Flag, Blue</sym></wpt><wpt lat="10.356716" lon="123.942205"><ele>35.133762</ele><time>2024-08-29T01:53:20Z</time><name>1022</name><sym>Flag, Blue</sym></wpt><wpt lat="10.356716" lon="123.942201"><ele>34.616421</ele><time>2024-08-29T01:53:24Z</time><name>1023</name><sym>Flag, Blue</sym></wpt><wpt lat="10.356860" lon="123.942291"><ele>30.597305</ele><time>2024-08-29T01:54:39Z</time><name>1024</name><sym>Flag, Blue</sym></wpt><wpt lat="10.355962" lon="123.948939"><ele>26.270416</ele><time>2024-08-29T02:00:23Z</time><name>1025</name><sym>Flag, Blue</sym></wpt><wpt lat="10.355960" lon="123.948927"><ele>26.435074</ele><time>2024-08-29T02:00:39Z</time><name>1026</name><sym>Flag, Blue</sym></wpt><wpt lat="10.355882" lon="123.948866"><ele>26.993904</ele><time>2024-08-29T02:01:25Z</time><name>1027</name><sym>Flag, Blue</sym></wpt><wpt lat="10.355828" lon="123.948878"><ele>24.324795</ele><time>2024-08-29T02:01:43Z</time><name>1028</name><sym>Flag, Blue</sym></wpt><wpt lat="10.355821" lon="123.948901"><ele>26.184353</ele><time>2024-08-29T02:02:05Z</time><name>1029</name><sym>Flag, Blue</sym></wpt><wpt lat="10.355820" lon="123.948913"><ele>26.832294</ele><time>2024-08-29T02:02:14Z</time><name>1030</name><sym>Flag, Blue</sym></wpt><wpt lat="10.355834" lon="123.948886"><ele>24.569244</ele><time>2024-08-29T02:02:41Z</time><name>1031</name><sym>Flag, Blue</sym></wpt><wpt lat="10.355969" lon="123.948571"><ele>27.267635</ele><time>2024-08-29T02:04:01Z</time><name>1032</name><sym>Flag, Blue</sym></wpt><wpt lat="10.356106" lon="123.948332"><ele>23.303097</ele><time>2024-08-29T02:05:21Z</time><name>1033</name><sym>Flag, Blue</sym></wpt><wpt lat="10.356116" lon="123.948317"><ele>24.421749</ele><time>2024-08-29T02:05:31Z</time><name>1034</name><sym>Flag, Blue</sym></wpt><wpt lat="10.356120" lon="123.948307"><ele>24.712244</ele><time>2024-08-29T02:05:36Z</time><name>1035</name><sym>Flag, Blue</sym></wpt><wpt lat="10.356143" lon="123.948237"><ele>27.363289</ele><time>2024-08-29T02:06:04Z</time><name>1036</name><sym>Flag, Blue</sym></wpt><wpt lat="10.356131" lon="123.948216"><ele>29.614227</ele><time>2024-08-29T02:06:23Z</time><name>1037</name><sym>Flag, Blue</sym></wpt><wpt lat="10.356084" lon="123.948207"><ele>30.188303</ele><time>2024-08-29T02:06:53Z</time><name>1038</name><sym>Flag, Blue</sym></wpt><wpt lat="10.356096" lon="123.948178"><ele>29.802353</ele><time>2024-08-29T02:07:00Z</time><name>1039</name><sym>Flag, Blue</sym></wpt><wpt lat="10.356101" lon="123.948138"><ele>29.771894</ele><time>2024-08-29T02:07:10Z</time><name>1040</name><sym>Flag, Blue</sym></wpt><wpt lat="10.356112" lon="123.947809"><ele>33.641422</ele><time>2024-08-29T02:08:50Z</time><name>1041</name><sym>Flag, Blue</sym></wpt><wpt lat="10.356185" lon="123.947750"><ele>30.621840</ele><time>2024-08-29T02:09:17Z</time><name>1042</name><sym>Flag, Blue</sym></wpt><wpt lat="10.356106" lon="123.947298"><ele>33.545265</ele><time>2024-08-29T02:10:31Z</time><name>1043</name><sym>Flag, Blue</sym></wpt><wpt lat="10.356170" lon="123.947420"><ele>35.262882</ele><time>2024-08-29T02:10:59Z</time><name>1044</name><sym>Flag, Blue</sym></wpt><wpt lat="10.356135" lon="123.947397"><ele>35.479893</ele><time>2024-08-29T02:11:12Z</time><name>1045</name><sym>Flag, Blue</sym></wpt><wpt lat="10.356083" lon="123.947153"><ele>34.784229</ele><time>2024-08-29T02:12:14Z</time><name>1046</name><sym>Flag, Blue</sym></wpt><wpt lat="10.356154" lon="123.947151"><ele>35.629780</ele><time>2024-08-29T02:13:20Z</time><name>1047</name><sym>Flag, Blue</sym></wpt><wpt lat="10.356955" lon="123.944485"><ele>29.197725</ele><time>2024-08-29T02:15:52Z</time><name>1048</name><sym>Flag, Blue</sym></wpt><wpt lat="10.356962" lon="123.944466"><ele>28.935101</ele><time>2024-08-29T02:16:07Z</time><name>1049</name><sym>Flag, Blue</sym></wpt><wpt lat="10.357233" lon="123.943486"><ele>32.949986</ele><time>2024-08-29T02:18:23Z</time><name>1050</name><sym>Flag, Blue</sym></wpt><wpt lat="10.357278" lon="123.943368"><ele>33.099236</ele><time>2024-08-29T02:18:48Z</time><name>1051</name><sym>Flag, Blue</sym></wpt><wpt lat="10.357308" lon="123.943170"><ele>33.769825</ele><time>2024-08-29T02:19:16Z</time><name>1052</name><sym>Flag, Blue</sym></wpt><wpt lat="10.357330" lon="123.943116"><ele>32.430542</ele><time>2024-08-29T02:19:44Z</time><name>1053</name><sym>Flag, Blue</sym></wpt><wpt lat="10.357346" lon="123.943087"><ele>33.460102</ele><time>2024-08-29T02:19:51Z</time><name>1054</name><sym>Flag, Blue</sym></wpt><wpt lat="10.357407" lon="123.943107"><ele>35.019279</ele><time>2024-08-29T02:21:06Z</time><name>1055</name><sym>Flag, Blue</sym></wpt><wpt lat="10.357818" lon="123.942642"><ele>36.234623</ele><time>2024-08-29T02:22:08Z</time><name>1056</name><sym>Flag, Blue</sym></wpt><wpt lat="10.358069" lon="123.942459"><ele>32.713383</ele><time>2024-08-29T02:23:16Z</time><name>1057</name><sym>Flag, Blue</sym></wpt><wpt lat="10.358251" lon="123.942254"><ele>34.836399</ele><time>2024-08-29T02:24:00Z</time><name>1058</name><sym>Flag, Blue</sym></wpt><wpt lat="10.358238" lon="123.942241"><ele>35.161892</ele><time>2024-08-29T02:24:06Z</time><name>1059</name><sym>Flag, Blue</sym></wpt><wpt lat="10.358254" lon="123.942226"><ele>35.548977</ele><time>2024-08-29T02:24:11Z</time><name>1060</name><sym>Flag, Blue</sym></wpt><wpt lat="10.358419" lon="123.941923"><ele>39.545197</ele><time>2024-08-29T02:24:56Z</time><name>1061</name><sym>Flag, Blue</sym></wpt><wpt lat="10.358553" lon="123.940992"><ele>49.260593</ele><time>2024-08-29T02:26:54Z</time><name>1062</name><sym>Flag, Blue</sym></wpt><wpt lat="10.358584" lon="123.940812"><ele>52.455067</ele><time>2024-08-29T02:27:28Z</time><name>1063</name><sym>Flag, Blue</sym></wpt><wpt lat="10.358577" lon="123.940686"><ele>48.881817</ele><time>2024-08-29T02:27:51Z</time><name>1064</name><sym>Flag, Blue</sym></wpt><wpt lat="10.358591" lon="123.940696"><ele>48.974194</ele><time>2024-08-29T02:28:23Z</time><name>1065</name><sym>Flag, Blue</sym></wpt><wpt lat="10.358744" lon="123.940419"><ele>48.719025</ele><time>2024-08-29T02:29:04Z</time><name>1066</name><sym>Flag, Blue</sym></wpt><wpt lat="10.359216" lon="123.940018"><ele>46.281704</ele><time>2024-08-29T02:30:39Z</time><name>1067</name><sym>Flag, Blue</sym></wpt><wpt lat="10.359222" lon="123.940023"><ele>46.069653</ele><time>2024-08-29T02:30:43Z</time><name>1068</name><sym>Flag, Blue</sym></wpt><wpt lat="10.359259" lon="123.940009"><ele>45.347614</ele><time>2024-08-29T02:30:56Z</time><name>1069</name><sym>Flag, Blue</sym></wpt><wpt lat="10.359458" lon="123.939928"><ele>46.014702</ele><time>2024-08-29T02:32:10Z</time><name>1070</name><sym>Flag, Blue</sym></wpt><wpt lat="10.359553" lon="123.939935"><ele>42.124134</ele><time>2024-08-29T02:32:41Z</time><name>1071</name><sym>Flag, Blue</sym></wpt><wpt lat="10.359597" lon="123.939917"><ele>41.130657</ele><time>2024-08-29T02:32:51Z</time><name>1072</name><sym>Flag, Blue</sym></wpt><wpt lat="10.360454" lon="123.939015"><ele>39.066833</ele><time>2024-08-29T02:36:34Z</time><name>1073</name><sym>Flag, Blue</sym></wpt><wpt lat="10.360415" lon="123.938970"><ele>35.829571</ele><time>2024-08-29T02:36:54Z</time><name>1074</name><sym>Flag, Blue</sym></wpt><wpt lat="10.360519" lon="123.938809"><ele>36.188934</ele><time>2024-08-29T02:39:10Z</time><name>1075</name><sym>Flag, Blue</sym></wpt><wpt lat="10.360618" lon="123.938643"><ele>33.494366</ele><time>2024-08-29T02:39:44Z</time><name>1076</name><sym>Flag, Blue</sym></wpt><wpt lat="10.362514" lon="123.938041"><ele>43.627117</ele><time>2024-08-29T02:43:05Z</time><name>1077</name><sym>Flag, Blue</sym></wpt><wpt lat="10.362529" lon="123.938081"><ele>43.348537</ele><time>2024-08-29T02:43:25Z</time><name>1078</name><sym>Flag, Blue</sym></wpt><wpt lat="10.362414" lon="123.938496"><ele>34.449699</ele><time>2024-08-29T02:44:54Z</time><name>1079</name><sym>Flag, Blue</sym></wpt><wpt lat="10.362381" lon="123.938592"><ele>36.575356</ele><time>2024-08-29T02:45:20Z</time><name>1080</name><sym>Flag, Blue</sym></wpt><wpt lat="10.362232" lon="123.938907"><ele>33.283001</ele><time>2024-08-29T02:46:05Z</time><name>1081</name><sym>Flag, Blue</sym></wpt><wpt lat="10.362209" lon="123.938925"><ele>27.842646</ele><time>2024-08-29T02:46:28Z</time><name>1082</name><sym>Flag, Blue</sym></wpt><wpt lat="10.362235" lon="123.938855"><ele>27.289734</ele><time>2024-08-29T02:47:09Z</time><name>1083</name><sym>Flag, Blue</sym></wpt><wpt lat="10.362235" lon="123.938848"><ele>28.805687</ele><time>2024-08-29T02:47:15Z</time><name>1084</name><sym>Flag, Blue</sym></wpt><wpt lat="10.362153" lon="123.938849"><ele>31.447781</ele><time>2024-08-29T02:47:50Z</time><name>1085</name><sym>Flag, Blue</sym></wpt><wpt lat="10.362177" lon="123.938995"><ele>32.067204</ele><time>2024-08-29T02:48:22Z</time><name>1086</name><sym>Flag, Blue</sym></wpt><wpt lat="10.362195" lon="123.939044"><ele>31.895676</ele><time>2024-08-29T02:48:34Z</time><name>1087</name><sym>Flag, Blue</sym></wpt><wpt lat="10.362200" lon="123.939042"><ele>32.703423</ele><time>2024-08-29T02:48:41Z</time><name>1088</name><sym>Flag, Blue</sym></wpt><wpt lat="10.362338" lon="123.939562"><ele>28.919300</ele><time>2024-08-29T02:50:19Z</time><name>1089</name><sym>Flag, Blue</sym></wpt><wpt lat="10.362271" lon="123.939568"><ele>31.242695</ele><time>2024-08-29T02:50:39Z</time><name>1090</name><sym>Flag, Blue</sym></wpt><wpt lat="10.362257" lon="123.939596"><ele>31.717823</ele><time>2024-08-29T02:50:49Z</time><name>1091</name><sym>Flag, Blue</sym></wpt><wpt lat="10.362253" lon="123.939605"><ele>33.579365</ele><time>2024-08-29T02:51:00Z</time><name>1092</name><sym>Flag, Blue</sym></wpt><wpt lat="10.362211" lon="123.939663"><ele>30.519037</ele><time>2024-08-29T02:51:27Z</time><name>1093</name><sym>Flag, Blue</sym></wpt><wpt lat="10.362154" lon="123.939783"><ele>30.352406</ele><time>2024-08-29T02:51:59Z</time><name>1094</name><sym>Flag, Blue</sym></wpt><wpt lat="10.362128" lon="123.939867"><ele>30.269287</ele><time>2024-08-29T02:52:23Z</time><name>1095</name><sym>Flag, Blue</sym></wpt><wpt lat="10.362052" lon="123.940021"><ele>34.165062</ele><time>2024-08-29T02:53:06Z</time><name>1096</name><sym>Flag, Blue</sym></wpt><wpt lat="10.362020" lon="123.940062"><ele>34.676582</ele><time>2024-08-29T02:53:18Z</time><name>1097</name><sym>Flag, Blue</sym></wpt><wpt lat="10.362020" lon="123.940067"><ele>33.655827</ele><time>2024-08-29T02:53:28Z</time><name>1098</name><sym>Flag, Blue</sym></wpt><wpt lat="10.361961" lon="123.940134"><ele>32.467083</ele><time>2024-08-29T02:53:46Z</time><name>1099</name><sym>Flag, Blue</sym></wpt><wpt lat="10.361954" lon="123.940163"><ele>33.347469</ele><time>2024-08-29T02:53:58Z</time><name>1100</name><sym>Flag, Blue</sym></wpt><wpt lat="10.361941" lon="123.940176"><ele>34.587376</ele><time>2024-08-29T02:54:03Z</time><name>1101</name><sym>Flag, Blue</sym></wpt><wpt lat="10.361935" lon="123.940191"><ele>35.663967</ele><time>2024-08-29T02:54:10Z</time><name>1102</name><sym>Flag, Blue</sym></wpt><wpt lat="10.361920" lon="123.940239"><ele>38.457233</ele><time>2024-08-29T02:54:27Z</time><name>1103</name><sym>Flag, Blue</sym></wpt><wpt lat="10.361895" lon="123.940243"><ele>38.350594</ele><time>2024-08-29T02:54:39Z</time><name>1104</name><sym>Flag, Blue</sym></wpt><wpt lat="10.361891" lon="123.940243"><ele>38.626808</ele><time>2024-08-29T02:54:46Z</time><name>1105</name><sym>Flag, Blue</sym></wpt><wpt lat="10.361844" lon="123.940277"><ele>39.983913</ele><time>2024-08-29T02:54:55Z</time><name>1106</name><sym>Flag, Blue</sym></wpt><wpt lat="10.361824" lon="123.940281"><ele>41.652550</ele><time>2024-08-29T02:55:02Z</time><name>1107</name><sym>Flag, Blue</sym></wpt><wpt lat="10.361834" lon="123.940299"><ele>42.872856</ele><time>2024-08-29T02:55:14Z</time><name>1108</name><sym>Flag, Blue</sym></wpt><wpt lat="10.361867" lon="123.940264"><ele>44.652306</ele><time>2024-08-29T02:55:32Z</time><name>1109</name><sym>Flag, Blue</sym></wpt><wpt lat="10.361867" lon="123.940282"><ele>38.187229</ele><time>2024-08-29T02:56:40Z</time><name>1110</name><sym>Flag, Blue</sym></wpt><wpt lat="10.361868" lon="123.940301"><ele>37.472927</ele><time>2024-08-29T02:56:46Z</time><name>1111</name><sym>Flag, Blue</sym></wpt><wpt lat="10.361870" lon="123.940316"><ele>37.159626</ele><time>2024-08-29T02:56:50Z</time><name>1112</name><sym>Flag, Blue</sym></wpt><wpt lat="10.361898" lon="123.940346"><ele>36.896069</ele><time>2024-08-29T02:57:01Z</time><name>1113</name><sym>Flag, Blue</sym></wpt><wpt lat="10.361899" lon="123.940399"><ele>35.145077</ele><time>2024-08-29T02:57:34Z</time><name>1114</name><sym>Flag, Blue</sym></wpt><wpt lat="10.361920" lon="123.940461"><ele>30.250683</ele><time>2024-08-29T02:58:04Z</time><name>1115</name><sym>Flag, Blue</sym></wpt><wpt lat="10.361906" lon="123.940481"><ele>30.336281</ele><time>2024-08-29T02:58:53Z</time><name>1116</name><sym>Flag, Blue</sym></wpt><wpt lat="10.361966" lon="123.940781"><ele>29.321144</ele><time>2024-08-29T02:59:43Z</time><name>1117</name><sym>Flag, Blue</sym></wpt><wpt lat="10.361970" lon="123.940816"><ele>30.191933</ele><time>2024-08-29T02:59:56Z</time><name>1118</name><sym>Flag, Blue</sym></wpt><wpt lat="10.361971" lon="123.941043"><ele>30.484257</ele><time>2024-08-29T03:01:12Z</time><name>1119</name><sym>Flag, Blue</sym></wpt><wpt lat="10.362013" lon="123.941047"><ele>32.251595</ele><time>2024-08-29T03:01:50Z</time><name>1120</name><sym>Flag, Blue</sym></wpt><wpt lat="10.362008" lon="123.941092"><ele>28.905270</ele><time>2024-08-29T03:02:05Z</time><name>1121</name><sym>Flag, Blue</sym></wpt><wpt lat="10.362120" lon="123.941455"><ele>29.168106</ele><time>2024-08-29T03:03:01Z</time><name>1122</name><sym>Flag, Blue</sym></wpt><wpt lat="10.362175" lon="123.941478"><ele>29.887587</ele><time>2024-08-29T03:03:12Z</time><name>1123</name><sym>Flag, Blue</sym></wpt><wpt lat="10.362202" lon="123.941479"><ele>29.506683</ele><time>2024-08-29T03:03:20Z</time><name>1124</name><sym>Flag, Blue</sym></wpt><wpt lat="10.362372" lon="123.942558"><ele>48.082783</ele><time>2024-08-29T05:13:25Z</time><name>1125</name><sym>Flag, Blue</sym></wpt><wpt lat="10.362323" lon="123.942615"><ele>44.852970</ele><time>2024-08-29T05:13:40Z</time><name>1126</name><sym>Flag, Blue</sym></wpt><wpt lat="10.362311" lon="123.942618"><ele>43.193409</ele><time>2024-08-29T05:13:46Z</time><name>1127</name><sym>Flag, Blue</sym></wpt><wpt lat="10.362290" lon="123.942624"><ele>40.927143</ele><time>2024-08-29T05:13:53Z</time><name>1128</name><sym>Flag, Blue</sym></wpt><wpt lat="10.362172" lon="123.942774"><ele>34.887123</ele><time>2024-08-29T05:15:13Z</time><name>1129</name><sym>Flag, Blue</sym></wpt><wpt lat="10.362115" lon="123.942913"><ele>34.926392</ele><time>2024-08-29T05:15:41Z</time><name>1130</name><sym>Flag, Blue</sym></wpt><wpt lat="10.362087" lon="123.942953"><ele>35.094166</ele><time>2024-08-29T05:15:49Z</time><name>1131</name><sym>Flag, Blue</sym></wpt><wpt lat="10.362073" lon="123.943003"><ele>36.079674</ele><time>2024-08-29T05:16:09Z</time><name>1132</name><sym>Flag, Blue</sym></wpt><wpt lat="10.361930" lon="123.943277"><ele>35.642776</ele><time>2024-08-29T05:17:13Z</time><name>1133</name><sym>Flag, Blue</sym></wpt><wpt lat="10.361716" lon="123.943725"><ele>33.707455</ele><time>2024-08-29T05:18:18Z</time><name>1134</name><sym>Flag, Blue</sym></wpt><wpt lat="10.361713" lon="123.943725"><ele>33.973198</ele><time>2024-08-29T05:18:28Z</time><name>1135</name><sym>Flag, Blue</sym></wpt><wpt lat="10.361714" lon="123.943745"><ele>34.265160</ele><time>2024-08-29T05:18:34Z</time><name>1136</name><sym>Flag, Blue</sym></wpt><wpt lat="10.361711" lon="123.943754"><ele>34.344749</ele><time>2024-08-29T05:18:39Z</time><name>1137</name><sym>Flag, Blue</sym></wpt><wpt lat="10.361695" lon="123.943801"><ele>27.561787</ele><time>2024-08-29T05:19:22Z</time><name>1138</name><sym>Flag, Blue</sym></wpt><wpt lat="10.361644" lon="123.943840"><ele>27.106531</ele><time>2024-08-29T05:19:38Z</time><name>1139</name><sym>Flag, Blue</sym></wpt><wpt lat="10.361631" lon="123.943861"><ele>27.868412</ele><time>2024-08-29T05:20:01Z</time><name>1140</name><sym>Flag, Blue</sym></wpt><wpt lat="10.361580" lon="123.943923"><ele>30.963161</ele><time>2024-08-29T05:20:31Z</time><name>1141</name><sym>Flag, Blue</sym></wpt><wpt lat="10.361584" lon="123.943961"><ele>29.664646</ele><time>2024-08-29T05:20:49Z</time><name>1142</name><sym>Flag, Blue</sym></wpt><wpt lat="10.361574" lon="123.944006"><ele>32.500744</ele><time>2024-08-29T05:21:49Z</time><name>1143</name><sym>Flag, Blue</sym></wpt><wpt lat="10.361554" lon="123.944042"><ele>35.191547</ele><time>2024-08-29T05:22:07Z</time><name>1144</name><sym>Flag, Blue</sym></wpt><wpt lat="10.361520" lon="123.944073"><ele>37.308823</ele><time>2024-08-29T05:22:25Z</time><name>1145</name><sym>Flag, Blue</sym></wpt><wpt lat="10.361501" lon="123.944088"><ele>38.765266</ele><time>2024-08-29T05:22:33Z</time><name>1146</name><sym>Flag, Blue</sym></wpt><wpt lat="10.361529" lon="123.944228"><ele>33.821304</ele><time>2024-08-29T05:23:10Z</time><name>1147</name><sym>Flag, Blue</sym></wpt><wpt lat="10.361513" lon="123.944244"><ele>30.342991</ele><time>2024-08-29T05:23:31Z</time><name>1148</name><sym>Flag, Blue</sym></wpt><wpt lat="10.361515" lon="123.944268"><ele>29.584522</ele><time>2024-08-29T05:23:40Z</time><name>1149</name><sym>Flag, Blue</sym></wpt><wpt lat="10.361505" lon="123.944272"><ele>29.787220</ele><time>2024-08-29T05:23:45Z</time><name>1150</name><sym>Flag, Blue</sym></wpt><wpt lat="10.361480" lon="123.944278"><ele>29.008656</ele><time>2024-08-29T05:23:55Z</time><name>1151</name><sym>Flag, Blue</sym></wpt><wpt lat="10.361209" lon="123.944257"><ele>26.280441</ele><time>2024-08-29T05:24:54Z</time><name>1152</name><sym>Flag, Blue</sym></wpt><wpt lat="10.361007" lon="123.944147"><ele>25.147398</ele><time>2024-08-29T05:25:47Z</time><name>1153</name><sym>Flag, Blue</sym></wpt><wpt lat="10.360794" lon="123.944029"><ele>25.219275</ele><time>2024-08-29T05:26:59Z</time><name>1154</name><sym>Flag, Blue</sym></wpt><wpt lat="10.360742" lon="123.944014"><ele>22.676899</ele><time>2024-08-29T05:27:28Z</time><name>1155</name><sym>Flag, Blue</sym></wpt><wpt lat="10.360665" lon="123.943978"><ele>21.291077</ele><time>2024-08-29T05:27:42Z</time><name>1156</name><sym>Flag, Blue</sym></wpt><wpt lat="10.360610" lon="123.943933"><ele>16.689997</ele><time>2024-08-29T05:28:03Z</time><name>1157</name><sym>Flag, Blue</sym></wpt><wpt lat="10.360602" lon="123.943931"><ele>15.742045</ele><time>2024-08-29T05:28:08Z</time><name>1158</name><sym>Flag, Blue</sym></wpt><wpt lat="10.360584" lon="123.943884"><ele>12.720222</ele><time>2024-08-29T05:28:22Z</time><name>1159</name><sym>Flag, Blue</sym></wpt><wpt lat="10.360577" lon="123.943865"><ele>12.017357</ele><time>2024-08-29T05:28:30Z</time><name>1160</name><sym>Flag, Blue</sym></wpt><wpt lat="10.360550" lon="123.943802"><ele>12.204971</ele><time>2024-08-29T05:28:50Z</time><name>1161</name><sym>Flag, Blue</sym></wpt><wpt lat="10.360535" lon="123.943809"><ele>12.870504</ele><time>2024-08-29T05:28:55Z</time><name>1162</name><sym>Flag, Blue</sym></wpt><wpt lat="10.360346" lon="123.943830"><ele>23.198030</ele><time>2024-08-29T05:30:03Z</time><name>1163</name><sym>Flag, Blue</sym></wpt><wpt lat="10.360243" lon="123.943761"><ele>25.317978</ele><time>2024-08-29T05:30:46Z</time><name>1164</name><sym>Flag, Blue</sym></wpt><wpt lat="10.360242" lon="123.943764"><ele>25.267408</ele><time>2024-08-29T05:30:52Z</time><name>1165</name><sym>Flag, Blue</sym></wpt><wpt lat="10.360234" lon="123.943760"><ele>25.408718</ele><time>2024-08-29T05:30:56Z</time><name>1166</name><sym>Flag, Blue</sym></wpt><wpt lat="10.360221" lon="123.943749"><ele>25.314425</ele><time>2024-08-29T05:31:01Z</time><name>1167</name><sym>Flag, Blue</sym></wpt><wpt lat="10.360220" lon="123.943744"><ele>24.981495</ele><time>2024-08-29T05:31:06Z</time><name>1168</name><sym>Flag, Blue</sym></wpt><wpt lat="10.360211" lon="123.943733"><ele>25.021946</ele><time>2024-08-29T05:31:10Z</time><name>1169</name><sym>Flag, Blue</sym></wpt><wpt lat="10.360205" lon="123.943729"><ele>25.001907</ele><time>2024-08-29T05:31:14Z</time><name>1170</name><sym>Flag, Blue</sym></wpt><wpt lat="10.360156" lon="123.943710"><ele>25.254412</ele><time>2024-08-29T05:31:19Z</time><name>1171</name><sym>Flag, Blue</sym></wpt><wpt lat="10.360071" lon="123.943668"><ele>28.212645</ele><time>2024-08-29T05:31:50Z</time><name>1172</name><sym>Flag, Blue</sym></wpt><wpt lat="10.360069" lon="123.943656"><ele>27.915724</ele><time>2024-08-29T05:31:54Z</time><name>1173</name><sym>Flag, Blue</sym></wpt><wpt lat="10.360029" lon="123.943646"><ele>25.902184</ele><time>2024-08-29T05:32:07Z</time><name>1174</name><sym>Flag, Blue</sym></wpt><wpt lat="10.359982" lon="123.943662"><ele>24.733406</ele><time>2024-08-29T05:32:58Z</time><name>1175</name><sym>Flag, Blue</sym></wpt><wpt lat="10.359983" lon="123.943612"><ele>26.220890</ele><time>2024-08-29T05:33:26Z</time><name>1176</name><sym>Flag, Blue</sym></wpt><wpt lat="10.359969" lon="123.943612"><ele>26.642567</ele><time>2024-08-29T05:33:32Z</time><name>1177</name><sym>Flag, Blue</sym></wpt><wpt lat="10.359914" lon="123.943590"><ele>29.004436</ele><time>2024-08-29T05:34:07Z</time><name>1178</name><sym>Flag, Blue</sym></wpt><wpt lat="10.359856" lon="123.943577"><ele>30.759399</ele><time>2024-08-29T05:34:34Z</time><name>1179</name><sym>Flag, Blue</sym></wpt><wpt lat="10.359793" lon="123.943563"><ele>31.625580</ele><time>2024-08-29T05:34:45Z</time><name>1180</name><sym>Flag, Blue</sym></wpt><wpt lat="10.359309" lon="123.943299"><ele>26.076942</ele><time>2024-08-29T05:36:45Z</time><name>1181</name><sym>Flag, Blue</sym></wpt><wpt lat="10.359307" lon="123.943295"><ele>27.552299</ele><time>2024-08-29T05:36:52Z</time><name>1182</name><sym>Flag, Blue</sym></wpt><wpt lat="10.359285" lon="123.943304"><ele>28.968348</ele><time>2024-08-29T05:37:01Z</time><name>1183</name><sym>Flag, Blue</sym></wpt><wpt lat="10.359268" lon="123.943299"><ele>30.803507</ele><time>2024-08-29T05:37:10Z</time><name>1184</name><sym>Flag, Blue</sym></wpt><wpt lat="10.359261" lon="123.943295"><ele>31.886189</ele><time>2024-08-29T05:37:17Z</time><name>1185</name><sym>Flag, Blue</sym></wpt><wpt lat="10.359249" lon="123.943292"><ele>32.163540</ele><time>2024-08-29T05:37:22Z</time><name>1186</name><sym>Flag, Blue</sym></wpt><wpt lat="10.359235" lon="123.943287"><ele>32.359577</ele><time>2024-08-29T05:37:33Z</time><name>1187</name><sym>Flag, Blue</sym></wpt><wpt lat="10.359211" lon="123.943273"><ele>32.464767</ele><time>2024-08-29T05:37:46Z</time><name>1188</name><sym>Flag, Blue</sym></wpt><wpt lat="10.359199" lon="123.943268"><ele>32.652321</ele><time>2024-08-29T05:37:50Z</time><name>1189</name><sym>Flag, Blue</sym></wpt><wpt lat="10.359172" lon="123.943244"><ele>33.573208</ele><time>2024-08-29T05:37:59Z</time><name>1190</name><sym>Flag, Blue</sym></wpt><wpt lat="10.359157" lon="123.943238"><ele>36.258965</ele><time>2024-08-29T05:38:19Z</time><name>1191</name><sym>Flag, Blue</sym></wpt><wpt lat="10.359144" lon="123.943246"><ele>37.347389</ele><time>2024-08-29T05:38:30Z</time><name>1192</name><sym>Flag, Blue</sym></wpt><wpt lat="10.359117" lon="123.943234"><ele>38.620834</ele><time>2024-08-29T05:38:43Z</time><name>1193</name><sym>Flag, Blue</sym></wpt><wpt lat="10.359106" lon="123.943234"><ele>39.368752</ele><time>2024-08-29T05:38:46Z</time><name>1194</name><sym>Flag, Blue</sym></wpt></gpx>