<?xml version="1.0" encoding="UTF-8" standalone="no" ?><gpx xmlns="http://www.topografix.com/GPX/1/1" xmlns:gpxx="http://www.garmin.com/xmlschemas/GpxExtensions/v3" xmlns:wptx1="http://www.garmin.com/xmlschemas/WaypointExtension/v1" xmlns:gpxtpx="http://www.garmin.com/xmlschemas/TrackPointExtension/v1" creator="eTrex 22x" version="1.1" xmlns:xsi="http://www.w3.org/2001/XMLSchema-instance" xsi:schemaLocation="http://www.topografix.com/GPX/1/1 http://www.topografix.com/GPX/1/1/gpx.xsd http://www.garmin.com/xmlschemas/GpxExtensions/v3 http://www8.garmin.com/xmlschemas/GpxExtensionsv3.xsd http://www.garmin.com/xmlschemas/TrackStatsExtension/v1 http://www8.garmin.com/xmlschemas/TrackStatsExtension.xsd http://www.garmin.com/xmlschemas/WaypointExtension/v1 http://www8.garmin.com/xmlschemas/WaypointExtensionv1.xsd http://www.garmin.com/xmlschemas/TrackPointExtension/v1 http://www.garmin.com/xmlschemas/TrackPointExtensionv1.xsd"><metadata><link href="http://www.garmin.com"><text>Garmin International</text></link><time>2024-07-31T06:43:38Z</time></metadata><wpt lat="10.324297" lon="123.944006"><ele>12.556515</ele><time>2024-07-31T06:43:38Z</time><name>1409</name><sym>Flag, Blue</sym></wpt><wpt lat="10.324304" lon="123.944056"><ele>14.820782</ele><time>2024-07-31T06:44:22Z</time><name>1410</name><sym>Flag, Blue</sym></wpt><wpt lat="10.324311" lon="123.944068"><ele>15.986088</ele><time>2024-07-31T06:45:13Z</time><name>1411</name><sym>Flag, Blue</sym></wpt><wpt lat="10.324307" lon="123.944072"><ele>17.051151</ele><time>2024-07-31T06:45:42Z</time><name>1412</name><sym>Flag, Blue</sym></wpt><wpt lat="10.324353" lon="123.944083"><ele>18.650639</ele><time>2024-07-31T06:46:03Z</time><name>1413</name><sym>Flag, Blue</sym></wpt><wpt lat="10.324342" lon="123.944099"><ele>19.331459</ele><time>2024-07-31T06:46:13Z</time><name>1414</name><sym>Flag, Blue</sym></wpt><wpt lat="10.324391" lon="123.944110"><ele>20.648178</ele><time>2024-07-31T06:46:33Z</time><name>1415</name><sym>Flag, Blue</sym></wpt><wpt lat="10.324406" lon="123.944118"><ele>20.830048</ele><time>2024-07-31T06:46:45Z</time><name>1416</name><sym>Flag, Blue</sym></wpt><wpt lat="10.324413" lon="123.944139"><ele>22.249702</ele><time>2024-07-31T06:46:57Z</time><name>1417</name><sym>Flag, Blue</sym></wpt><wpt lat="10.324438" lon="123.944145"><ele>22.459972</ele><time>2024-07-31T06:47:16Z</time><name>1418</name><sym>Flag, Blue</sym></wpt><wpt lat="10.324455" lon="123.944156"><ele>22.875523</ele><time>2024-07-31T06:47:26Z</time><name>1419</name><sym>Flag, Blue</sym></wpt><wpt lat="10.324462" lon="123.944156"><ele>21.062489</ele><time>2024-07-31T06:47:59Z</time><name>1420</name><sym>Flag, Blue</sym></wpt><wpt lat="10.324442" lon="123.944174"><time>2024-07-31T06:53:50Z</time><name>1421</name><sym>Flag, Blue</sym></wpt><wpt lat="10.324405" lon="123.944064"><ele>9.888577</ele><time>2024-07-31T06:54:10Z</time><name>1422</name><sym>Flag, Blue</sym></wpt></gpx>