<?xml version="1.0" encoding="UTF-8" standalone="no" ?><gpx xmlns="http://www.topografix.com/GPX/1/1" xmlns:gpxx="http://www.garmin.com/xmlschemas/GpxExtensions/v3" xmlns:wptx1="http://www.garmin.com/xmlschemas/WaypointExtension/v1" xmlns:gpxtpx="http://www.garmin.com/xmlschemas/TrackPointExtension/v1" creator="eTrex 22x" version="1.1" xmlns:xsi="http://www.w3.org/2001/XMLSchema-instance" xsi:schemaLocation="http://www.topografix.com/GPX/1/1 http://www.topografix.com/GPX/1/1/gpx.xsd http://www.garmin.com/xmlschemas/GpxExtensions/v3 http://www8.garmin.com/xmlschemas/GpxExtensionsv3.xsd http://www.garmin.com/xmlschemas/TrackStatsExtension/v1 http://www8.garmin.com/xmlschemas/TrackStatsExtension.xsd http://www.garmin.com/xmlschemas/WaypointExtension/v1 http://www8.garmin.com/xmlschemas/WaypointExtensionv1.xsd http://www.garmin.com/xmlschemas/TrackPointExtension/v1 http://www.garmin.com/xmlschemas/TrackPointExtensionv1.xsd"><metadata><link href="http://www.garmin.com"><text>Garmin International</text></link><time>2024-08-28T02:30:58Z</time></metadata><wpt lat="10.351770" lon="123.934115"><ele>9.844868</ele><time>2024-08-28T02:30:58Z</time><name>893</name><sym>Flag, Blue</sym></wpt><wpt lat="10.351808" lon="123.934156"><ele>19.887115</ele><time>2024-08-28T02:31:35Z</time><name>894</name><sym>Flag, Blue</sym></wpt><wpt lat="10.351690" lon="123.934213"><ele>16.423126</ele><time>2024-08-28T02:32:32Z</time><name>895</name><sym>Flag, Blue</sym></wpt><wpt lat="10.351621" lon="123.934304"><ele>16.403526</ele><time>2024-08-28T02:33:04Z</time><name>896</name><sym>Flag, Blue</sym></wpt><wpt lat="10.351571" lon="123.934243"><ele>18.577724</ele><time>2024-08-28T02:33:42Z</time><name>897</name><sym>Flag, Blue</sym></wpt><wpt lat="10.351564" lon="123.934250"><ele>19.309177</ele><time>2024-08-28T02:33:54Z</time><name>898</name><sym>Flag, Blue</sym></wpt><wpt lat="10.351355" lon="123.934296"><ele>17.733604</ele><time>2024-08-28T02:34:46Z</time><name>899</name><sym>Flag, Blue</sym></wpt><wpt lat="10.351327" lon="123.934288"><ele>17.422340</ele><time>2024-08-28T02:34:59Z</time><name>900</name><sym>Flag, Blue</sym></wpt><wpt lat="10.351242" lon="123.934271"><ele>18.851768</ele><time>2024-08-28T02:35:18Z</time><name>901</name><sym>Flag, Blue</sym></wpt><wpt lat="10.350672" lon="123.934123"><ele>6.064819</ele><time>2024-08-28T02:36:44Z</time><name>902</name><sym>Flag, Blue</sym></wpt><wpt lat="10.350568" lon="123.934205"><ele>19.469406</ele><time>2024-08-28T02:37:52Z</time><name>903</name><sym>Flag, Blue</sym></wpt><wpt lat="10.350541" lon="123.934363"><ele>23.629303</ele><time>2024-08-28T02:38:32Z</time><name>904</name><sym>Flag, Blue</sym></wpt><wpt lat="10.350529" lon="123.934359"><ele>25.031067</ele><time>2024-08-28T02:38:47Z</time><name>905</name><sym>Flag, Blue</sym></wpt><wpt lat="10.350526" lon="123.934472"><ele>29.382477</ele><time>2024-08-28T02:39:31Z</time><name>906</name><sym>Flag, Blue</sym></wpt><wpt lat="10.350505" lon="123.934452"><ele>29.896248</ele><time>2024-08-28T02:39:47Z</time><name>907</name><sym>Flag, Blue</sym></wpt><wpt lat="10.350440" lon="123.934439"><ele>30.251366</ele><time>2024-08-28T02:40:14Z</time><name>908</name><sym>Flag, Blue</sym></wpt><wpt lat="10.350414" lon="123.934482"><ele>28.050747</ele><time>2024-08-28T02:40:55Z</time><name>909</name><sym>Flag, Blue</sym></wpt><wpt lat="10.350444" lon="123.934752"><ele>28.622292</ele><time>2024-08-28T02:42:16Z</time><name>910</name><sym>Flag, Blue</sym></wpt><wpt lat="10.350405" lon="123.934707"><ele>33.112247</ele><time>2024-08-28T02:46:04Z</time><name>911</name><sym>Flag, Blue</sym></wpt><wpt lat="10.349858" lon="123.934910"><ele>30.856552</ele><time>2024-08-28T02:47:23Z</time><name>912</name><sym>Flag, Blue</sym></wpt><wpt lat="10.349845" lon="123.934905"><ele>30.065960</ele><time>2024-08-28T02:47:45Z</time><name>913</name><sym>Flag, Blue</sym></wpt><wpt lat="10.349868" lon="123.934905"><time>2024-08-28T02:57:17Z</time><name>914</name><sym>Flag, Blue</sym></wpt><wpt lat="10.352021" lon="123.934149"><ele>33.519596</ele><time>2024-08-28T03:01:16Z</time><name>915</name><sym>Flag, Blue</sym></wpt><wpt lat="10.351795" lon="123.933927"><ele>30.156925</ele><time>2024-08-28T03:02:31Z</time><name>916</name><sym>Flag, Blue</sym></wpt><wpt lat="10.351796" lon="123.933884"><ele>31.963428</ele><time>2024-08-28T03:02:50Z</time><name>917</name><sym>Flag, Blue</sym></wpt><wpt lat="10.351800" lon="123.933863"><ele>35.112526</ele><time>2024-08-28T03:03:00Z</time><name>918</name><sym>Flag, Blue</sym></wpt><wpt lat="10.351814" lon="123.933849"><ele>38.164993</ele><time>2024-08-28T03:03:14Z</time><name>919</name><sym>Flag, Blue</sym></wpt><wpt lat="10.351808" lon="123.933841"><ele>37.186592</ele><time>2024-08-28T03:03:29Z</time><name>920</name><sym>Flag, Blue</sym></wpt><wpt lat="10.351906" lon="123.933937"><ele>35.037750</ele><time>2024-08-28T03:05:56Z</time><name>921</name><sym>Flag, Blue</sym></wpt><wpt lat="10.352021" lon="123.933989"><ele>30.855000</ele><time>2024-08-28T03:06:43Z</time><name>922</name><sym>Flag, Blue</sym></wpt><wpt lat="10.352026" lon="123.933984"><ele>26.593475</ele><time>2024-08-28T03:07:24Z</time><name>923</name><sym>Flag, Blue</sym></wpt><wpt lat="10.351950" lon="123.933901"><ele>26.636040</ele><time>2024-08-28T03:08:03Z</time><name>924</name><sym>Flag, Blue</sym></wpt><wpt lat="10.351954" lon="123.933747"><ele>30.511917</ele><time>2024-08-28T03:08:26Z</time><name>925</name><sym>Flag, Blue</sym></wpt><wpt lat="10.352007" lon="123.933757"><ele>34.456413</ele><time>2024-08-28T03:08:45Z</time><name>926</name><sym>Flag, Blue</sym></wpt><wpt lat="10.352073" lon="123.933721"><ele>37.420704</ele><time>2024-08-28T03:09:15Z</time><name>927</name><sym>Flag, Blue</sym></wpt><wpt lat="10.352186" lon="123.933738"><ele>35.279247</ele><time>2024-08-28T03:09:49Z</time><name>928</name><sym>Flag, Blue</sym></wpt><wpt lat="10.352096" lon="123.933721"><ele>35.146736</ele><time>2024-08-28T03:10:07Z</time><name>929</name><sym>Flag, Blue</sym></wpt><wpt lat="10.351999" lon="123.933662"><ele>31.957726</ele><time>2024-08-28T03:10:46Z</time><name>930</name><sym>Flag, Blue</sym></wpt><wpt lat="10.351993" lon="123.933659"><ele>31.028206</ele><time>2024-08-28T03:11:07Z</time><name>931</name><sym>Flag, Blue</sym></wpt><wpt lat="10.351931" lon="123.933555"><ele>33.055672</ele><time>2024-08-28T03:11:41Z</time><name>932</name><sym>Flag, Blue</sym></wpt><wpt lat="10.351940" lon="123.933563"><time>2024-08-28T03:14:56Z</time><name>933</name><sym>Flag, Blue</sym></wpt><wpt lat="10.352102" lon="123.934262"><ele>34.339600</ele><time>2024-08-28T03:15:08Z</time><name>934</name><sym>Flag, Blue</sym></wpt><wpt lat="10.352096" lon="123.934235"><ele>44.569061</ele><time>2024-08-28T03:15:26Z</time><name>935</name><sym>Flag, Blue</sym></wpt><wpt lat="10.351024" lon="123.934148"><time>2024-08-28T03:28:05Z</time><name>936</name><sym>Flag, Blue</sym></wpt><wpt lat="10.349574" lon="123.935233"><ele>32.342636</ele><time>2024-08-28T03:31:12Z</time><name>937</name><sym>Flag, Blue</sym></wpt><wpt lat="10.360508" lon="123.933690"><ele>49.226864</ele><time>2024-08-28T03:48:14Z</time><name>938</name><sym>Flag, Blue</sym></wpt><wpt lat="10.360432" lon="123.934197"><ele>43.364719</ele><time>2024-08-28T03:49:02Z</time><name>939</name><sym>Flag, Blue</sym></wpt><wpt lat="10.360324" lon="123.934385"><ele>47.879559</ele><time>2024-08-28T03:49:27Z</time><name>940</name><sym>Flag, Blue</sym></wpt><wpt lat="10.360296" lon="123.934511"><ele>46.214024</ele><time>2024-08-28T03:49:59Z</time><name>941</name><sym>Flag, Blue</sym></wpt><wpt lat="10.360306" lon="123.934524"><ele>49.342846</ele><time>2024-08-28T03:50:19Z</time><name>942</name><sym>Flag, Blue</sym></wpt><wpt lat="10.360314" lon="123.934562"><ele>48.370457</ele><time>2024-08-28T03:50:35Z</time><name>943</name><sym>Flag, Blue</sym></wpt><wpt lat="10.360306" lon="123.934599"><ele>45.606083</ele><time>2024-08-28T03:51:01Z</time><name>944</name><sym>Flag, Blue</sym></wpt><wpt lat="10.360523" lon="123.934865"><ele>44.667446</ele><time>2024-08-28T03:51:53Z</time><name>945</name><sym>Flag, Blue</sym></wpt><wpt lat="10.360635" lon="123.934855"><ele>36.110359</ele><time>2024-08-28T03:53:20Z</time><name>946</name><sym>Flag, Blue</sym></wpt><wpt lat="10.360670" lon="123.934867"><ele>35.733364</ele><time>2024-08-28T03:53:41Z</time><name>947</name><sym>Flag, Blue</sym></wpt><wpt lat="10.360687" lon="123.934885"><ele>36.822170</ele><time>2024-08-28T03:53:54Z</time><name>948</name><sym>Flag, Blue</sym></wpt><wpt lat="10.360725" lon="123.934945"><ele>36.245663</ele><time>2024-08-28T03:54:12Z</time><name>949</name><sym>Flag, Blue</sym></wpt><wpt lat="10.360998" lon="123.935225"><ele>37.466034</ele><time>2024-08-28T03:55:51Z</time><name>950</name><sym>Flag, Blue</sym></wpt><wpt lat="10.360991" lon="123.935223"><ele>38.195213</ele><time>2024-08-28T03:56:04Z</time><name>951</name><sym>Flag, Blue</sym></wpt><wpt lat="10.361010" lon="123.935237"><ele>38.110573</ele><time>2024-08-28T03:56:17Z</time><name>952</name><sym>Flag, Blue</sym></wpt><wpt lat="10.361018" lon="123.935234"><ele>38.128071</ele><time>2024-08-28T03:56:32Z</time><name>953</name><sym>Flag, Blue</sym></wpt><wpt lat="10.361062" lon="123.935273"><ele>35.885250</ele><time>2024-08-28T03:56:48Z</time><name>954</name><sym>Flag, Blue</sym></wpt><wpt lat="10.361071" lon="123.935280"><ele>35.536228</ele><time>2024-08-28T03:56:59Z</time><name>955</name><sym>Flag, Blue</sym></wpt><wpt lat="10.361102" lon="123.935297"><ele>35.952900</ele><time>2024-08-28T03:57:11Z</time><name>956</name><sym>Flag, Blue</sym></wpt><wpt lat="10.361093" lon="123.935300"><ele>36.979206</ele><time>2024-08-28T03:57:19Z</time><name>957</name><sym>Flag, Blue</sym></wpt><wpt lat="10.361096" lon="123.935324"><ele>37.838371</ele><time>2024-08-28T03:57:33Z</time><name>958</name><sym>Flag, Blue</sym></wpt><wpt lat="10.361114" lon="123.935329"><ele>37.436699</ele><time>2024-08-28T03:57:42Z</time><name>959</name><sym>Flag, Blue</sym></wpt><wpt lat="10.361144" lon="123.935342"><ele>37.914421</ele><time>2024-08-28T03:57:51Z</time><name>960</name><sym>Flag, Blue</sym></wpt><wpt lat="10.361225" lon="123.935513"><ele>37.197865</ele><time>2024-08-28T03:58:24Z</time><name>961</name><sym>Flag, Blue</sym></wpt><wpt lat="10.361541" lon="123.935877"><ele>38.958984</ele><time>2024-08-28T04:00:10Z</time><name>962</name><sym>Flag, Blue</sym></wpt><wpt lat="10.361986" lon="123.936411"><ele>46.885490</ele><time>2024-08-28T04:03:13Z</time><name>963</name><sym>Flag, Blue</sym></wpt><wpt lat="10.361947" lon="123.936461"><ele>41.777126</ele><time>2024-08-28T04:03:27Z</time><name>964</name><sym>Flag, Blue</sym></wpt><wpt lat="10.361970" lon="123.936549"><ele>39.515514</ele><time>2024-08-28T04:04:07Z</time><name>965</name><sym>Flag, Blue</sym></wpt><wpt lat="10.361885" lon="123.936592"><ele>40.177002</ele><time>2024-08-28T04:04:33Z</time><name>966</name><sym>Flag, Blue</sym></wpt><wpt lat="10.361861" lon="123.936718"><ele>41.000820</ele><time>2024-08-28T04:04:58Z</time><name>967</name><sym>Flag, Blue</sym></wpt><wpt lat="10.361756" lon="123.937091"><ele>36.893349</ele><time>2024-08-28T04:05:42Z</time><name>968</name><sym>Flag, Blue</sym></wpt><wpt lat="10.360955" lon="123.936686"><ele>32.924408</ele><time>2024-08-28T04:07:14Z</time><name>969</name><sym>Flag, Blue</sym></wpt><wpt lat="10.360913" lon="123.936675"><ele>35.606106</ele><time>2024-08-28T04:07:32Z</time><name>970</name><sym>Flag, Blue</sym></wpt><wpt lat="10.360902" lon="123.936669"><ele>36.155056</ele><time>2024-08-28T04:07:41Z</time><name>971</name><sym>Flag, Blue</sym></wpt><wpt lat="10.360853" lon="123.936658"><ele>36.286846</ele><time>2024-08-28T04:08:03Z</time><name>972</name><sym>Flag, Blue</sym></wpt><wpt lat="10.360838" lon="123.936643"><ele>36.309231</ele><time>2024-08-28T04:08:13Z</time><name>973</name><sym>Flag, Blue</sym></wpt><wpt lat="10.360770" lon="123.936667"><ele>37.249268</ele><time>2024-08-28T04:08:31Z</time><name>974</name><sym>Flag, Blue</sym></wpt><wpt lat="10.359729" lon="123.935721"><ele>37.305447</ele><time>2024-08-28T04:10:05Z</time><name>975</name><sym>Flag, Blue</sym></wpt><wpt lat="10.359708" lon="123.935713"><ele>44.782562</ele><time>2024-08-28T04:10:33Z</time><name>976</name><sym>Flag, Blue</sym></wpt><wpt lat="10.359647" lon="123.935650"><ele>42.951591</ele><time>2024-08-28T04:11:00Z</time><name>977</name><sym>Flag, Blue</sym></wpt><wpt lat="10.359602" lon="123.935636"><ele>43.254234</ele><time>2024-08-28T04:11:12Z</time><name>978</name><sym>Flag, Blue</sym></wpt><wpt lat="10.359472" lon="123.935570"><ele>45.539253</ele><time>2024-08-28T04:11:38Z</time><name>979</name><sym>Flag, Blue</sym></wpt><wpt lat="10.359440" lon="123.935584"><ele>52.594650</ele><time>2024-08-28T04:12:13Z</time><name>980</name><sym>Flag, Blue</sym></wpt><wpt lat="10.359377" lon="123.935532"><ele>47.833126</ele><time>2024-08-28T04:12:32Z</time><name>981</name><sym>Flag, Blue</sym></wpt><wpt lat="10.358951" lon="123.935253"><ele>37.672138</ele><time>2024-08-28T04:13:20Z</time><name>982</name><sym>Flag, Blue</sym></wpt><wpt lat="10.358642" lon="123.935152"><ele>38.397881</ele><time>2024-08-28T04:14:14Z</time><name>983</name><sym>Flag, Blue</sym></wpt><wpt lat="10.357238" lon="123.934895"><ele>38.499935</ele><time>2024-08-28T04:16:24Z</time><name>984</name><sym>Flag, Blue</sym></wpt><wpt lat="10.357120" lon="123.934986"><ele>36.966957</ele><time>2024-08-28T04:16:50Z</time><name>985</name><sym>Flag, Blue</sym></wpt><wpt lat="10.356987" lon="123.935062"><ele>37.365242</ele><time>2024-08-28T04:17:26Z</time><name>986</name><sym>Flag, Blue</sym></wpt><wpt lat="10.356950" lon="123.935073"><ele>44.388123</ele><time>2024-08-28T04:18:45Z</time><name>987</name><sym>Flag, Blue</sym></wpt><wpt lat="10.356938" lon="123.935113"><ele>40.494198</ele><time>2024-08-28T04:19:04Z</time><name>988</name><sym>Flag, Blue</sym></wpt><wpt lat="10.356921" lon="123.935122"><ele>38.895527</ele><time>2024-08-28T04:19:22Z</time><name>989</name><sym>Flag, Blue</sym></wpt><wpt lat="10.356902" lon="123.935179"><ele>39.205509</ele><time>2024-08-28T04:19:37Z</time><name>990</name><sym>Flag, Blue</sym></wpt><wpt lat="10.356823" lon="123.935215"><ele>40.237213</ele><time>2024-08-28T04:19:51Z</time><name>991</name><sym>Flag, Blue</sym></wpt><wpt lat="10.356695" lon="123.935332"><ele>38.995068</ele><time>2024-08-28T04:20:13Z</time><name>992</name><sym>Flag, Blue</sym></wpt><wpt lat="10.356685" lon="123.935390"><ele>37.570530</ele><time>2024-08-28T04:20:28Z</time><name>993</name><sym>Flag, Blue</sym></wpt><wpt lat="10.356599" lon="123.935462"><ele>38.779362</ele><time>2024-08-28T04:20:44Z</time><name>994</name><sym>Flag, Blue</sym></wpt><wpt lat="10.356528" lon="123.935486"><ele>36.776188</ele><time>2024-08-28T04:20:56Z</time><name>995</name><sym>Flag, Blue</sym></wpt><wpt lat="10.356525" lon="123.935522"><ele>37.524311</ele><time>2024-08-28T04:21:04Z</time><name>996</name><sym>Flag, Blue</sym></wpt><wpt lat="10.356490" lon="123.935567"><ele>37.290165</ele><time>2024-08-28T04:21:17Z</time><name>997</name><sym>Flag, Blue</sym></wpt><wpt lat="10.356447" lon="123.935566"><ele>36.985168</ele><time>2024-08-28T04:21:25Z</time><name>998</name><sym>Flag, Blue</sym></wpt><wpt lat="10.356428" lon="123.935632"><ele>38.075439</ele><time>2024-08-28T04:21:40Z</time><name>999</name><sym>Flag, Blue</sym></wpt><wpt lat="10.356419" lon="123.935620"><ele>39.068893</ele><time>2024-08-28T04:21:47Z</time><name>1000</name><sym>Flag, Blue</sym></wpt><wpt lat="10.356425" lon="123.935629"><ele>39.668671</ele><time>2024-08-28T04:21:54Z</time><name>1001</name><sym>Flag, Blue</sym></wpt><wpt lat="10.356403" lon="123.935633"><ele>39.891174</ele><time>2024-08-28T04:22:03Z</time><name>1002</name><sym>Flag, Blue</sym></wpt><wpt lat="10.356355" lon="123.935651"><ele>39.848778</ele><time>2024-08-28T04:22:11Z</time><name>1003</name><sym>Flag, Blue</sym></wpt><wpt lat="10.356130" lon="123.935737"><ele>43.966171</ele><time>2024-08-28T04:22:40Z</time><name>1004</name><sym>Flag, Blue</sym></wpt><wpt lat="10.356130" lon="123.935727"><ele>44.628944</ele><time>2024-08-28T04:22:51Z</time><name>1005</name><sym>Flag, Blue</sym></wpt><wpt lat="10.356109" lon="123.935731"><ele>43.583504</ele><time>2024-08-28T04:22:59Z</time><name>1006</name><sym>Flag, Blue</sym></wpt><wpt lat="10.356111" lon="123.935740"><ele>44.173309</ele><time>2024-08-28T04:23:08Z</time><name>1007</name><sym>Flag, Blue</sym></wpt><wpt lat="10.356080" lon="123.935822"><ele>43.789948</ele><time>2024-08-28T04:23:22Z</time><name>1008</name><sym>Flag, Blue</sym></wpt><wpt lat="10.356049" lon="123.935863"><ele>41.705868</ele><time>2024-08-28T04:23:40Z</time><name>1009</name><sym>Flag, Blue</sym></wpt><wpt lat="10.356004" lon="123.935832"><ele>39.591816</ele><time>2024-08-28T04:23:47Z</time><name>1010</name><sym>Flag, Blue</sym></wpt><wpt lat="10.355898" lon="123.935937"><ele>40.454426</ele><time>2024-08-28T04:24:14Z</time><name>1011</name><sym>Flag, Blue</sym></wpt></gpx>