<?xml version="1.0" encoding="UTF-8" standalone="no" ?><gpx xmlns="http://www.topografix.com/GPX/1/1" xmlns:gpxx="http://www.garmin.com/xmlschemas/GpxExtensions/v3" xmlns:wptx1="http://www.garmin.com/xmlschemas/WaypointExtension/v1" xmlns:gpxtpx="http://www.garmin.com/xmlschemas/TrackPointExtension/v1" creator="eTrex 22x" version="1.1" xmlns:xsi="http://www.w3.org/2001/XMLSchema-instance" xsi:schemaLocation="http://www.topografix.com/GPX/1/1 http://www.topografix.com/GPX/1/1/gpx.xsd http://www.garmin.com/xmlschemas/GpxExtensions/v3 http://www8.garmin.com/xmlschemas/GpxExtensionsv3.xsd http://www.garmin.com/xmlschemas/TrackStatsExtension/v1 http://www8.garmin.com/xmlschemas/TrackStatsExtension.xsd http://www.garmin.com/xmlschemas/WaypointExtension/v1 http://www8.garmin.com/xmlschemas/WaypointExtensionv1.xsd http://www.garmin.com/xmlschemas/TrackPointExtension/v1 http://www.garmin.com/xmlschemas/TrackPointExtensionv1.xsd"><metadata><link href="http://www.garmin.com"><text>Garmin International</text></link><time>2024-09-12T02:10:53Z</time></metadata><wpt lat="10.375469" lon="123.928515"><ele>54.959801</ele><time>2024-09-12T02:10:53Z</time><name>1884</name><sym>Flag, Blue</sym></wpt><wpt lat="10.375215" lon="123.928677"><ele>48.933128</ele><time>2024-09-12T02:12:47Z</time><name>1885</name><sym>Flag, Blue</sym></wpt><wpt lat="10.375194" lon="123.928710"><ele>48.336498</ele><time>2024-09-12T02:13:17Z</time><name>1886</name><sym>Flag, Blue</sym></wpt><wpt lat="10.375177" lon="123.928718"><ele>47.517246</ele><time>2024-09-12T02:13:38Z</time><name>1887</name><sym>Flag, Blue</sym></wpt><wpt lat="10.375074" lon="123.928862"><ele>47.857277</ele><time>2024-09-12T02:14:17Z</time><name>1888</name><sym>Flag, Blue</sym></wpt><wpt lat="10.375067" lon="123.928888"><ele>48.534088</ele><time>2024-09-12T02:14:31Z</time><name>1889</name><sym>Flag, Blue</sym></wpt><wpt lat="10.375043" lon="123.928949"><ele>47.557255</ele><time>2024-09-12T02:15:02Z</time><name>1890</name><sym>Flag, Blue</sym></wpt><wpt lat="10.375040" lon="123.928954"><ele>46.781651</ele><time>2024-09-12T02:15:13Z</time><name>1891</name><sym>Flag, Blue</sym></wpt><wpt lat="10.375015" lon="123.928976"><ele>47.128628</ele><time>2024-09-12T02:15:24Z</time><name>1892</name><sym>Flag, Blue</sym></wpt><wpt lat="10.374932" lon="123.929164"><ele>46.560040</ele><time>2024-09-12T02:15:52Z</time><name>1893</name><sym>Flag, Blue</sym></wpt><wpt lat="10.374915" lon="123.929181"><ele>47.721081</ele><time>2024-09-12T02:16:00Z</time><name>1894</name><sym>Flag, Blue</sym></wpt><wpt lat="10.374930" lon="123.929372"><ele>46.850483</ele><time>2024-09-12T02:16:32Z</time><name>1895</name><sym>Flag, Blue</sym></wpt><wpt lat="10.374928" lon="123.929412"><ele>47.322361</ele><time>2024-09-12T02:16:49Z</time><name>1896</name><sym>Flag, Blue</sym></wpt><wpt lat="10.374936" lon="123.929453"><ele>49.184673</ele><time>2024-09-12T02:17:09Z</time><name>1897</name><sym>Flag, Blue</sym></wpt><wpt lat="10.374949" lon="123.929530"><ele>51.164951</ele><time>2024-09-12T02:17:35Z</time><name>1898</name><sym>Flag, Blue</sym></wpt><wpt lat="10.374944" lon="123.929562"><ele>51.559505</ele><time>2024-09-12T02:17:51Z</time><name>1899</name><sym>Flag, Blue</sym></wpt><wpt lat="10.374947" lon="123.929560"><ele>51.752087</ele><time>2024-09-12T02:17:57Z</time><name>1900</name><sym>Flag, Blue</sym></wpt><wpt lat="10.374944" lon="123.929585"><ele>50.932747</ele><time>2024-09-12T02:18:14Z</time><name>1901</name><sym>Flag, Blue</sym></wpt><wpt lat="10.374640" lon="123.930203"><ele>55.381580</ele><time>2024-09-12T02:20:34Z</time><name>1902</name><sym>Flag, Blue</sym></wpt><wpt lat="10.374641" lon="123.930221"><ele>55.533985</ele><time>2024-09-12T02:20:54Z</time><name>1903</name><sym>Flag, Blue</sym></wpt><wpt lat="10.374320" lon="123.930405"><ele>48.392288</ele><time>2024-09-12T02:21:44Z</time><name>1904</name><sym>Flag, Blue</sym></wpt><wpt lat="10.373815" lon="123.930652"><ele>48.595409</ele><time>2024-09-12T02:23:11Z</time><name>1905</name><sym>Flag, Blue</sym></wpt><wpt lat="10.373745" lon="123.930675"><ele>50.482235</ele><time>2024-09-12T02:23:37Z</time><name>1906</name><sym>Flag, Blue</sym></wpt><wpt lat="10.373685" lon="123.930684"><ele>51.849178</ele><time>2024-09-12T02:24:07Z</time><name>1907</name><sym>Flag, Blue</sym></wpt><wpt lat="10.373656" lon="123.930672"><ele>51.104221</ele><time>2024-09-12T02:24:25Z</time><name>1908</name><sym>Flag, Blue</sym></wpt><wpt lat="10.373681" lon="123.930716"><ele>50.344608</ele><time>2024-09-12T02:24:46Z</time><name>1909</name><sym>Flag, Blue</sym></wpt><wpt lat="10.373691" lon="123.930709"><ele>49.341000</ele><time>2024-09-12T02:24:58Z</time><name>1910</name><sym>Flag, Blue</sym></wpt><wpt lat="10.373645" lon="123.930765"><ele>50.121281</ele><time>2024-09-12T02:25:17Z</time><name>1911</name><sym>Flag, Blue</sym></wpt><wpt lat="10.373599" lon="123.930820"><ele>50.664494</ele><time>2024-09-12T02:25:56Z</time><name>1912</name><sym>Flag, Blue</sym></wpt><wpt lat="10.373520" lon="123.930919"><ele>49.804909</ele><time>2024-09-12T02:26:28Z</time><name>1913</name><sym>Flag, Blue</sym></wpt><wpt lat="10.373463" lon="123.930997"><ele>50.585617</ele><time>2024-09-12T02:26:55Z</time><name>1914</name><sym>Flag, Blue</sym></wpt><wpt lat="10.373392" lon="123.931098"><ele>49.820354</ele><time>2024-09-12T02:27:17Z</time><name>1915</name><sym>Flag, Blue</sym></wpt><wpt lat="10.372827" lon="123.931273"><ele>47.909420</ele><time>2024-09-12T02:28:36Z</time><name>1916</name><sym>Flag, Blue</sym></wpt><wpt lat="10.372817" lon="123.931269"><ele>48.978207</ele><time>2024-09-12T02:28:45Z</time><name>1917</name><sym>Flag, Blue</sym></wpt><wpt lat="10.377145" lon="123.932995"><ele>64.172981</ele><time>2024-09-12T02:34:58Z</time><name>1918</name><sym>Flag, Blue</sym></wpt><wpt lat="10.377110" lon="123.933002"><ele>67.715782</ele><time>2024-09-12T02:35:22Z</time><name>1919</name><sym>Flag, Blue</sym></wpt><wpt lat="10.377088" lon="123.932994"><ele>66.332085</ele><time>2024-09-12T02:35:35Z</time><name>1920</name><sym>Flag, Blue</sym></wpt><wpt lat="10.377001" lon="123.932982"><ele>65.491524</ele><time>2024-09-12T02:36:03Z</time><name>1921</name><sym>Flag, Blue</sym></wpt><wpt lat="10.376904" lon="123.932984"><ele>65.233612</ele><time>2024-09-12T02:36:36Z</time><name>1922</name><sym>Flag, Blue</sym></wpt><wpt lat="10.376865" lon="123.932991"><ele>64.484970</ele><time>2024-09-12T02:36:50Z</time><name>1923</name><sym>Flag, Blue</sym></wpt><wpt lat="10.376799" lon="123.932974"><ele>68.247948</ele><time>2024-09-12T02:37:14Z</time><name>1924</name><sym>Flag, Blue</sym></wpt><wpt lat="10.376773" lon="123.932989"><ele>68.320312</ele><time>2024-09-12T02:37:30Z</time><name>1925</name><sym>Flag, Blue</sym></wpt><wpt lat="10.376776" lon="123.932967"><ele>66.768326</ele><time>2024-09-12T02:37:45Z</time><name>1926</name><sym>Flag, Blue</sym></wpt><wpt lat="10.376726" lon="123.932976"><ele>66.211266</ele><time>2024-09-12T02:38:07Z</time><name>1927</name><sym>Flag, Blue</sym></wpt><wpt lat="10.376725" lon="123.932987"><ele>67.203911</ele><time>2024-09-12T02:38:29Z</time><name>1928</name><sym>Flag, Blue</sym></wpt><wpt lat="10.376716" lon="123.932977"><ele>68.936348</ele><time>2024-09-12T02:38:48Z</time><name>1929</name><sym>Flag, Blue</sym></wpt><wpt lat="10.376714" lon="123.932976"><ele>72.578072</ele><time>2024-09-12T02:39:05Z</time><name>1930</name><sym>Flag, Blue</sym></wpt><wpt lat="10.376325" lon="123.932840"><ele>66.344269</ele><time>2024-09-12T02:40:03Z</time><name>1931</name><sym>Flag, Blue</sym></wpt><wpt lat="10.376109" lon="123.932734"><ele>64.512650</ele><time>2024-09-12T02:41:02Z</time><name>1932</name><sym>Flag, Blue</sym></wpt><wpt lat="10.375957" lon="123.932665"><ele>64.991348</ele><time>2024-09-12T02:41:30Z</time><name>1933</name><sym>Flag, Blue</sym></wpt><wpt lat="10.375605" lon="123.932275"><ele>57.934517</ele><time>2024-09-12T02:42:37Z</time><name>1934</name><sym>Flag, Blue</sym></wpt><wpt lat="10.375597" lon="123.932264"><ele>55.981300</ele><time>2024-09-12T02:42:50Z</time><name>1935</name><sym>Flag, Blue</sym></wpt><wpt lat="10.375598" lon="123.932260"><ele>55.043449</ele><time>2024-09-12T02:43:03Z</time><name>1936</name><sym>Flag, Blue</sym></wpt><wpt lat="10.375596" lon="123.932259"><ele>56.576977</ele><time>2024-09-12T02:43:11Z</time><name>1937</name><sym>Flag, Blue</sym></wpt><wpt lat="10.375491" lon="123.932151"><ele>56.279110</ele><time>2024-09-12T02:43:31Z</time><name>1938</name><sym>Flag, Blue</sym></wpt><wpt lat="10.375375" lon="123.932001"><ele>52.790966</ele><time>2024-09-12T02:44:08Z</time><name>1939</name><sym>Flag, Blue</sym></wpt><wpt lat="10.375117" lon="123.931775"><ele>48.067135</ele><time>2024-09-12T02:44:55Z</time><name>1940</name><sym>Flag, Blue</sym></wpt><wpt lat="10.374166" lon="123.931047"><ele>46.405701</ele><time>2024-09-12T02:46:57Z</time><name>1941</name><sym>Flag, Blue</sym></wpt><wpt lat="10.373736" lon="123.930828"><ele>42.082283</ele><time>2024-09-12T02:47:51Z</time><name>1942</name><sym>Flag, Blue</sym></wpt></gpx>