<?xml version="1.0" encoding="UTF-8" standalone="no" ?><gpx xmlns="http://www.topografix.com/GPX/1/1" xmlns:gpxx="http://www.garmin.com/xmlschemas/GpxExtensions/v3" xmlns:wptx1="http://www.garmin.com/xmlschemas/WaypointExtension/v1" xmlns:gpxtpx="http://www.garmin.com/xmlschemas/TrackPointExtension/v1" creator="Oregon 750" version="1.1" xmlns:xsi="http://www.w3.org/2001/XMLSchema-instance" xsi:schemaLocation="http://www.topografix.com/GPX/1/1 http://www.topografix.com/GPX/1/1/gpx.xsd http://www.garmin.com/xmlschemas/GpxExtensions/v3 http://www8.garmin.com/xmlschemas/GpxExtensionsv3.xsd http://www.garmin.com/xmlschemas/TrackStatsExtension/v1 http://www8.garmin.com/xmlschemas/TrackStatsExtension.xsd http://www.garmin.com/xmlschemas/WaypointExtension/v1 http://www8.garmin.com/xmlschemas/WaypointExtensionv1.xsd http://www.garmin.com/xmlschemas/TrackPointExtension/v1 http://www.garmin.com/xmlschemas/TrackPointExtensionv1.xsd"><metadata><link href="http://www.garmin.com"><text>Garmin International</text></link><time>2024-09-11T03:17:19Z</time></metadata><wpt lat="10.375321" lon="123.936079"><ele>-28.682547</ele><time>2024-09-11T03:17:19Z</time><name>4158</name><sym>Flag, Blue</sym></wpt><wpt lat="10.383269" lon="123.923852"><ele>-28.663885</ele><time>2024-09-11T03:18:01Z</time><name>4159</name><sym>Flag, Blue</sym></wpt><wpt lat="10.383229" lon="123.923816"><ele>-28.663885</ele><time>2024-09-11T03:18:13Z</time><name>4160</name><sym>Flag, Blue</sym></wpt><wpt lat="10.383184" lon="123.923788"><ele>-28.663885</ele><time>2024-09-11T03:18:27Z</time><name>4161</name><sym>Flag, Blue</sym></wpt><wpt lat="10.382934" lon="123.924103"><ele>-28.663885</ele><time>2024-09-11T03:18:42Z</time><name>4162</name><sym>Flag, Blue</sym></wpt><wpt lat="10.382753" lon="123.923976"><ele>-28.663885</ele><time>2024-09-11T03:19:27Z</time><name>4163</name><sym>Flag, Blue</sym></wpt><wpt lat="10.382650" lon="123.923978"><ele>-28.663885</ele><time>2024-09-11T03:19:47Z</time><name>4164</name><sym>Flag, Blue</sym></wpt><wpt lat="10.382570" lon="123.923942"><ele>-28.663885</ele><time>2024-09-11T03:20:00Z</time><name>4165</name><sym>Flag, Blue</sym></wpt><wpt lat="10.382498" lon="123.923993"><ele>-24.558380</ele><time>2024-09-11T03:20:07Z</time><name>4166</name><sym>Flag, Blue</sym></wpt><wpt lat="10.382470" lon="123.924034"><ele>-24.633026</ele><time>2024-09-11T03:20:17Z</time><name>4167</name><sym>Flag, Blue</sym></wpt><wpt lat="10.382420" lon="123.924028"><ele>-24.521057</ele><time>2024-09-11T03:20:32Z</time><name>4168</name><sym>Flag, Blue</sym></wpt><wpt lat="10.382278" lon="123.924122"><ele>-23.951885</ele><time>2024-09-11T03:20:51Z</time><name>4169</name><sym>Flag, Blue</sym></wpt><wpt lat="10.381144" lon="123.924522"><ele>-16.263395</ele><time>2024-09-11T03:23:09Z</time><name>4170</name><sym>Flag, Blue</sym></wpt><wpt lat="10.379974" lon="123.924886"><ele>-7.417900</ele><time>2024-09-11T03:24:52Z</time><name>4171</name><sym>Flag, Blue</sym></wpt><wpt lat="10.379125" lon="123.925622"><ele>-16.207411</ele><time>2024-09-11T03:27:15Z</time><name>4172</name><sym>Flag, Blue</sym></wpt><wpt lat="10.379025" lon="123.925660"><ele>-16.515324</ele><time>2024-09-11T03:27:56Z</time><name>4173</name><sym>Flag, Blue</sym></wpt><wpt lat="10.378955" lon="123.925631"><ele>-17.233788</ele><time>2024-09-11T03:28:08Z</time><name>4174</name><sym>Flag, Blue</sym></wpt><wpt lat="10.378909" lon="123.925642"><ele>-17.672331</ele><time>2024-09-11T03:28:24Z</time><name>4175</name><sym>Flag, Blue</sym></wpt><wpt lat="10.378867" lon="123.925653"><ele>-17.690992</ele><time>2024-09-11T03:28:39Z</time><name>4176</name><sym>Flag, Blue</sym></wpt><wpt lat="10.378833" lon="123.925657"><ele>-17.886936</ele><time>2024-09-11T03:28:49Z</time><name>4177</name><sym>Flag, Blue</sym></wpt><wpt lat="10.378806" lon="123.925654"><ele>-18.073549</ele><time>2024-09-11T03:28:59Z</time><name>4178</name><sym>Flag, Blue</sym></wpt><wpt lat="10.378767" lon="123.925658"><ele>-17.877605</ele><time>2024-09-11T03:29:15Z</time><name>4179</name><sym>Flag, Blue</sym></wpt><wpt lat="10.378755" lon="123.925671"><ele>-17.877605</ele><time>2024-09-11T03:29:22Z</time><name>4180</name><sym>Flag, Blue</sym></wpt><wpt lat="10.378784" lon="123.925693"><ele>-17.877605</ele><time>2024-09-11T03:29:37Z</time><name>4181</name><sym>Flag, Blue</sym></wpt><wpt lat="10.378856" lon="123.925678"><ele>-17.877605</ele><time>2024-09-11T03:29:54Z</time><name>4182</name><sym>Flag, Blue</sym></wpt><wpt lat="10.378847" lon="123.925681"><ele>-17.877605</ele><time>2024-09-11T03:30:01Z</time><name>4183</name><sym>Flag, Blue</sym></wpt><wpt lat="10.378836" lon="123.925699"><ele>-17.877605</ele><time>2024-09-11T03:30:07Z</time><name>4184</name><sym>Flag, Blue</sym></wpt><wpt lat="10.378818" lon="123.925717"><ele>-17.877605</ele><time>2024-09-11T03:30:14Z</time><name>4185</name><sym>Flag, Blue</sym></wpt><wpt lat="10.378806" lon="123.925728"><ele>-17.877605</ele><time>2024-09-11T03:30:18Z</time><name>4186</name><sym>Flag, Blue</sym></wpt><wpt lat="10.378782" lon="123.925751"><ele>-17.877605</ele><time>2024-09-11T03:30:25Z</time><name>4187</name><sym>Flag, Blue</sym></wpt><wpt lat="10.378733" lon="123.925762"><ele>-17.877605</ele><time>2024-09-11T03:30:40Z</time><name>4188</name><sym>Flag, Blue</sym></wpt><wpt lat="10.378730" lon="123.925765"><ele>-17.877605</ele><time>2024-09-11T03:30:50Z</time><name>4189</name><sym>Flag, Blue</sym></wpt><wpt lat="10.378738" lon="123.925798"><ele>-17.877605</ele><time>2024-09-11T03:31:03Z</time><name>4190</name><sym>Flag, Blue</sym></wpt><wpt lat="10.378728" lon="123.925804"><ele>-17.877605</ele><time>2024-09-11T03:31:09Z</time><name>4191</name><sym>Flag, Blue</sym></wpt><wpt lat="10.378715" lon="123.925820"><ele>-17.877605</ele><time>2024-09-11T03:31:17Z</time><name>4192</name><sym>Flag, Blue</sym></wpt><wpt lat="10.378704" lon="123.925829"><ele>-17.877605</ele><time>2024-09-11T03:31:21Z</time><name>4193</name><sym>Flag, Blue</sym></wpt><wpt lat="10.378653" lon="123.925909"><ele>-17.877605</ele><time>2024-09-11T03:31:59Z</time><name>4194</name><sym>Flag, Blue</sym></wpt><wpt lat="10.378636" lon="123.925928"><ele>-17.877605</ele><time>2024-09-11T03:32:10Z</time><name>4195</name><sym>Flag, Blue</sym></wpt><wpt lat="10.378607" lon="123.926000"><ele>-17.877605</ele><time>2024-09-11T03:32:31Z</time><name>4196</name><sym>Flag, Blue</sym></wpt><wpt lat="10.378599" lon="123.926049"><ele>-17.877605</ele><time>2024-09-11T03:32:48Z</time><name>4197</name><sym>Flag, Blue</sym></wpt><wpt lat="10.378529" lon="123.926102"><ele>-17.877605</ele><time>2024-09-11T03:33:12Z</time><name>4198</name><sym>Flag, Blue</sym></wpt><wpt lat="10.378524" lon="123.926169"><ele>-17.877605</ele><time>2024-09-11T03:33:21Z</time><name>4199</name><sym>Flag, Blue</sym></wpt><wpt lat="10.378508" lon="123.926194"><ele>-17.877605</ele><time>2024-09-11T03:33:30Z</time><name>4200</name><sym>Flag, Blue</sym></wpt><wpt lat="10.378496" lon="123.926239"><ele>-17.877605</ele><time>2024-09-11T03:33:40Z</time><name>4201</name><sym>Flag, Blue</sym></wpt><wpt lat="10.378437" lon="123.926314"><ele>-17.877605</ele><time>2024-09-11T03:34:02Z</time><name>4202</name><sym>Flag, Blue</sym></wpt><wpt lat="10.378341" lon="123.926404"><ele>-21.749842</ele><time>2024-09-11T03:34:30Z</time><name>4203</name><sym>Flag, Blue</sym></wpt><wpt lat="10.378330" lon="123.926406"><ele>-21.497913</ele><time>2024-09-11T03:34:38Z</time><name>4204</name><sym>Flag, Blue</sym></wpt><wpt lat="10.378315" lon="123.926417"><ele>-21.385946</ele><time>2024-09-11T03:34:50Z</time><name>4205</name><sym>Flag, Blue</sym></wpt><wpt lat="10.378265" lon="123.926446"><ele>-21.451260</ele><time>2024-09-11T03:35:09Z</time><name>4206</name><sym>Flag, Blue</sym></wpt><wpt lat="10.378264" lon="123.926449"><ele>-21.376616</ele><time>2024-09-11T03:35:13Z</time><name>4207</name><sym>Flag, Blue</sym></wpt><wpt lat="10.378246" lon="123.926473"><ele>-21.432598</ele><time>2024-09-11T03:35:24Z</time><name>4208</name><sym>Flag, Blue</sym></wpt><wpt lat="10.378214" lon="123.926478"><ele>-21.432598</ele><time>2024-09-11T03:35:34Z</time><name>4209</name><sym>Flag, Blue</sym></wpt><wpt lat="10.378185" lon="123.926516"><ele>-21.432598</ele><time>2024-09-11T03:35:43Z</time><name>4210</name><sym>Flag, Blue</sym></wpt><wpt lat="10.378659" lon="123.926912"><ele>-21.432598</ele><time>2024-09-11T03:37:35Z</time><name>4211</name><sym>Flag, Blue</sym></wpt><wpt lat="10.378680" lon="123.926938"><ele>-21.432598</ele><time>2024-09-11T03:38:02Z</time><name>4212</name><sym>Flag, Blue</sym></wpt><wpt lat="10.378680" lon="123.926936"><ele>-21.432598</ele><time>2024-09-11T03:38:06Z</time><name>4213</name><sym>Flag, Blue</sym></wpt><wpt lat="10.378693" lon="123.926932"><ele>-21.432598</ele><time>2024-09-11T03:38:27Z</time><name>4214</name><sym>Flag, Blue</sym></wpt><wpt lat="10.378695" lon="123.926934"><ele>-21.432598</ele><time>2024-09-11T03:38:31Z</time><name>4215</name><sym>Flag, Blue</sym></wpt><wpt lat="10.378686" lon="123.926938"><ele>-21.432598</ele><time>2024-09-11T03:38:41Z</time><name>4216</name><sym>Flag, Blue</sym></wpt><wpt lat="10.378678" lon="123.926932"><ele>-21.432598</ele><time>2024-09-11T03:38:51Z</time><name>4217</name><sym>Flag, Blue</sym></wpt><wpt lat="10.378675" lon="123.926936"><ele>-21.432598</ele><time>2024-09-11T03:38:53Z</time><name>4218</name><sym>Flag, Blue</sym></wpt><wpt lat="10.378607" lon="123.926874"><ele>-21.432598</ele><time>2024-09-11T03:39:12Z</time><name>4219</name><sym>Flag, Blue</sym></wpt><wpt lat="10.378598" lon="123.926876"><ele>-21.432598</ele><time>2024-09-11T03:39:15Z</time><name>4220</name><sym>Flag, Blue</sym></wpt><wpt lat="10.378591" lon="123.926880"><ele>-21.432598</ele><time>2024-09-11T03:39:19Z</time><name>4221</name><sym>Flag, Blue</sym></wpt><wpt lat="10.378587" lon="123.926875"><ele>-21.432598</ele><time>2024-09-11T03:39:21Z</time><name>4222</name><sym>Flag, Blue</sym></wpt><wpt lat="10.378568" lon="123.926848"><ele>-21.432598</ele><time>2024-09-11T03:39:45Z</time><name>4223</name><sym>Flag, Blue</sym></wpt><wpt lat="10.378562" lon="123.926848"><ele>-21.432598</ele><time>2024-09-11T03:39:49Z</time><name>4224</name><sym>Flag, Blue</sym></wpt><wpt lat="10.378588" lon="123.926823"><ele>-21.432598</ele><time>2024-09-11T03:40:02Z</time><name>4225</name><sym>Flag, Blue</sym></wpt><wpt lat="10.378580" lon="123.926808"><ele>-21.432598</ele><time>2024-09-11T03:40:07Z</time><name>4226</name><sym>Flag, Blue</sym></wpt><wpt lat="10.378549" lon="123.926798"><ele>-21.432598</ele><time>2024-09-11T03:40:17Z</time><name>4227</name><sym>Flag, Blue</sym></wpt><wpt lat="10.378538" lon="123.926788"><ele>-21.432598</ele><time>2024-09-11T03:40:29Z</time><name>4228</name><sym>Flag, Blue</sym></wpt><wpt lat="10.378530" lon="123.926779"><ele>-21.432598</ele><time>2024-09-11T03:40:43Z</time><name>4229</name><sym>Flag, Blue</sym></wpt><wpt lat="10.378515" lon="123.926743"><ele>-21.432598</ele><time>2024-09-11T03:41:12Z</time><name>4230</name><sym>Flag, Blue</sym></wpt><wpt lat="10.378511" lon="123.926753"><ele>-21.432598</ele><time>2024-09-11T03:41:31Z</time><name>4231</name><sym>Flag, Blue</sym></wpt><wpt lat="10.378576" lon="123.926666"><ele>-21.432598</ele><time>2024-09-11T03:42:03Z</time><name>4232</name><sym>Flag, Blue</sym></wpt><wpt lat="10.378571" lon="123.926658"><ele>-21.432598</ele><time>2024-09-11T03:42:06Z</time><name>4233</name><sym>Flag, Blue</sym></wpt><wpt lat="10.378519" lon="123.926621"><ele>-21.432598</ele><time>2024-09-11T03:42:16Z</time><name>4234</name><sym>Flag, Blue</sym></wpt><wpt lat="10.378529" lon="123.926673"><ele>-21.432598</ele><time>2024-09-11T03:42:40Z</time><name>4235</name><sym>Flag, Blue</sym></wpt><wpt lat="10.378394" lon="123.926673"><ele>-21.432598</ele><time>2024-09-11T03:43:15Z</time><name>4236</name><sym>Flag, Blue</sym></wpt><wpt lat="10.378383" lon="123.926662"><ele>-21.432598</ele><time>2024-09-11T03:43:25Z</time><name>4237</name><sym>Flag, Blue</sym></wpt><wpt lat="10.378375" lon="123.926656"><ele>-21.432598</ele><time>2024-09-11T03:43:33Z</time><name>4238</name><sym>Flag, Blue</sym></wpt><wpt lat="10.378049" lon="123.926496"><ele>-21.432598</ele><time>2024-09-11T03:44:36Z</time><name>4239</name><sym>Flag, Blue</sym></wpt><wpt lat="10.378029" lon="123.926502"><ele>-21.432598</ele><time>2024-09-11T03:44:48Z</time><name>4240</name><sym>Flag, Blue</sym></wpt><wpt lat="10.377968" lon="123.926510"><ele>-21.432598</ele><time>2024-09-11T03:45:05Z</time><name>4241</name><sym>Flag, Blue</sym></wpt><wpt lat="10.377943" lon="123.926515"><ele>-21.432598</ele><time>2024-09-11T03:45:19Z</time><name>4242</name><sym>Flag, Blue</sym></wpt><wpt lat="10.377811" lon="123.926588"><ele>-21.432598</ele><time>2024-09-11T03:45:45Z</time><name>4243</name><sym>Flag, Blue</sym></wpt><wpt lat="10.377734" lon="123.926692"><ele>-21.432598</ele><time>2024-09-11T03:46:14Z</time><name>4244</name><sym>Flag, Blue</sym></wpt><wpt lat="10.377681" lon="123.926778"><ele>-21.432598</ele><time>2024-09-11T03:46:31Z</time><name>4245</name><sym>Flag, Blue</sym></wpt><wpt lat="10.378590" lon="123.926679"><ele>-22.347006</ele><time>2024-09-11T03:47:38Z</time><name>4246</name><sym>Flag, Blue</sym></wpt><wpt lat="10.377486" lon="123.927094"><ele>-22.347006</ele><time>2024-09-11T03:47:46Z</time><name>4247</name><sym>Flag, Blue</sym></wpt><wpt lat="10.377337" lon="123.927163"><ele>-22.347006</ele><time>2024-09-11T03:48:12Z</time><name>4248</name><sym>Flag, Blue</sym></wpt><wpt lat="10.377348" lon="123.927166"><ele>-22.347006</ele><time>2024-09-11T03:48:18Z</time><name>4249</name><sym>Flag, Blue</sym></wpt><wpt lat="10.377315" lon="123.927192"><ele>-22.347006</ele><time>2024-09-11T03:48:31Z</time><name>4250</name><sym>Flag, Blue</sym></wpt><wpt lat="10.377103" lon="123.927430"><ele>-22.347006</ele><time>2024-09-11T03:50:14Z</time><name>4251</name><sym>Flag, Blue</sym></wpt><wpt lat="10.377035" lon="123.927439"><ele>-22.347006</ele><time>2024-09-11T03:50:36Z</time><name>4252</name><sym>Flag, Blue</sym></wpt><wpt lat="10.376851" lon="123.927577"><ele>-22.356337</ele><time>2024-09-11T03:51:17Z</time><name>4253</name><sym>Flag, Blue</sym></wpt><wpt lat="10.376762" lon="123.927628"><ele>-22.356337</ele><time>2024-09-11T03:51:38Z</time><name>4254</name><sym>Flag, Blue</sym></wpt><wpt lat="10.376291" lon="123.928034"><ele>-22.356337</ele><time>2024-09-11T03:53:01Z</time><name>4255</name><sym>Flag, Blue</sym></wpt><wpt lat="10.376264" lon="123.928089"><ele>-22.356337</ele><time>2024-09-11T03:53:21Z</time><name>4256</name><sym>Flag, Blue</sym></wpt><wpt lat="10.376241" lon="123.928103"><ele>-22.356337</ele><time>2024-09-11T03:53:28Z</time><name>4257</name><sym>Flag, Blue</sym></wpt><wpt lat="10.376105" lon="123.928095"><ele>-22.356337</ele><time>2024-09-11T03:54:03Z</time><name>4258</name><sym>Flag, Blue</sym></wpt><wpt lat="10.376028" lon="123.928127"><ele>-22.356337</ele><time>2024-09-11T03:54:23Z</time><name>4259</name><sym>Flag, Blue</sym></wpt><wpt lat="10.375998" lon="123.928159"><ele>-22.356337</ele><time>2024-09-11T03:54:37Z</time><name>4260</name><sym>Flag, Blue</sym></wpt><wpt lat="10.375962" lon="123.928204"><ele>-22.356337</ele><time>2024-09-11T03:54:56Z</time><name>4261</name><sym>Flag, Blue</sym></wpt><wpt lat="10.375945" lon="123.928215"><ele>-22.356337</ele><time>2024-09-11T03:55:09Z</time><name>4262</name><sym>Flag, Blue</sym></wpt><wpt lat="10.375905" lon="123.928215"><ele>-22.356337</ele><time>2024-09-11T03:55:14Z</time><name>4263</name><sym>Flag, Blue</sym></wpt><wpt lat="10.375875" lon="123.928218"><ele>-22.356337</ele><time>2024-09-11T03:55:22Z</time><name>4264</name><sym>Flag, Blue</sym></wpt><wpt lat="10.375412" lon="123.928403"><ele>-23.308067</ele><time>2024-09-11T03:59:45Z</time><name>4265</name><sym>Flag, Blue</sym></wpt><wpt lat="10.381247" lon="123.928680"><ele>-11.849978</ele><time>2024-09-11T05:25:51Z</time><name>4266</name><sym>Flag, Blue</sym></wpt><wpt lat="10.373907" lon="123.927330"><ele>-11.868640</ele><time>2024-09-11T05:26:11Z</time><name>4267</name><sym>Flag, Blue</sym></wpt><wpt lat="10.373753" lon="123.927422"><ele>-11.868640</ele><time>2024-09-11T05:26:32Z</time><name>4268</name><sym>Flag, Blue</sym></wpt><wpt lat="10.373754" lon="123.927422"><ele>-11.868640</ele><time>2024-09-11T05:26:38Z</time><name>4269</name><sym>Flag, Blue</sym></wpt><wpt lat="10.373794" lon="123.927456"><ele>-11.868640</ele><time>2024-09-11T05:27:05Z</time><name>4270</name><sym>Flag, Blue</sym></wpt><wpt lat="10.373788" lon="123.927470"><ele>-11.868640</ele><time>2024-09-11T05:27:23Z</time><name>4271</name><sym>Flag, Blue</sym></wpt><wpt lat="10.373802" lon="123.927480"><ele>-11.868640</ele><time>2024-09-11T05:27:26Z</time><name>4272</name><sym>Flag, Blue</sym></wpt><wpt lat="10.373806" lon="123.927481"><ele>-11.859309</ele><time>2024-09-11T05:27:29Z</time><name>4273</name><sym>Flag, Blue</sym></wpt><wpt lat="10.373841" lon="123.927458"><ele>-8.901480</ele><time>2024-09-11T05:27:47Z</time><name>4274</name><sym>Flag, Blue</sym></wpt><wpt lat="10.373890" lon="123.927546"><ele>-7.716482</ele><time>2024-09-11T05:28:03Z</time><name>4275</name><sym>Flag, Blue</sym></wpt><wpt lat="10.373936" lon="123.927565"><ele>-7.072664</ele><time>2024-09-11T05:28:19Z</time><name>4276</name><sym>Flag, Blue</sym></wpt><wpt lat="10.373940" lon="123.927576"><ele>-7.054003</ele><time>2024-09-11T05:28:24Z</time><name>4277</name><sym>Flag, Blue</sym></wpt><wpt lat="10.373947" lon="123.927595"><ele>-7.044672</ele><time>2024-09-11T05:28:26Z</time><name>4278</name><sym>Flag, Blue</sym></wpt><wpt lat="10.373939" lon="123.927579"><ele>-7.109987</ele><time>2024-09-11T05:28:44Z</time><name>4279</name><sym>Flag, Blue</sym></wpt><wpt lat="10.373947" lon="123.927737"><ele>-5.159873</ele><time>2024-09-11T05:29:27Z</time><name>4280</name><sym>Flag, Blue</sym></wpt><wpt lat="10.373960" lon="123.927762"><ele>-4.739991</ele><time>2024-09-11T05:29:35Z</time><name>4281</name><sym>Flag, Blue</sym></wpt><wpt lat="10.374021" lon="123.927818"><ele>-4.049520</ele><time>2024-09-11T05:30:05Z</time><name>4282</name><sym>Flag, Blue</sym></wpt><wpt lat="10.374036" lon="123.927849"><ele>-3.806922</ele><time>2024-09-11T05:30:12Z</time><name>4283</name><sym>Flag, Blue</sym></wpt><wpt lat="10.374100" lon="123.927935"><ele>-3.004483</ele><time>2024-09-11T05:30:42Z</time><name>4284</name><sym>Flag, Blue</sym></wpt><wpt lat="10.374097" lon="123.927976"><ele>-2.640586</ele><time>2024-09-11T05:30:52Z</time><name>4285</name><sym>Flag, Blue</sym></wpt><wpt lat="10.374113" lon="123.928110"><ele>-2.192713</ele><time>2024-09-11T05:31:18Z</time><name>4286</name><sym>Flag, Blue</sym></wpt><wpt lat="10.374100" lon="123.928269"><ele>-1.418265</ele><time>2024-09-11T05:31:41Z</time><name>4287</name><sym>Flag, Blue</sym></wpt><wpt lat="10.374136" lon="123.928283"><ele>-1.474249</ele><time>2024-09-11T05:31:50Z</time><name>4288</name><sym>Flag, Blue</sym></wpt><wpt lat="10.374195" lon="123.928378"><ele>-0.410550</ele><time>2024-09-11T05:32:12Z</time><name>4289</name><sym>Flag, Blue</sym></wpt><wpt lat="10.374212" lon="123.928438"><ele>-0.653148</ele><time>2024-09-11T05:32:25Z</time><name>4290</name><sym>Flag, Blue</sym></wpt><wpt lat="10.374268" lon="123.928533"><ele>-0.410550</ele><time>2024-09-11T05:32:40Z</time><name>4291</name><sym>Flag, Blue</sym></wpt><wpt lat="10.374298" lon="123.928599"><ele>0.102638</ele><time>2024-09-11T05:32:52Z</time><name>4292</name><sym>Flag, Blue</sym></wpt><wpt lat="10.374727" lon="123.928694"><ele>-1.119683</ele><time>2024-09-11T05:33:50Z</time><name>4293</name><sym>Flag, Blue</sym></wpt><wpt lat="10.375212" lon="123.928689"><ele>-5.467785</ele><time>2024-09-11T05:47:28Z</time><name>4294</name><sym>Flag, Blue</sym></wpt><wpt lat="10.377234" lon="123.927625"><ele>-5.458455</ele><time>2024-09-11T05:47:54Z</time><name>4295</name><sym>Flag, Blue</sym></wpt><wpt lat="10.377277" lon="123.927627"><ele>-5.458455</ele><time>2024-09-11T05:48:13Z</time><name>4296</name><sym>Flag, Blue</sym></wpt><wpt lat="10.377266" lon="123.927633"><ele>-5.458455</ele><time>2024-09-11T05:48:49Z</time><name>4297</name><sym>Flag, Blue</sym></wpt><wpt lat="10.377322" lon="123.927669"><ele>-5.458455</ele><time>2024-09-11T05:49:14Z</time><name>4298</name><sym>Flag, Blue</sym></wpt><wpt lat="10.377411" lon="123.927707"><ele>-5.458455</ele><time>2024-09-11T05:49:31Z</time><name>4299</name><sym>Flag, Blue</sym></wpt><wpt lat="10.377729" lon="123.927880"><ele>-5.458455</ele><time>2024-09-11T05:50:30Z</time><name>4300</name><sym>Flag, Blue</sym></wpt><wpt lat="10.377893" lon="123.928001"><ele>-5.458455</ele><time>2024-09-11T05:51:10Z</time><name>4301</name><sym>Flag, Blue</sym></wpt><wpt lat="10.378163" lon="123.928263"><ele>-5.458455</ele><time>2024-09-11T05:52:04Z</time><name>4302</name><sym>Flag, Blue</sym></wpt><wpt lat="10.378199" lon="123.928265"><ele>-5.458455</ele><time>2024-09-11T05:52:22Z</time><name>4303</name><sym>Flag, Blue</sym></wpt><wpt lat="10.378208" lon="123.928276"><ele>-5.458455</ele><time>2024-09-11T05:52:30Z</time><name>4304</name><sym>Flag, Blue</sym></wpt><wpt lat="10.378214" lon="123.928279"><ele>-5.458455</ele><time>2024-09-11T05:52:35Z</time><name>4305</name><sym>Flag, Blue</sym></wpt><wpt lat="10.378247" lon="123.928301"><ele>-5.458455</ele><time>2024-09-11T05:52:58Z</time><name>4306</name><sym>Flag, Blue</sym></wpt><wpt lat="10.378424" lon="123.928392"><ele>-5.458455</ele><time>2024-09-11T05:53:43Z</time><name>4307</name><sym>Flag, Blue</sym></wpt><wpt lat="10.378438" lon="123.928395"><ele>-5.458455</ele><time>2024-09-11T05:53:54Z</time><name>4308</name><sym>Flag, Blue</sym></wpt><wpt lat="10.378442" lon="123.928396"><ele>-5.458455</ele><time>2024-09-11T05:54:02Z</time><name>4309</name><sym>Flag, Blue</sym></wpt><wpt lat="10.378511" lon="123.928425"><ele>-5.458455</ele><time>2024-09-11T05:54:28Z</time><name>4310</name><sym>Flag, Blue</sym></wpt><wpt lat="10.378541" lon="123.928448"><ele>-5.458455</ele><time>2024-09-11T05:54:43Z</time><name>4311</name><sym>Flag, Blue</sym></wpt><wpt lat="10.378549" lon="123.928459"><ele>-5.458455</ele><time>2024-09-11T05:54:51Z</time><name>4312</name><sym>Flag, Blue</sym></wpt><wpt lat="10.378560" lon="123.928468"><ele>-5.458455</ele><time>2024-09-11T05:55:14Z</time><name>4313</name><sym>Flag, Blue</sym></wpt><wpt lat="10.378570" lon="123.928477"><ele>-5.458455</ele><time>2024-09-11T05:55:26Z</time><name>4314</name><sym>Flag, Blue</sym></wpt><wpt lat="10.378579" lon="123.928478"><ele>-5.458455</ele><time>2024-09-11T05:55:38Z</time><name>4315</name><sym>Flag, Blue</sym></wpt><wpt lat="10.378623" lon="123.928478"><ele>-5.458455</ele><time>2024-09-11T05:55:51Z</time><name>4316</name><sym>Flag, Blue</sym></wpt><wpt lat="10.378659" lon="123.928488"><ele>-5.458455</ele><time>2024-09-11T05:55:57Z</time><name>4317</name><sym>Flag, Blue</sym></wpt><wpt lat="10.378875" lon="123.928605"><ele>-5.458455</ele><time>2024-09-11T05:56:36Z</time><name>4318</name><sym>Flag, Blue</sym></wpt><wpt lat="10.378914" lon="123.928619"><ele>-5.458455</ele><time>2024-09-11T05:56:47Z</time><name>4319</name><sym>Flag, Blue</sym></wpt><wpt lat="10.378947" lon="123.928632"><ele>-5.458455</ele><time>2024-09-11T05:56:54Z</time><name>4320</name><sym>Flag, Blue</sym></wpt><wpt lat="10.378955" lon="123.928631"><ele>-5.458455</ele><time>2024-09-11T05:56:59Z</time><name>4321</name><sym>Flag, Blue</sym></wpt><wpt lat="10.378996" lon="123.928627"><ele>-5.458455</ele><time>2024-09-11T05:57:36Z</time><name>4322</name><sym>Flag, Blue</sym></wpt><wpt lat="10.379196" lon="123.928709"><ele>-5.458455</ele><time>2024-09-11T05:58:13Z</time><name>4323</name><sym>Flag, Blue</sym></wpt><wpt lat="10.379340" lon="123.928751"><ele>-5.458455</ele><time>2024-09-11T05:58:38Z</time><name>4324</name><sym>Flag, Blue</sym></wpt><wpt lat="10.379370" lon="123.928750"><ele>-5.458455</ele><time>2024-09-11T05:58:52Z</time><name>4325</name><sym>Flag, Blue</sym></wpt><wpt lat="10.379384" lon="123.928762"><ele>-5.458455</ele><time>2024-09-11T05:59:04Z</time><name>4326</name><sym>Flag, Blue</sym></wpt><wpt lat="10.379538" lon="123.928760"><ele>-5.458455</ele><time>2024-09-11T05:59:31Z</time><name>4327</name><sym>Flag, Blue</sym></wpt><wpt lat="10.379718" lon="123.928789"><ele>-5.458455</ele><time>2024-09-11T06:00:02Z</time><name>4328</name><sym>Flag, Blue</sym></wpt><wpt lat="10.379774" lon="123.928817"><ele>-5.458455</ele><time>2024-09-11T06:00:12Z</time><name>4329</name><sym>Flag, Blue</sym></wpt><wpt lat="10.379794" lon="123.928827"><ele>-5.458455</ele><time>2024-09-11T06:00:16Z</time><name>4330</name><sym>Flag, Blue</sym></wpt><wpt lat="10.379841" lon="123.928848"><ele>-5.458455</ele><time>2024-09-11T06:00:28Z</time><name>4331</name><sym>Flag, Blue</sym></wpt><wpt lat="10.379893" lon="123.928860"><ele>-2.015429</ele><time>2024-09-11T06:00:46Z</time><name>4332</name><sym>Flag, Blue</sym></wpt><wpt lat="10.379964" lon="123.928913"><ele>-1.847477</ele><time>2024-09-11T06:00:59Z</time><name>4333</name><sym>Flag, Blue</sym></wpt><wpt lat="10.380006" lon="123.928930"><ele>-1.595548</ele><time>2024-09-11T06:01:07Z</time><name>4334</name><sym>Flag, Blue</sym></wpt><wpt lat="10.380034" lon="123.928933"><ele>-1.474249</ele><time>2024-09-11T06:01:10Z</time><name>4335</name><sym>Flag, Blue</sym></wpt><wpt lat="10.380058" lon="123.928942"><ele>-1.483580</ele><time>2024-09-11T06:01:14Z</time><name>4336</name><sym>Flag, Blue</sym></wpt><wpt lat="10.380073" lon="123.928952"><ele>-1.492911</ele><time>2024-09-11T06:01:16Z</time><name>4337</name><sym>Flag, Blue</sym></wpt><wpt lat="10.380091" lon="123.928969"><ele>-1.408934</ele><time>2024-09-11T06:01:20Z</time><name>4338</name><sym>Flag, Blue</sym></wpt><wpt lat="10.380144" lon="123.929016"><ele>-1.138344</ele><time>2024-09-11T06:01:35Z</time><name>4339</name><sym>Flag, Blue</sym></wpt><wpt lat="10.380230" lon="123.929074"><ele>-0.727794</ele><time>2024-09-11T06:02:01Z</time><name>4340</name><sym>Flag, Blue</sym></wpt><wpt lat="10.380238" lon="123.929087"><ele>-0.681140</ele><time>2024-09-11T06:02:03Z</time><name>4341</name><sym>Flag, Blue</sym></wpt><wpt lat="10.380251" lon="123.929107"><ele>-0.709133</ele><time>2024-09-11T06:02:06Z</time><name>4342</name><sym>Flag, Blue</sym></wpt><wpt lat="10.380268" lon="123.929118"><ele>1.203659</ele><time>2024-09-11T06:04:05Z</time><name>4343</name><sym>Flag, Blue</sym></wpt><wpt lat="10.380703" lon="123.929239"><ele>1.212990</ele><time>2024-09-11T06:04:21Z</time><name>4344</name><sym>Flag, Blue</sym></wpt></gpx>