<?xml version="1.0" encoding="UTF-8" standalone="no" ?><gpx xmlns="http://www.topografix.com/GPX/1/1" xmlns:gpxx="http://www.garmin.com/xmlschemas/GpxExtensions/v3" xmlns:wptx1="http://www.garmin.com/xmlschemas/WaypointExtension/v1" xmlns:gpxtpx="http://www.garmin.com/xmlschemas/TrackPointExtension/v1" creator="eTrex 22x" version="1.1" xmlns:xsi="http://www.w3.org/2001/XMLSchema-instance" xsi:schemaLocation="http://www.topografix.com/GPX/1/1 http://www.topografix.com/GPX/1/1/gpx.xsd http://www.garmin.com/xmlschemas/GpxExtensions/v3 http://www8.garmin.com/xmlschemas/GpxExtensionsv3.xsd http://www.garmin.com/xmlschemas/TrackStatsExtension/v1 http://www8.garmin.com/xmlschemas/TrackStatsExtension.xsd http://www.garmin.com/xmlschemas/WaypointExtension/v1 http://www8.garmin.com/xmlschemas/WaypointExtensionv1.xsd http://www.garmin.com/xmlschemas/TrackPointExtension/v1 http://www.garmin.com/xmlschemas/TrackPointExtensionv1.xsd"><metadata><link href="http://www.garmin.com"><text>Garmin International</text></link><time>2024-09-11T02:36:03Z</time></metadata><wpt lat="10.362985" lon="123.946915"><time>2024-09-11T02:36:03Z</time><name>1751</name><sym>Flag, Blue</sym></wpt><wpt lat="10.381144" lon="123.928843"><time>2024-09-11T03:03:03Z</time><name>1752</name><sym>Flag, Blue</sym></wpt><wpt lat="10.382200" lon="123.924085"><ele>61.855846</ele><time>2024-09-11T03:19:13Z</time><name>1753</name><sym>Flag, Blue</sym></wpt><wpt lat="10.382148" lon="123.924114"><ele>61.182720</ele><time>2024-09-11T03:19:47Z</time><name>1754</name><sym>Flag, Blue</sym></wpt><wpt lat="10.382134" lon="123.924121"><ele>62.467365</ele><time>2024-09-11T03:19:58Z</time><name>1755</name><sym>Flag, Blue</sym></wpt><wpt lat="10.382092" lon="123.924132"><ele>62.132931</ele><time>2024-09-11T03:20:07Z</time><name>1756</name><sym>Flag, Blue</sym></wpt><wpt lat="10.381970" lon="123.924175"><ele>62.615841</ele><time>2024-09-11T03:20:38Z</time><name>1757</name><sym>Flag, Blue</sym></wpt><wpt lat="10.381961" lon="123.924181"><ele>62.652351</ele><time>2024-09-11T03:20:47Z</time><name>1758</name><sym>Flag, Blue</sym></wpt><wpt lat="10.380963" lon="123.924525"><ele>69.849182</ele><time>2024-09-11T03:22:36Z</time><name>1759</name><sym>Flag, Blue</sym></wpt><wpt lat="10.380859" lon="123.924592"><ele>72.764420</ele><time>2024-09-11T03:23:13Z</time><name>1760</name><sym>Flag, Blue</sym></wpt><wpt lat="10.380808" lon="123.924614"><ele>71.883835</ele><time>2024-09-11T03:23:36Z</time><name>1761</name><sym>Flag, Blue</sym></wpt><wpt lat="10.379828" lon="123.924865"><ele>71.635857</ele><time>2024-09-11T03:25:44Z</time><name>1762</name><sym>Flag, Blue</sym></wpt><wpt lat="10.379590" lon="123.925103"><ele>73.482376</ele><time>2024-09-11T03:26:29Z</time><name>1763</name><sym>Flag, Blue</sym></wpt><wpt lat="10.379354" lon="123.925379"><ele>74.341530</ele><time>2024-09-11T03:27:29Z</time><name>1764</name><sym>Flag, Blue</sym></wpt><wpt lat="10.379107" lon="123.925560"><ele>70.720993</ele><time>2024-09-11T03:28:21Z</time><name>1765</name><sym>Flag, Blue</sym></wpt><wpt lat="10.379108" lon="123.925563"><ele>72.334518</ele><time>2024-09-11T03:28:49Z</time><name>1766</name><sym>Flag, Blue</sym></wpt><wpt lat="10.379074" lon="123.925567"><ele>72.603073</ele><time>2024-09-11T03:29:08Z</time><name>1767</name><sym>Flag, Blue</sym></wpt><wpt lat="10.379052" lon="123.925576"><ele>69.033951</ele><time>2024-09-11T03:29:21Z</time><name>1768</name><sym>Flag, Blue</sym></wpt><wpt lat="10.379020" lon="123.925586"><ele>69.252243</ele><time>2024-09-11T03:29:34Z</time><name>1769</name><sym>Flag, Blue</sym></wpt><wpt lat="10.378865" lon="123.925565"><ele>66.156158</ele><time>2024-09-11T03:30:05Z</time><name>1770</name><sym>Flag, Blue</sym></wpt><wpt lat="10.378791" lon="123.925561"><ele>64.104340</ele><time>2024-09-11T03:30:24Z</time><name>1771</name><sym>Flag, Blue</sym></wpt><wpt lat="10.378568" lon="123.925886"><ele>52.782734</ele><time>2024-09-11T03:31:23Z</time><name>1772</name><sym>Flag, Blue</sym></wpt><wpt lat="10.378528" lon="123.925917"><ele>51.124531</ele><time>2024-09-11T03:31:39Z</time><name>1773</name><sym>Flag, Blue</sym></wpt><wpt lat="10.378531" lon="123.925939"><ele>52.830608</ele><time>2024-09-11T03:31:52Z</time><name>1774</name><sym>Flag, Blue</sym></wpt><wpt lat="10.378531" lon="123.925981"><ele>54.645023</ele><time>2024-09-11T03:32:07Z</time><name>1775</name><sym>Flag, Blue</sym></wpt><wpt lat="10.378526" lon="123.925998"><ele>53.937084</ele><time>2024-09-11T03:32:17Z</time><name>1776</name><sym>Flag, Blue</sym></wpt><wpt lat="10.378524" lon="123.926027"><ele>52.827511</ele><time>2024-09-11T03:32:31Z</time><name>1777</name><sym>Flag, Blue</sym></wpt><wpt lat="10.378277" lon="123.926401"><ele>57.321465</ele><time>2024-09-11T03:33:30Z</time><name>1778</name><sym>Flag, Blue</sym></wpt><wpt lat="10.378164" lon="123.926442"><ele>57.775883</ele><time>2024-09-11T03:33:54Z</time><name>1779</name><sym>Flag, Blue</sym></wpt><wpt lat="10.377325" lon="123.927110"><ele>53.253403</ele><time>2024-09-11T03:35:49Z</time><name>1780</name><sym>Flag, Blue</sym></wpt><wpt lat="10.377298" lon="123.927165"><ele>56.175552</ele><time>2024-09-11T03:36:05Z</time><name>1781</name><sym>Flag, Blue</sym></wpt><wpt lat="10.377262" lon="123.927185"><ele>55.784042</ele><time>2024-09-11T03:36:23Z</time><name>1782</name><sym>Flag, Blue</sym></wpt><wpt lat="10.377187" lon="123.927276"><ele>54.240891</ele><time>2024-09-11T03:36:45Z</time><name>1783</name><sym>Flag, Blue</sym></wpt><wpt lat="10.377110" lon="123.927351"><ele>55.192131</ele><time>2024-09-11T03:37:07Z</time><name>1784</name><sym>Flag, Blue</sym></wpt><wpt lat="10.377092" lon="123.927356"><ele>55.061440</ele><time>2024-09-11T03:37:24Z</time><name>1785</name><sym>Flag, Blue</sym></wpt><wpt lat="10.377074" lon="123.927370"><ele>54.700912</ele><time>2024-09-11T03:37:40Z</time><name>1786</name><sym>Flag, Blue</sym></wpt><wpt lat="10.376977" lon="123.927452"><ele>54.691856</ele><time>2024-09-11T03:38:02Z</time><name>1787</name><sym>Flag, Blue</sym></wpt><wpt lat="10.376950" lon="123.927465"><ele>52.894440</ele><time>2024-09-11T03:38:20Z</time><name>1788</name><sym>Flag, Blue</sym></wpt><wpt lat="10.376941" lon="123.927480"><ele>53.485565</ele><time>2024-09-11T03:38:34Z</time><name>1789</name><sym>Flag, Blue</sym></wpt><wpt lat="10.376914" lon="123.927502"><ele>54.028343</ele><time>2024-09-11T03:38:47Z</time><name>1790</name><sym>Flag, Blue</sym></wpt><wpt lat="10.376299" lon="123.927994"><ele>55.030861</ele><time>2024-09-11T03:40:29Z</time><name>1791</name><sym>Flag, Blue</sym></wpt><wpt lat="10.376207" lon="123.928049"><ele>57.673370</ele><time>2024-09-11T03:40:53Z</time><name>1792</name><sym>Flag, Blue</sym></wpt><wpt lat="10.376022" lon="123.928108"><ele>55.191811</ele><time>2024-09-11T03:41:24Z</time><name>1793</name><sym>Flag, Blue</sym></wpt><wpt lat="10.375993" lon="123.928116"><ele>56.215736</ele><time>2024-09-11T03:41:39Z</time><name>1794</name><sym>Flag, Blue</sym></wpt><wpt lat="10.375939" lon="123.928149"><ele>56.085487</ele><time>2024-09-11T03:41:54Z</time><name>1795</name><sym>Flag, Blue</sym></wpt><wpt lat="10.375920" lon="123.928161"><ele>56.192688</ele><time>2024-09-11T03:42:10Z</time><name>1796</name><sym>Flag, Blue</sym></wpt><wpt lat="10.375865" lon="123.928198"><ele>54.508934</ele><time>2024-09-11T03:42:54Z</time><name>1797</name><sym>Flag, Blue</sym></wpt><wpt lat="10.375831" lon="123.928208"><ele>52.694054</ele><time>2024-09-11T03:43:10Z</time><name>1798</name><sym>Flag, Blue</sym></wpt><wpt lat="10.375792" lon="123.928223"><ele>52.441429</ele><time>2024-09-11T03:43:23Z</time><name>1799</name><sym>Flag, Blue</sym></wpt><wpt lat="10.375773" lon="123.928238"><ele>51.906364</ele><time>2024-09-11T03:43:37Z</time><name>1800</name><sym>Flag, Blue</sym></wpt><wpt lat="10.375726" lon="123.928246"><ele>49.007191</ele><time>2024-09-11T03:43:51Z</time><name>1801</name><sym>Flag, Blue</sym></wpt><wpt lat="10.375654" lon="123.928276"><ele>48.304195</ele><time>2024-09-11T03:44:06Z</time><name>1802</name><sym>Flag, Blue</sym></wpt><wpt lat="10.375593" lon="123.928367"><ele>53.494938</ele><time>2024-09-11T03:45:35Z</time><name>1803</name><sym>Flag, Blue</sym></wpt><wpt lat="10.375545" lon="123.928375"><ele>57.345051</ele><time>2024-09-11T03:46:32Z</time><name>1804</name><sym>Flag, Blue</sym></wpt><wpt lat="10.375505" lon="123.928377"><ele>55.508518</ele><time>2024-09-11T03:46:45Z</time><name>1805</name><sym>Flag, Blue</sym></wpt><wpt lat="10.375491" lon="123.928374"><ele>56.079094</ele><time>2024-09-11T03:47:04Z</time><name>1806</name><sym>Flag, Blue</sym></wpt><wpt lat="10.375459" lon="123.928390"><ele>56.614082</ele><time>2024-09-11T03:47:33Z</time><name>1807</name><sym>Flag, Blue</sym></wpt><wpt lat="10.375438" lon="123.928391"><ele>58.645409</ele><time>2024-09-11T03:47:50Z</time><name>1808</name><sym>Flag, Blue</sym></wpt><wpt lat="10.375413" lon="123.928416"><ele>60.460945</ele><time>2024-09-11T03:48:21Z</time><name>1809</name><sym>Flag, Blue</sym></wpt><wpt lat="10.375398" lon="123.928432"><ele>60.304985</ele><time>2024-09-11T03:48:42Z</time><name>1810</name><sym>Flag, Blue</sym></wpt><wpt lat="10.375379" lon="123.928431"><ele>58.647415</ele><time>2024-09-11T03:48:55Z</time><name>1811</name><sym>Flag, Blue</sym></wpt><wpt lat="10.375374" lon="123.928441"><ele>57.386093</ele><time>2024-09-11T03:49:16Z</time><name>1812</name><sym>Flag, Blue</sym></wpt><wpt lat="10.375269" lon="123.928493"><ele>54.267548</ele><time>2024-09-11T03:49:44Z</time><name>1813</name><sym>Flag, Blue</sym></wpt><wpt lat="10.375309" lon="123.928470"><ele>54.965183</ele><time>2024-09-11T03:50:13Z</time><name>1814</name><sym>Flag, Blue</sym></wpt><wpt lat="10.375230" lon="123.928462"><ele>53.452644</ele><time>2024-09-11T03:50:50Z</time><name>1815</name><sym>Flag, Blue</sym></wpt><wpt lat="10.375105" lon="123.928471"><ele>52.701675</ele><time>2024-09-11T03:51:25Z</time><name>1816</name><sym>Flag, Blue</sym></wpt><wpt lat="10.375026" lon="123.928455"><ele>56.397186</ele><time>2024-09-11T03:58:18Z</time><name>1817</name><sym>Flag, Blue</sym></wpt><wpt lat="10.374796" lon="123.928414"><ele>53.991196</ele><time>2024-09-11T05:22:42Z</time><name>1818</name><sym>Flag, Blue</sym></wpt><wpt lat="10.374774" lon="123.928459"><ele>55.379154</ele><time>2024-09-11T05:23:25Z</time><name>1819</name><sym>Flag, Blue</sym></wpt><wpt lat="10.374768" lon="123.928470"><ele>56.064693</ele><time>2024-09-11T05:23:43Z</time><name>1820</name><sym>Flag, Blue</sym></wpt><wpt lat="10.374324" lon="123.928323"><ele>47.508327</ele><time>2024-09-11T05:25:17Z</time><name>1821</name><sym>Flag, Blue</sym></wpt><wpt lat="10.374295" lon="123.928309"><ele>45.955029</ele><time>2024-09-11T05:25:35Z</time><name>1822</name><sym>Flag, Blue</sym></wpt><wpt lat="10.374283" lon="123.928306"><ele>45.776623</ele><time>2024-09-11T05:25:48Z</time><name>1823</name><sym>Flag, Blue</sym></wpt><wpt lat="10.374259" lon="123.928288"><ele>47.539986</ele><time>2024-09-11T05:26:01Z</time><name>1824</name><sym>Flag, Blue</sym></wpt><wpt lat="10.374237" lon="123.928272"><ele>49.108925</ele><time>2024-09-11T05:26:11Z</time><name>1825</name><sym>Flag, Blue</sym></wpt><wpt lat="10.374227" lon="123.928251"><ele>53.978958</ele><time>2024-09-11T05:26:33Z</time><name>1826</name><sym>Flag, Blue</sym></wpt><wpt lat="10.374228" lon="123.928268"><ele>56.787041</ele><time>2024-09-11T05:26:43Z</time><name>1827</name><sym>Flag, Blue</sym></wpt><wpt lat="10.374230" lon="123.928256"><ele>58.912895</ele><time>2024-09-11T05:26:55Z</time><name>1828</name><sym>Flag, Blue</sym></wpt><wpt lat="10.374228" lon="123.928265"><ele>59.327621</ele><time>2024-09-11T05:27:08Z</time><name>1829</name><sym>Flag, Blue</sym></wpt><wpt lat="10.374225" lon="123.928252"><ele>59.385422</ele><time>2024-09-11T05:27:18Z</time><name>1830</name><sym>Flag, Blue</sym></wpt><wpt lat="10.374207" lon="123.928229"><ele>62.346893</ele><time>2024-09-11T05:27:38Z</time><name>1831</name><sym>Flag, Blue</sym></wpt><wpt lat="10.374209" lon="123.928212"><ele>64.379128</ele><time>2024-09-11T05:27:53Z</time><name>1832</name><sym>Flag, Blue</sym></wpt><wpt lat="10.374209" lon="123.928210"><ele>64.230934</ele><time>2024-09-11T05:28:07Z</time><name>1833</name><sym>Flag, Blue</sym></wpt><wpt lat="10.374178" lon="123.928211"><ele>68.061462</ele><time>2024-09-11T05:28:24Z</time><name>1834</name><sym>Flag, Blue</sym></wpt><wpt lat="10.374194" lon="123.928196"><ele>70.196732</ele><time>2024-09-11T05:28:42Z</time><name>1835</name><sym>Flag, Blue</sym></wpt><wpt lat="10.374192" lon="123.928196"><ele>72.187622</ele><time>2024-09-11T05:28:52Z</time><name>1836</name><sym>Flag, Blue</sym></wpt><wpt lat="10.374167" lon="123.928149"><ele>72.360107</ele><time>2024-09-11T05:29:05Z</time><name>1837</name><sym>Flag, Blue</sym></wpt><wpt lat="10.374165" lon="123.928148"><ele>70.580872</ele><time>2024-09-11T05:29:28Z</time><name>1838</name><sym>Flag, Blue</sym></wpt><wpt lat="10.374125" lon="123.928075"><ele>71.473289</ele><time>2024-09-11T05:30:00Z</time><name>1839</name><sym>Flag, Blue</sym></wpt><wpt lat="10.374074" lon="123.927991"><ele>68.171150</ele><time>2024-09-11T05:30:32Z</time><name>1840</name><sym>Flag, Blue</sym></wpt><wpt lat="10.374056" lon="123.927956"><ele>67.470848</ele><time>2024-09-11T05:30:47Z</time><name>1841</name><sym>Flag, Blue</sym></wpt><wpt lat="10.374073" lon="123.927945"><ele>66.284149</ele><time>2024-09-11T05:31:05Z</time><name>1842</name><sym>Flag, Blue</sym></wpt><wpt lat="10.374058" lon="123.927927"><ele>66.750046</ele><time>2024-09-11T05:31:20Z</time><name>1843</name><sym>Flag, Blue</sym></wpt><wpt lat="10.374028" lon="123.927898"><ele>68.979874</ele><time>2024-09-11T05:31:43Z</time><name>1844</name><sym>Flag, Blue</sym></wpt><wpt lat="10.374037" lon="123.927874"><ele>70.095459</ele><time>2024-09-11T05:31:58Z</time><name>1845</name><sym>Flag, Blue</sym></wpt><wpt lat="10.374059" lon="123.927831"><ele>69.654198</ele><time>2024-09-11T05:32:16Z</time><name>1846</name><sym>Flag, Blue</sym></wpt><wpt lat="10.374010" lon="123.927614"><ele>60.270168</ele><time>2024-09-11T05:33:02Z</time><name>1847</name><sym>Flag, Blue</sym></wpt><wpt lat="10.373992" lon="123.927583"><ele>60.143276</ele><time>2024-09-11T05:33:21Z</time><name>1848</name><sym>Flag, Blue</sym></wpt><wpt lat="10.373973" lon="123.927515"><ele>62.380512</ele><time>2024-09-11T05:33:57Z</time><name>1849</name><sym>Flag, Blue</sym></wpt><wpt lat="10.373871" lon="123.926889"><ele>59.391434</ele><time>2024-09-11T05:35:33Z</time><name>1850</name><sym>Flag, Blue</sym></wpt><wpt lat="10.373850" lon="123.926886"><ele>57.843575</ele><time>2024-09-11T05:35:51Z</time><name>1851</name><sym>Flag, Blue</sym></wpt><wpt lat="10.373834" lon="123.926875"><ele>56.371399</ele><time>2024-09-11T05:36:17Z</time><name>1852</name><sym>Flag, Blue</sym></wpt><wpt lat="10.373760" lon="123.926775"><ele>56.728683</ele><time>2024-09-11T05:36:48Z</time><name>1853</name><sym>Flag, Blue</sym></wpt><wpt lat="10.373585" lon="123.926384"><ele>45.338467</ele><time>2024-09-11T05:37:43Z</time><name>1854</name><sym>Flag, Blue</sym></wpt><wpt lat="10.373562" lon="123.926379"><ele>44.101246</ele><time>2024-09-11T05:38:15Z</time><name>1855</name><sym>Flag, Blue</sym></wpt><wpt lat="10.373392" lon="123.926065"><ele>44.429718</ele><time>2024-09-11T05:39:03Z</time><name>1856</name><sym>Flag, Blue</sym></wpt><wpt lat="10.373385" lon="123.926070"><ele>45.352722</ele><time>2024-09-11T05:39:17Z</time><name>1857</name><sym>Flag, Blue</sym></wpt><wpt lat="10.377813" lon="123.927904"><ele>56.607449</ele><time>2024-09-11T05:48:42Z</time><name>1858</name><sym>Flag, Blue</sym></wpt><wpt lat="10.377865" lon="123.927948"><ele>61.655170</ele><time>2024-09-11T05:49:00Z</time><name>1859</name><sym>Flag, Blue</sym></wpt><wpt lat="10.377873" lon="123.927985"><ele>68.322021</ele><time>2024-09-11T05:49:18Z</time><name>1860</name><sym>Flag, Blue</sym></wpt><wpt lat="10.377875" lon="123.928000"><ele>71.170059</ele><time>2024-09-11T05:49:32Z</time><name>1861</name><sym>Flag, Blue</sym></wpt><wpt lat="10.377904" lon="123.928011"><ele>69.976929</ele><time>2024-09-11T05:49:46Z</time><name>1862</name><sym>Flag, Blue</sym></wpt><wpt lat="10.377913" lon="123.928015"><ele>69.092606</ele><time>2024-09-11T05:49:59Z</time><name>1863</name><sym>Flag, Blue</sym></wpt><wpt lat="10.378144" lon="123.928278"><ele>67.494789</ele><time>2024-09-11T05:50:43Z</time><name>1864</name><sym>Flag, Blue</sym></wpt><wpt lat="10.378270" lon="123.928321"><ele>65.270424</ele><time>2024-09-11T05:51:15Z</time><name>1865</name><sym>Flag, Blue</sym></wpt><wpt lat="10.378362" lon="123.928378"><ele>65.489365</ele><time>2024-09-11T05:51:37Z</time><name>1866</name><sym>Flag, Blue</sym></wpt><wpt lat="10.378419" lon="123.928409"><ele>63.456749</ele><time>2024-09-11T05:51:52Z</time><name>1867</name><sym>Flag, Blue</sym></wpt><wpt lat="10.378501" lon="123.928444"><ele>61.964817</ele><time>2024-09-11T05:52:08Z</time><name>1868</name><sym>Flag, Blue</sym></wpt><wpt lat="10.378832" lon="123.928607"><ele>61.244007</ele><time>2024-09-11T05:52:51Z</time><name>1869</name><sym>Flag, Blue</sym></wpt><wpt lat="10.378830" lon="123.928608"><ele>61.028969</ele><time>2024-09-11T05:53:08Z</time><name>1870</name><sym>Flag, Blue</sym></wpt><wpt lat="10.379134" lon="123.928736"><ele>63.678837</ele><time>2024-09-11T05:54:34Z</time><name>1871</name><sym>Flag, Blue</sym></wpt><wpt lat="10.379443" lon="123.928778"><ele>67.840958</ele><time>2024-09-11T05:55:27Z</time><name>1872</name><sym>Flag, Blue</sym></wpt><wpt lat="10.380143" lon="123.929069"><ele>64.401001</ele><time>2024-09-11T05:57:05Z</time><name>1873</name><sym>Flag, Blue</sym></wpt><wpt lat="10.380303" lon="123.929190"><ele>64.804947</ele><time>2024-09-11T05:57:45Z</time><name>1874</name><sym>Flag, Blue</sym></wpt><wpt lat="10.380381" lon="123.929218"><ele>67.720123</ele><time>2024-09-11T05:58:08Z</time><name>1875</name><sym>Flag, Blue</sym></wpt><wpt lat="10.380415" lon="123.929253"><ele>68.576843</ele><time>2024-09-11T05:58:32Z</time><name>1876</name><sym>Flag, Blue</sym></wpt><wpt lat="10.380463" lon="123.929266"><ele>69.094086</ele><time>2024-09-11T05:58:50Z</time><name>1877</name><sym>Flag, Blue</sym></wpt><wpt lat="10.380609" lon="123.929294"><ele>69.905884</ele><time>2024-09-11T05:59:38Z</time><name>1878</name><sym>Flag, Blue</sym></wpt><wpt lat="10.380770" lon="123.929217"><ele>71.739456</ele><time>2024-09-11T06:00:14Z</time><name>1879</name><sym>Flag, Blue</sym></wpt><wpt lat="10.380981" lon="123.929089"><time>2024-09-11T06:02:15Z</time><name>1880</name><sym>Flag, Blue</sym></wpt><wpt lat="10.381126" lon="123.929051"><ele>83.421951</ele><time>2024-09-11T06:03:13Z</time><name>1881</name><sym>Flag, Blue</sym></wpt><wpt lat="10.381029" lon="123.929078"><ele>80.835358</ele><time>2024-09-11T06:03:38Z</time><name>1882</name><sym>Flag, Blue</sym></wpt><wpt lat="10.381001" lon="123.929117"><time>2024-09-11T06:05:04Z</time><name>1883</name><sym>Flag, Blue</sym></wpt></gpx>