<?xml version="1.0" encoding="UTF-8" standalone="no" ?><gpx xmlns="http://www.topografix.com/GPX/1/1" xmlns:gpxx="http://www.garmin.com/xmlschemas/GpxExtensions/v3" xmlns:wptx1="http://www.garmin.com/xmlschemas/WaypointExtension/v1" xmlns:gpxtpx="http://www.garmin.com/xmlschemas/TrackPointExtension/v1" creator="Oregon 750" version="1.1" xmlns:xsi="http://www.w3.org/2001/XMLSchema-instance" xsi:schemaLocation="http://www.topografix.com/GPX/1/1 http://www.topografix.com/GPX/1/1/gpx.xsd http://www.garmin.com/xmlschemas/GpxExtensions/v3 http://www8.garmin.com/xmlschemas/GpxExtensionsv3.xsd http://www.garmin.com/xmlschemas/TrackStatsExtension/v1 http://www8.garmin.com/xmlschemas/TrackStatsExtension.xsd http://www.garmin.com/xmlschemas/WaypointExtension/v1 http://www8.garmin.com/xmlschemas/WaypointExtensionv1.xsd http://www.garmin.com/xmlschemas/TrackPointExtension/v1 http://www.garmin.com/xmlschemas/TrackPointExtensionv1.xsd"><metadata><link href="http://www.garmin.com"><text>Garmin International</text></link><time>2024-09-02T02:41:42Z</time></metadata><wpt lat="10.355624" lon="123.954112"><ele>-68.300667</ele><time>2024-09-02T02:41:42Z</time><name>3517</name><sym>Flag, Blue</sym></wpt><wpt lat="10.355774" lon="123.954301"><ele>-68.300667</ele><time>2024-09-02T02:42:08Z</time><name>3518</name><sym>Flag, Blue</sym></wpt><wpt lat="10.355729" lon="123.954284"><ele>-68.300667</ele><time>2024-09-02T02:42:36Z</time><name>3519</name><sym>Flag, Blue</sym></wpt><wpt lat="10.355681" lon="123.954272"><ele>-68.300667</ele><time>2024-09-02T02:42:50Z</time><name>3520</name><sym>Flag, Blue</sym></wpt><wpt lat="10.355787" lon="123.954484"><ele>-68.300667</ele><time>2024-09-02T02:43:26Z</time><name>3521</name><sym>Flag, Blue</sym></wpt><wpt lat="10.355699" lon="123.954557"><ele>-68.300667</ele><time>2024-09-02T02:43:48Z</time><name>3522</name><sym>Flag, Blue</sym></wpt><wpt lat="10.355651" lon="123.954620"><ele>-68.300667</ele><time>2024-09-02T02:44:05Z</time><name>3523</name><sym>Flag, Blue</sym></wpt><wpt lat="10.355506" lon="123.954652"><ele>-68.300667</ele><time>2024-09-02T02:44:41Z</time><name>3524</name><sym>Flag, Blue</sym></wpt><wpt lat="10.355489" lon="123.954612"><ele>-68.300667</ele><time>2024-09-02T02:44:57Z</time><name>3525</name><sym>Flag, Blue</sym></wpt><wpt lat="10.353593" lon="123.953291"><ele>-69.280388</ele><time>2024-09-02T02:51:47Z</time><name>3526</name><sym>Flag, Blue</sym></wpt><wpt lat="10.353479" lon="123.953234"><ele>-69.280388</ele><time>2024-09-02T02:52:13Z</time><name>3527</name><sym>Flag, Blue</sym></wpt><wpt lat="10.353455" lon="123.953223"><ele>-69.280388</ele><time>2024-09-02T02:52:26Z</time><name>3528</name><sym>Flag, Blue</sym></wpt><wpt lat="10.353456" lon="123.953233"><ele>-69.280388</ele><time>2024-09-02T02:52:32Z</time><name>3529</name><sym>Flag, Blue</sym></wpt><wpt lat="10.353425" lon="123.953163"><ele>-69.280388</ele><time>2024-09-02T02:52:53Z</time><name>3530</name><sym>Flag, Blue</sym></wpt><wpt lat="10.353389" lon="123.953103"><ele>-69.280388</ele><time>2024-09-02T02:53:15Z</time><name>3531</name><sym>Flag, Blue</sym></wpt><wpt lat="10.353340" lon="123.953087"><ele>-69.289719</ele><time>2024-09-02T02:53:41Z</time><name>3532</name><sym>Flag, Blue</sym></wpt><wpt lat="10.353313" lon="123.953047"><ele>-69.289719</ele><time>2024-09-02T02:53:48Z</time><name>3533</name><sym>Flag, Blue</sym></wpt><wpt lat="10.353289" lon="123.953052"><ele>-69.289719</ele><time>2024-09-02T02:53:53Z</time><name>3534</name><sym>Flag, Blue</sym></wpt><wpt lat="10.353074" lon="123.951252"><ele>-74.869469</ele><time>2024-09-02T02:59:25Z</time><name>3535</name><sym>Flag, Blue</sym></wpt><wpt lat="10.353035" lon="123.950881"><ele>-74.869469</ele><time>2024-09-02T03:01:01Z</time><name>3536</name><sym>Flag, Blue</sym></wpt><wpt lat="10.353318" lon="123.950697"><ele>-74.869469</ele><time>2024-09-02T03:02:12Z</time><name>3537</name><sym>Flag, Blue</sym></wpt><wpt lat="10.351181" lon="123.951846"><ele>-64.866966</ele><time>2024-09-02T03:05:02Z</time><name>3538</name><sym>Flag, Blue</sym></wpt><wpt lat="10.351149" lon="123.951808"><ele>-64.885628</ele><time>2024-09-02T03:05:23Z</time><name>3539</name><sym>Flag, Blue</sym></wpt><wpt lat="10.351201" lon="123.951796"><ele>-65.305511</ele><time>2024-09-02T03:05:56Z</time><name>3540</name><sym>Flag, Blue</sym></wpt><wpt lat="10.351207" lon="123.951778"><ele>-65.305511</ele><time>2024-09-02T03:06:11Z</time><name>3541</name><sym>Flag, Blue</sym></wpt><wpt lat="10.351257" lon="123.951761"><ele>-65.305511</ele><time>2024-09-02T03:06:29Z</time><name>3542</name><sym>Flag, Blue</sym></wpt><wpt lat="10.351260" lon="123.951767"><ele>-65.305511</ele><time>2024-09-02T03:06:34Z</time><name>3543</name><sym>Flag, Blue</sym></wpt><wpt lat="10.351266" lon="123.951778"><ele>-65.305511</ele><time>2024-09-02T03:06:38Z</time><name>3544</name><sym>Flag, Blue</sym></wpt><wpt lat="10.351292" lon="123.951748"><ele>-65.305511</ele><time>2024-09-02T03:06:54Z</time><name>3545</name><sym>Flag, Blue</sym></wpt><wpt lat="10.351297" lon="123.951709"><ele>-65.305511</ele><time>2024-09-02T03:07:05Z</time><name>3546</name><sym>Flag, Blue</sym></wpt><wpt lat="10.351298" lon="123.951710"><ele>-65.305511</ele><time>2024-09-02T03:07:18Z</time><name>3547</name><sym>Flag, Blue</sym></wpt><wpt lat="10.351357" lon="123.951752"><ele>-65.305511</ele><time>2024-09-02T03:07:47Z</time><name>3548</name><sym>Flag, Blue</sym></wpt><wpt lat="10.351369" lon="123.951759"><ele>-65.305511</ele><time>2024-09-02T03:08:15Z</time><name>3549</name><sym>Flag, Blue</sym></wpt><wpt lat="10.351366" lon="123.951757"><ele>-65.305511</ele><time>2024-09-02T03:08:20Z</time><name>3550</name><sym>Flag, Blue</sym></wpt><wpt lat="10.351363" lon="123.951753"><ele>-65.305511</ele><time>2024-09-02T03:08:31Z</time><name>3551</name><sym>Flag, Blue</sym></wpt><wpt lat="10.351382" lon="123.951755"><ele>-65.305511</ele><time>2024-09-02T03:08:41Z</time><name>3552</name><sym>Flag, Blue</sym></wpt><wpt lat="10.351385" lon="123.951760"><ele>-65.305511</ele><time>2024-09-02T03:08:50Z</time><name>3553</name><sym>Flag, Blue</sym></wpt><wpt lat="10.351417" lon="123.951739"><ele>-65.305511</ele><time>2024-09-02T03:09:04Z</time><name>3554</name><sym>Flag, Blue</sym></wpt><wpt lat="10.351400" lon="123.951697"><ele>-65.305511</ele><time>2024-09-02T03:09:39Z</time><name>3555</name><sym>Flag, Blue</sym></wpt><wpt lat="10.351383" lon="123.951713"><ele>-65.305511</ele><time>2024-09-02T03:09:55Z</time><name>3556</name><sym>Flag, Blue</sym></wpt><wpt lat="10.351442" lon="123.951688"><ele>-65.305511</ele><time>2024-09-02T03:10:24Z</time><name>3557</name><sym>Flag, Blue</sym></wpt><wpt lat="10.351479" lon="123.951699"><ele>-65.305511</ele><time>2024-09-02T03:11:20Z</time><name>3558</name><sym>Flag, Blue</sym></wpt><wpt lat="10.351584" lon="123.951698"><ele>-65.305511</ele><time>2024-09-02T03:11:41Z</time><name>3559</name><sym>Flag, Blue</sym></wpt><wpt lat="10.351605" lon="123.951656"><ele>-65.305511</ele><time>2024-09-02T03:11:54Z</time><name>3560</name><sym>Flag, Blue</sym></wpt><wpt lat="10.351900" lon="123.952152"><ele>-62.151737</ele><time>2024-09-02T03:15:50Z</time><name>3561</name><sym>Flag, Blue</sym></wpt><wpt lat="10.351924" lon="123.952160"><ele>-62.151737</ele><time>2024-09-02T03:16:00Z</time><name>3562</name><sym>Flag, Blue</sym></wpt><wpt lat="10.351938" lon="123.952152"><ele>-62.151737</ele><time>2024-09-02T03:16:15Z</time><name>3563</name><sym>Flag, Blue</sym></wpt><wpt lat="10.351949" lon="123.952158"><ele>-62.151737</ele><time>2024-09-02T03:16:21Z</time><name>3564</name><sym>Flag, Blue</sym></wpt><wpt lat="10.352035" lon="123.952144"><ele>-62.151737</ele><time>2024-09-02T03:16:37Z</time><name>3565</name><sym>Flag, Blue</sym></wpt><wpt lat="10.352044" lon="123.952131"><ele>-62.151737</ele><time>2024-09-02T03:16:52Z</time><name>3566</name><sym>Flag, Blue</sym></wpt><wpt lat="10.352068" lon="123.952087"><ele>-62.151737</ele><time>2024-09-02T03:17:07Z</time><name>3567</name><sym>Flag, Blue</sym></wpt><wpt lat="10.352055" lon="123.952085"><ele>-62.151737</ele><time>2024-09-02T03:17:29Z</time><name>3568</name><sym>Flag, Blue</sym></wpt><wpt lat="10.352018" lon="123.952069"><ele>-62.151737</ele><time>2024-09-02T03:17:45Z</time><name>3569</name><sym>Flag, Blue</sym></wpt><wpt lat="10.352019" lon="123.952049"><ele>-62.151737</ele><time>2024-09-02T03:17:55Z</time><name>3570</name><sym>Flag, Blue</sym></wpt><wpt lat="10.352016" lon="123.952036"><ele>-62.151737</ele><time>2024-09-02T03:18:04Z</time><name>3571</name><sym>Flag, Blue</sym></wpt><wpt lat="10.352032" lon="123.952009"><ele>-62.151737</ele><time>2024-09-02T03:18:15Z</time><name>3572</name><sym>Flag, Blue</sym></wpt><wpt lat="10.352065" lon="123.951978"><ele>-62.151737</ele><time>2024-09-02T03:18:24Z</time><name>3573</name><sym>Flag, Blue</sym></wpt><wpt lat="10.352067" lon="123.951977"><ele>-62.151737</ele><time>2024-09-02T03:18:29Z</time><name>3574</name><sym>Flag, Blue</sym></wpt><wpt lat="10.352073" lon="123.951968"><ele>-62.151737</ele><time>2024-09-02T03:18:35Z</time><name>3575</name><sym>Flag, Blue</sym></wpt><wpt lat="10.352085" lon="123.951944"><ele>-62.151737</ele><time>2024-09-02T03:18:55Z</time><name>3576</name><sym>Flag, Blue</sym></wpt><wpt lat="10.352113" lon="123.951910"><ele>-62.151737</ele><time>2024-09-02T03:19:06Z</time><name>3577</name><sym>Flag, Blue</sym></wpt><wpt lat="10.352127" lon="123.951905"><ele>-62.151737</ele><time>2024-09-02T03:19:16Z</time><name>3578</name><sym>Flag, Blue</sym></wpt><wpt lat="10.352088" lon="123.951916"><ele>-62.151737</ele><time>2024-09-02T03:20:03Z</time><name>3579</name><sym>Flag, Blue</sym></wpt><wpt lat="10.352229" lon="123.951701"><ele>-65.725395</ele><time>2024-09-02T03:20:48Z</time><name>3580</name><sym>Flag, Blue</sym></wpt><wpt lat="10.352238" lon="123.951687"><ele>-65.902679</ele><time>2024-09-02T03:20:58Z</time><name>3581</name><sym>Flag, Blue</sym></wpt><wpt lat="10.352244" lon="123.951675"><ele>-66.322556</ele><time>2024-09-02T03:21:04Z</time><name>3582</name><sym>Flag, Blue</sym></wpt><wpt lat="10.352238" lon="123.951718"><ele>-65.995979</ele><time>2024-09-02T03:24:08Z</time><name>3583</name><sym>Flag, Blue</sym></wpt><wpt lat="10.352238" lon="123.951718"><ele>-65.995979</ele><time>2024-09-02T03:24:13Z</time><name>3584</name><sym>Flag, Blue</sym></wpt><wpt lat="10.352714" lon="123.951793"><ele>-65.995979</ele><time>2024-09-02T03:24:18Z</time><name>3585</name><sym>Flag, Blue</sym></wpt><wpt lat="10.352698" lon="123.951806"><ele>-65.995979</ele><time>2024-09-02T03:24:25Z</time><name>3586</name><sym>Flag, Blue</sym></wpt><wpt lat="10.352548" lon="123.951996"><ele>-65.995979</ele><time>2024-09-02T03:25:02Z</time><name>3587</name><sym>Flag, Blue</sym></wpt><wpt lat="10.352534" lon="123.952026"><ele>-65.995979</ele><time>2024-09-02T03:25:09Z</time><name>3588</name><sym>Flag, Blue</sym></wpt><wpt lat="10.352524" lon="123.952030"><ele>-65.995979</ele><time>2024-09-02T03:25:14Z</time><name>3589</name><sym>Flag, Blue</sym></wpt><wpt lat="10.352358" lon="123.952184"><ele>-65.995979</ele><time>2024-09-02T03:25:53Z</time><name>3590</name><sym>Flag, Blue</sym></wpt><wpt lat="10.352359" lon="123.952181"><ele>-65.995979</ele><time>2024-09-02T03:25:58Z</time><name>3591</name><sym>Flag, Blue</sym></wpt><wpt lat="10.352348" lon="123.952196"><ele>-65.995979</ele><time>2024-09-02T03:26:10Z</time><name>3592</name><sym>Flag, Blue</sym></wpt><wpt lat="10.352325" lon="123.952253"><ele>-65.995979</ele><time>2024-09-02T03:26:29Z</time><name>3593</name><sym>Flag, Blue</sym></wpt><wpt lat="10.352170" lon="123.952378"><ele>-64.680359</ele><time>2024-09-02T03:27:53Z</time><name>3594</name><sym>Flag, Blue</sym></wpt><wpt lat="10.351848" lon="123.953486"><ele>-64.680359</ele><time>2024-09-02T03:28:37Z</time><name>3595</name><sym>Flag, Blue</sym></wpt><wpt lat="10.351838" lon="123.953488"><ele>-64.680359</ele><time>2024-09-02T03:28:41Z</time><name>3596</name><sym>Flag, Blue</sym></wpt><wpt lat="10.351842" lon="123.953496"><ele>-64.680359</ele><time>2024-09-02T03:28:47Z</time><name>3597</name><sym>Flag, Blue</sym></wpt><wpt lat="10.351856" lon="123.953518"><ele>-64.680359</ele><time>2024-09-02T03:29:02Z</time><name>3598</name><sym>Flag, Blue</sym></wpt><wpt lat="10.351853" lon="123.953523"><ele>-64.680359</ele><time>2024-09-02T03:29:07Z</time><name>3599</name><sym>Flag, Blue</sym></wpt><wpt lat="10.351824" lon="123.953567"><ele>-64.680359</ele><time>2024-09-02T03:29:19Z</time><name>3600</name><sym>Flag, Blue</sym></wpt><wpt lat="10.351748" lon="123.953927"><ele>-64.680359</ele><time>2024-09-02T03:30:17Z</time><name>3601</name><sym>Flag, Blue</sym></wpt><wpt lat="10.351763" lon="123.953966"><ele>-64.680359</ele><time>2024-09-02T03:30:40Z</time><name>3602</name><sym>Flag, Blue</sym></wpt><wpt lat="10.351743" lon="123.953995"><ele>-64.680359</ele><time>2024-09-02T03:30:48Z</time><name>3603</name><sym>Flag, Blue</sym></wpt><wpt lat="10.351644" lon="123.953980"><ele>-64.680359</ele><time>2024-09-02T03:31:14Z</time><name>3604</name><sym>Flag, Blue</sym></wpt><wpt lat="10.351613" lon="123.954008"><ele>-64.680359</ele><time>2024-09-02T03:31:22Z</time><name>3605</name><sym>Flag, Blue</sym></wpt><wpt lat="10.351594" lon="123.954005"><ele>-64.680359</ele><time>2024-09-02T03:31:27Z</time><name>3606</name><sym>Flag, Blue</sym></wpt><wpt lat="10.351521" lon="123.954038"><ele>-61.349297</ele><time>2024-09-02T03:31:47Z</time><name>3607</name><sym>Flag, Blue</sym></wpt><wpt lat="10.351481" lon="123.954053"><ele>-61.302647</ele><time>2024-09-02T03:31:58Z</time><name>3608</name><sym>Flag, Blue</sym></wpt><wpt lat="10.351470" lon="123.954050"><ele>-61.144024</ele><time>2024-09-02T03:32:06Z</time><name>3609</name><sym>Flag, Blue</sym></wpt><wpt lat="10.351444" lon="123.954091"><ele>-61.041386</ele><time>2024-09-02T03:32:17Z</time><name>3610</name><sym>Flag, Blue</sym></wpt><wpt lat="10.351381" lon="123.954225"><ele>-60.705482</ele><time>2024-09-02T03:33:00Z</time><name>3611</name><sym>Flag, Blue</sym></wpt><wpt lat="10.351035" lon="123.954652"><ele>-59.651112</ele><time>2024-09-02T03:35:03Z</time><name>3612</name><sym>Flag, Blue</sym></wpt><wpt lat="10.351010" lon="123.954942"><ele>-59.651112</ele><time>2024-09-02T03:36:00Z</time><name>3613</name><sym>Flag, Blue</sym></wpt><wpt lat="10.351009" lon="123.954952"><ele>-59.651112</ele><time>2024-09-02T03:36:05Z</time><name>3614</name><sym>Flag, Blue</sym></wpt><wpt lat="10.351003" lon="123.954969"><ele>-59.651112</ele><time>2024-09-02T03:36:13Z</time><name>3615</name><sym>Flag, Blue</sym></wpt><wpt lat="10.351017" lon="123.955032"><ele>-59.651112</ele><time>2024-09-02T03:36:36Z</time><name>3616</name><sym>Flag, Blue</sym></wpt><wpt lat="10.351022" lon="123.955065"><ele>-59.651112</ele><time>2024-09-02T03:36:43Z</time><name>3617</name><sym>Flag, Blue</sym></wpt><wpt lat="10.351085" lon="123.955248"><ele>-59.651112</ele><time>2024-09-02T03:37:10Z</time><name>3618</name><sym>Flag, Blue</sym></wpt><wpt lat="10.351090" lon="123.955248"><ele>-59.651112</ele><time>2024-09-02T03:37:14Z</time><name>3619</name><sym>Flag, Blue</sym></wpt><wpt lat="10.351085" lon="123.955355"><ele>-59.651112</ele><time>2024-09-02T03:37:32Z</time><name>3620</name><sym>Flag, Blue</sym></wpt><wpt lat="10.351008" lon="123.955707"><ele>-59.651112</ele><time>2024-09-02T03:38:18Z</time><name>3621</name><sym>Flag, Blue</sym></wpt><wpt lat="10.351011" lon="123.955752"><ele>-59.651112</ele><time>2024-09-02T03:38:27Z</time><name>3622</name><sym>Flag, Blue</sym></wpt><wpt lat="10.351011" lon="123.955783"><ele>-59.651112</ele><time>2024-09-02T03:38:34Z</time><name>3623</name><sym>Flag, Blue</sym></wpt><wpt lat="10.351019" lon="123.955901"><ele>-59.651112</ele><time>2024-09-02T03:38:50Z</time><name>3624</name><sym>Flag, Blue</sym></wpt><wpt lat="10.351022" lon="123.955931"><ele>-59.651112</ele><time>2024-09-02T03:38:57Z</time><name>3625</name><sym>Flag, Blue</sym></wpt><wpt lat="10.351012" lon="123.955974"><ele>-59.651112</ele><time>2024-09-02T03:39:06Z</time><name>3626</name><sym>Flag, Blue</sym></wpt><wpt lat="10.351012" lon="123.955990"><ele>-59.651112</ele><time>2024-09-02T03:39:14Z</time><name>3627</name><sym>Flag, Blue</sym></wpt><wpt lat="10.351013" lon="123.955993"><ele>-59.651112</ele><time>2024-09-02T03:39:19Z</time><name>3628</name><sym>Flag, Blue</sym></wpt><wpt lat="10.351017" lon="123.955991"><ele>-59.651112</ele><time>2024-09-02T03:39:23Z</time><name>3629</name><sym>Flag, Blue</sym></wpt><wpt lat="10.351005" lon="123.956030"><ele>-59.651112</ele><time>2024-09-02T03:39:32Z</time><name>3630</name><sym>Flag, Blue</sym></wpt><wpt lat="10.350998" lon="123.956062"><ele>-59.651112</ele><time>2024-09-02T03:39:39Z</time><name>3631</name><sym>Flag, Blue</sym></wpt><wpt lat="10.350534" lon="123.957941"><ele>-64.419098</ele><time>2024-09-02T05:15:05Z</time><name>3632</name><sym>Flag, Blue</sym></wpt><wpt lat="10.350534" lon="123.957941"><ele>-64.419098</ele><time>2024-09-02T05:15:34Z</time><name>3633</name><sym>Flag, Blue</sym></wpt><wpt lat="10.350534" lon="123.957941"><ele>-64.419098</ele><time>2024-09-02T05:16:17Z</time><name>3634</name><sym>Flag, Blue</sym></wpt><wpt lat="10.350534" lon="123.957941"><ele>-64.419098</ele><time>2024-09-02T05:16:29Z</time><name>3635</name><sym>Flag, Blue</sym></wpt><wpt lat="10.350534" lon="123.957941"><ele>-64.419098</ele><time>2024-09-02T05:16:57Z</time><name>3636</name><sym>Flag, Blue</sym></wpt><wpt lat="10.356723" lon="123.955247"><ele>-64.400436</ele><time>2024-09-02T05:17:11Z</time><name>3637</name><sym>Flag, Blue</sym></wpt><wpt lat="10.356760" lon="123.955240"><ele>-64.400436</ele><time>2024-09-02T05:17:43Z</time><name>3638</name><sym>Flag, Blue</sym></wpt><wpt lat="10.356725" lon="123.955477"><ele>-64.400436</ele><time>2024-09-02T05:18:32Z</time><name>3639</name><sym>Flag, Blue</sym></wpt><wpt lat="10.356758" lon="123.955536"><ele>-64.400436</ele><time>2024-09-02T05:18:48Z</time><name>3640</name><sym>Flag, Blue</sym></wpt><wpt lat="10.356739" lon="123.955557"><ele>-64.400436</ele><time>2024-09-02T05:18:58Z</time><name>3641</name><sym>Flag, Blue</sym></wpt><wpt lat="10.356736" lon="123.955669"><ele>-64.400436</ele><time>2024-09-02T05:19:30Z</time><name>3642</name><sym>Flag, Blue</sym></wpt><wpt lat="10.356516" lon="123.955916"><ele>-64.400436</ele><time>2024-09-02T05:20:13Z</time><name>3643</name><sym>Flag, Blue</sym></wpt><wpt lat="10.356474" lon="123.955960"><ele>-64.400436</ele><time>2024-09-02T05:20:25Z</time><name>3644</name><sym>Flag, Blue</sym></wpt><wpt lat="10.356284" lon="123.956075"><ele>-64.400436</ele><time>2024-09-02T05:20:56Z</time><name>3645</name><sym>Flag, Blue</sym></wpt><wpt lat="10.356274" lon="123.956072"><ele>-64.400436</ele><time>2024-09-02T05:21:02Z</time><name>3646</name><sym>Flag, Blue</sym></wpt><wpt lat="10.356262" lon="123.956077"><ele>-64.400436</ele><time>2024-09-02T05:21:31Z</time><name>3647</name><sym>Flag, Blue</sym></wpt><wpt lat="10.356253" lon="123.956063"><ele>-64.400436</ele><time>2024-09-02T05:21:38Z</time><name>3648</name><sym>Flag, Blue</sym></wpt><wpt lat="10.356212" lon="123.956124"><ele>-64.400436</ele><time>2024-09-02T05:22:03Z</time><name>3649</name><sym>Flag, Blue</sym></wpt><wpt lat="10.356171" lon="123.956097"><ele>-64.400436</ele><time>2024-09-02T05:22:32Z</time><name>3650</name><sym>Flag, Blue</sym></wpt><wpt lat="10.356172" lon="123.956117"><ele>-64.400436</ele><time>2024-09-02T05:22:48Z</time><name>3651</name><sym>Flag, Blue</sym></wpt><wpt lat="10.356165" lon="123.956173"><ele>-64.400436</ele><time>2024-09-02T05:23:20Z</time><name>3652</name><sym>Flag, Blue</sym></wpt><wpt lat="10.356156" lon="123.956175"><ele>-64.400436</ele><time>2024-09-02T05:23:26Z</time><name>3653</name><sym>Flag, Blue</sym></wpt><wpt lat="10.356116" lon="123.956262"><ele>-64.400436</ele><time>2024-09-02T05:23:50Z</time><name>3654</name><sym>Flag, Blue</sym></wpt><wpt lat="10.356082" lon="123.956374"><ele>-64.400436</ele><time>2024-09-02T05:24:42Z</time><name>3655</name><sym>Flag, Blue</sym></wpt><wpt lat="10.356083" lon="123.956431"><ele>-64.400436</ele><time>2024-09-02T05:25:05Z</time><name>3656</name><sym>Flag, Blue</sym></wpt><wpt lat="10.356080" lon="123.956444"><ele>-64.400436</ele><time>2024-09-02T05:25:15Z</time><name>3657</name><sym>Flag, Blue</sym></wpt><wpt lat="10.356086" lon="123.956494"><ele>-64.400436</ele><time>2024-09-02T05:25:32Z</time><name>3658</name><sym>Flag, Blue</sym></wpt><wpt lat="10.356092" lon="123.956494"><ele>-64.400436</ele><time>2024-09-02T05:25:36Z</time><name>3659</name><sym>Flag, Blue</sym></wpt><wpt lat="10.356082" lon="123.956512"><ele>-64.400436</ele><time>2024-09-02T05:25:44Z</time><name>3660</name><sym>Flag, Blue</sym></wpt><wpt lat="10.356056" lon="123.956518"><ele>-64.400436</ele><time>2024-09-02T05:25:53Z</time><name>3661</name><sym>Flag, Blue</sym></wpt><wpt lat="10.356028" lon="123.956583"><ele>-64.400436</ele><time>2024-09-02T05:26:04Z</time><name>3662</name><sym>Flag, Blue</sym></wpt><wpt lat="10.356010" lon="123.956625"><ele>-64.400436</ele><time>2024-09-02T05:26:12Z</time><name>3663</name><sym>Flag, Blue</sym></wpt><wpt lat="10.356006" lon="123.956645"><ele>-64.400436</ele><time>2024-09-02T05:26:20Z</time><name>3664</name><sym>Flag, Blue</sym></wpt><wpt lat="10.355885" lon="123.956881"><ele>-64.400436</ele><time>2024-09-02T05:27:00Z</time><name>3665</name><sym>Flag, Blue</sym></wpt><wpt lat="10.355841" lon="123.956935"><ele>-64.400436</ele><time>2024-09-02T05:27:39Z</time><name>3666</name><sym>Flag, Blue</sym></wpt><wpt lat="10.355844" lon="123.956941"><ele>-64.400436</ele><time>2024-09-02T05:27:51Z</time><name>3667</name><sym>Flag, Blue</sym></wpt><wpt lat="10.355841" lon="123.956946"><ele>-64.400436</ele><time>2024-09-02T05:27:56Z</time><name>3668</name><sym>Flag, Blue</sym></wpt><wpt lat="10.355837" lon="123.956961"><ele>-64.400436</ele><time>2024-09-02T05:28:09Z</time><name>3669</name><sym>Flag, Blue</sym></wpt><wpt lat="10.355818" lon="123.957002"><ele>-64.400436</ele><time>2024-09-02T05:28:18Z</time><name>3670</name><sym>Flag, Blue</sym></wpt><wpt lat="10.355791" lon="123.957062"><ele>-64.400436</ele><time>2024-09-02T05:28:48Z</time><name>3671</name><sym>Flag, Blue</sym></wpt><wpt lat="10.355760" lon="123.957077"><ele>-64.400436</ele><time>2024-09-02T05:29:10Z</time><name>3672</name><sym>Flag, Blue</sym></wpt><wpt lat="10.355534" lon="123.956923"><ele>-64.400436</ele><time>2024-09-02T05:29:53Z</time><name>3673</name><sym>Flag, Blue</sym></wpt><wpt lat="10.355537" lon="123.956916"><ele>-64.400436</ele><time>2024-09-02T05:30:01Z</time><name>3674</name><sym>Flag, Blue</sym></wpt><wpt lat="10.355164" lon="123.957038"><ele>-64.400436</ele><time>2024-09-02T05:31:11Z</time><name>3675</name><sym>Flag, Blue</sym></wpt><wpt lat="10.355156" lon="123.957044"><ele>-64.400436</ele><time>2024-09-02T05:31:21Z</time><name>3676</name><sym>Flag, Blue</sym></wpt><wpt lat="10.355153" lon="123.957038"><ele>-64.400436</ele><time>2024-09-02T05:31:39Z</time><name>3677</name><sym>Flag, Blue</sym></wpt><wpt lat="10.355111" lon="123.957020"><ele>-64.400436</ele><time>2024-09-02T05:32:07Z</time><name>3678</name><sym>Flag, Blue</sym></wpt><wpt lat="10.355075" lon="123.956986"><ele>-64.400436</ele><time>2024-09-02T05:32:21Z</time><name>3679</name><sym>Flag, Blue</sym></wpt><wpt lat="10.355065" lon="123.956958"><ele>-64.400436</ele><time>2024-09-02T05:32:30Z</time><name>3680</name><sym>Flag, Blue</sym></wpt><wpt lat="10.355058" lon="123.956922"><ele>-64.400436</ele><time>2024-09-02T05:32:40Z</time><name>3681</name><sym>Flag, Blue</sym></wpt><wpt lat="10.355038" lon="123.956890"><ele>-64.400436</ele><time>2024-09-02T05:32:54Z</time><name>3682</name><sym>Flag, Blue</sym></wpt><wpt lat="10.354975" lon="123.956858"><ele>-64.400436</ele><time>2024-09-02T05:33:09Z</time><name>3683</name><sym>Flag, Blue</sym></wpt><wpt lat="10.354835" lon="123.956671"><ele>-64.400436</ele><time>2024-09-02T05:33:51Z</time><name>3684</name><sym>Flag, Blue</sym></wpt><wpt lat="10.354799" lon="123.956669"><ele>-64.400436</ele><time>2024-09-02T05:34:17Z</time><name>3685</name><sym>Flag, Blue</sym></wpt><wpt lat="10.354787" lon="123.956656"><ele>-64.400436</ele><time>2024-09-02T05:34:27Z</time><name>3686</name><sym>Flag, Blue</sym></wpt><wpt lat="10.355169" lon="123.957248"><ele>-64.400436</ele><time>2024-09-02T05:35:58Z</time><name>3687</name><sym>Flag, Blue</sym></wpt><wpt lat="10.355146" lon="123.957191"><ele>-64.400436</ele><time>2024-09-02T05:36:29Z</time><name>3688</name><sym>Flag, Blue</sym></wpt><wpt lat="10.355132" lon="123.957308"><ele>-64.400436</ele><time>2024-09-02T05:37:08Z</time><name>3689</name><sym>Flag, Blue</sym></wpt><wpt lat="10.355103" lon="123.957967"><ele>-64.400436</ele><time>2024-09-02T05:38:23Z</time><name>3690</name><sym>Flag, Blue</sym></wpt><wpt lat="10.355131" lon="123.957970"><ele>-64.400436</ele><time>2024-09-02T05:38:43Z</time><name>3691</name><sym>Flag, Blue</sym></wpt><wpt lat="10.355036" lon="123.958128"><ele>-64.400436</ele><time>2024-09-02T05:39:16Z</time><name>3692</name><sym>Flag, Blue</sym></wpt><wpt lat="10.355035" lon="123.958122"><ele>-64.400436</ele><time>2024-09-02T05:39:22Z</time><name>3693</name><sym>Flag, Blue</sym></wpt><wpt lat="10.355028" lon="123.958136"><ele>-64.400436</ele><time>2024-09-02T05:39:29Z</time><name>3694</name><sym>Flag, Blue</sym></wpt><wpt lat="10.354992" lon="123.958154"><ele>-64.400436</ele><time>2024-09-02T05:39:58Z</time><name>3695</name><sym>Flag, Blue</sym></wpt><wpt lat="10.354920" lon="123.958193"><ele>-64.400436</ele><time>2024-09-02T05:40:24Z</time><name>3696</name><sym>Flag, Blue</sym></wpt><wpt lat="10.354893" lon="123.958192"><ele>-64.400436</ele><time>2024-09-02T05:40:37Z</time><name>3697</name><sym>Flag, Blue</sym></wpt><wpt lat="10.354877" lon="123.958203"><ele>-64.400436</ele><time>2024-09-02T05:40:45Z</time><name>3698</name><sym>Flag, Blue</sym></wpt><wpt lat="10.354863" lon="123.958209"><ele>-64.400436</ele><time>2024-09-02T05:40:56Z</time><name>3699</name><sym>Flag, Blue</sym></wpt><wpt lat="10.353657" lon="123.958211"><ele>-64.409767</ele><time>2024-09-02T05:42:36Z</time><name>3700</name><sym>Flag, Blue</sym></wpt><wpt lat="10.353531" lon="123.958158"><ele>-64.409767</ele><time>2024-09-02T05:43:22Z</time><name>3701</name><sym>Flag, Blue</sym></wpt><wpt lat="10.353524" lon="123.958149"><ele>-64.409767</ele><time>2024-09-02T05:43:26Z</time><name>3702</name><sym>Flag, Blue</sym></wpt><wpt lat="10.353523" lon="123.958126"><ele>-64.409767</ele><time>2024-09-02T05:43:31Z</time><name>3703</name><sym>Flag, Blue</sym></wpt><wpt lat="10.353518" lon="123.958115"><ele>-64.409767</ele><time>2024-09-02T05:43:34Z</time><name>3704</name><sym>Flag, Blue</sym></wpt><wpt lat="10.353514" lon="123.958108"><ele>-64.409767</ele><time>2024-09-02T05:43:38Z</time><name>3705</name><sym>Flag, Blue</sym></wpt><wpt lat="10.353506" lon="123.958101"><ele>-64.409767</ele><time>2024-09-02T05:43:45Z</time><name>3706</name><sym>Flag, Blue</sym></wpt><wpt lat="10.353499" lon="123.958101"><ele>-64.409767</ele><time>2024-09-02T05:43:50Z</time><name>3707</name><sym>Flag, Blue</sym></wpt><wpt lat="10.353498" lon="123.958082"><ele>-64.409767</ele><time>2024-09-02T05:43:55Z</time><name>3708</name><sym>Flag, Blue</sym></wpt><wpt lat="10.353490" lon="123.958063"><ele>-64.409767</ele><time>2024-09-02T05:44:00Z</time><name>3709</name><sym>Flag, Blue</sym></wpt><wpt lat="10.355035" lon="123.958125"><ele>-59.165916</ele><time>2024-09-02T05:45:04Z</time><name>3710</name><sym>Flag, Blue</sym></wpt><wpt lat="10.353402" lon="123.958016"><ele>-59.175247</ele><time>2024-09-02T05:45:12Z</time><name>3711</name><sym>Flag, Blue</sym></wpt><wpt lat="10.353411" lon="123.957990"><ele>-59.175247</ele><time>2024-09-02T05:45:16Z</time><name>3712</name><sym>Flag, Blue</sym></wpt><wpt lat="10.353416" lon="123.957975"><ele>-59.175247</ele><time>2024-09-02T05:45:29Z</time><name>3713</name><sym>Flag, Blue</sym></wpt><wpt lat="10.353387" lon="123.957970"><ele>-59.175247</ele><time>2024-09-02T05:45:56Z</time><name>3714</name><sym>Flag, Blue</sym></wpt><wpt lat="10.353320" lon="123.957799"><ele>-59.175247</ele><time>2024-09-02T05:46:33Z</time><name>3715</name><sym>Flag, Blue</sym></wpt><wpt lat="10.353288" lon="123.957775"><ele>-59.175247</ele><time>2024-09-02T05:46:42Z</time><name>3716</name><sym>Flag, Blue</sym></wpt><wpt lat="10.353274" lon="123.957759"><ele>-59.175247</ele><time>2024-09-02T05:46:47Z</time><name>3717</name><sym>Flag, Blue</sym></wpt><wpt lat="10.353225" lon="123.957743"><ele>-59.175247</ele><time>2024-09-02T05:47:17Z</time><name>3718</name><sym>Flag, Blue</sym></wpt><wpt lat="10.353245" lon="123.957766"><ele>-59.175247</ele><time>2024-09-02T05:47:57Z</time><name>3719</name><sym>Flag, Blue</sym></wpt><wpt lat="10.353218" lon="123.957828"><ele>-59.175247</ele><time>2024-09-02T05:48:26Z</time><name>3720</name><sym>Flag, Blue</sym></wpt><wpt lat="10.353205" lon="123.957814"><ele>-59.175247</ele><time>2024-09-02T05:48:30Z</time><name>3721</name><sym>Flag, Blue</sym></wpt><wpt lat="10.353215" lon="123.957800"><ele>-59.175247</ele><time>2024-09-02T05:48:34Z</time><name>3722</name><sym>Flag, Blue</sym></wpt><wpt lat="10.353108" lon="123.957652"><ele>-59.175247</ele><time>2024-09-02T05:49:01Z</time><name>3723</name><sym>Flag, Blue</sym></wpt><wpt lat="10.353088" lon="123.957642"><ele>-59.175247</ele><time>2024-09-02T05:49:06Z</time><name>3724</name><sym>Flag, Blue</sym></wpt><wpt lat="10.353079" lon="123.957641"><ele>-59.175247</ele><time>2024-09-02T05:49:09Z</time><name>3725</name><sym>Flag, Blue</sym></wpt><wpt lat="10.353057" lon="123.957628"><ele>-59.175247</ele><time>2024-09-02T05:49:12Z</time><name>3726</name><sym>Flag, Blue</sym></wpt><wpt lat="10.353021" lon="123.957599"><ele>-59.175247</ele><time>2024-09-02T05:49:23Z</time><name>3727</name><sym>Flag, Blue</sym></wpt><wpt lat="10.352999" lon="123.957583"><ele>-59.175247</ele><time>2024-09-02T05:49:27Z</time><name>3728</name><sym>Flag, Blue</sym></wpt><wpt lat="10.352978" lon="123.957555"><ele>-59.175247</ele><time>2024-09-02T05:49:32Z</time><name>3729</name><sym>Flag, Blue</sym></wpt><wpt lat="10.352958" lon="123.957533"><ele>-59.175247</ele><time>2024-09-02T05:49:35Z</time><name>3730</name><sym>Flag, Blue</sym></wpt><wpt lat="10.352684" lon="123.957392"><ele>-59.175247</ele><time>2024-09-02T05:50:43Z</time><name>3731</name><sym>Flag, Blue</sym></wpt><wpt lat="10.352650" lon="123.957412"><ele>-59.175247</ele><time>2024-09-02T05:51:18Z</time><name>3732</name><sym>Flag, Blue</sym></wpt><wpt lat="10.352705" lon="123.957413"><ele>-59.175247</ele><time>2024-09-02T05:51:52Z</time><name>3733</name><sym>Flag, Blue</sym></wpt><wpt lat="10.352686" lon="123.957379"><ele>-59.175247</ele><time>2024-09-02T05:52:04Z</time><name>3734</name><sym>Flag, Blue</sym></wpt><wpt lat="10.352667" lon="123.957359"><ele>-59.175247</ele><time>2024-09-02T05:52:16Z</time><name>3735</name><sym>Flag, Blue</sym></wpt><wpt lat="10.352667" lon="123.957360"><ele>-59.175247</ele><time>2024-09-02T05:52:18Z</time><name>3736</name><sym>Flag, Blue</sym></wpt><wpt lat="10.352655" lon="123.957351"><ele>-59.175247</ele><time>2024-09-02T05:52:25Z</time><name>3737</name><sym>Flag, Blue</sym></wpt><wpt lat="10.352645" lon="123.957340"><ele>-59.175247</ele><time>2024-09-02T05:52:30Z</time><name>3738</name><sym>Flag, Blue</sym></wpt><wpt lat="10.352614" lon="123.957301"><ele>-59.175247</ele><time>2024-09-02T05:52:40Z</time><name>3739</name><sym>Flag, Blue</sym></wpt><wpt lat="10.352604" lon="123.957301"><ele>-59.175247</ele><time>2024-09-02T05:52:46Z</time><name>3740</name><sym>Flag, Blue</sym></wpt><wpt lat="10.352599" lon="123.957302"><ele>-59.175247</ele><time>2024-09-02T05:52:49Z</time><name>3741</name><sym>Flag, Blue</sym></wpt><wpt lat="10.352570" lon="123.957253"><ele>-59.175247</ele><time>2024-09-02T05:53:02Z</time><name>3742</name><sym>Flag, Blue</sym></wpt><wpt lat="10.352570" lon="123.957225"><ele>-59.175247</ele><time>2024-09-02T05:53:13Z</time><name>3743</name><sym>Flag, Blue</sym></wpt><wpt lat="10.352536" lon="123.957215"><ele>-59.175247</ele><time>2024-09-02T05:53:27Z</time><name>3744</name><sym>Flag, Blue</sym></wpt><wpt lat="10.352527" lon="123.957209"><ele>-59.175247</ele><time>2024-09-02T05:53:32Z</time><name>3745</name><sym>Flag, Blue</sym></wpt><wpt lat="10.352512" lon="123.957224"><ele>-59.175247</ele><time>2024-09-02T05:53:38Z</time><name>3746</name><sym>Flag, Blue</sym></wpt><wpt lat="10.352490" lon="123.957218"><ele>-59.175247</ele><time>2024-09-02T05:53:45Z</time><name>3747</name><sym>Flag, Blue</sym></wpt><wpt lat="10.352446" lon="123.957202"><ele>-59.175247</ele><time>2024-09-02T05:54:00Z</time><name>3748</name><sym>Flag, Blue</sym></wpt><wpt lat="10.351395" lon="123.956668"><ele>-58.428791</ele><time>2024-09-02T05:56:31Z</time><name>3749</name><sym>Flag, Blue</sym></wpt><wpt lat="10.351365" lon="123.956616"><ele>-58.428791</ele><time>2024-09-02T05:56:40Z</time><name>3750</name><sym>Flag, Blue</sym></wpt><wpt lat="10.351345" lon="123.956779"><ele>-58.428791</ele><time>2024-09-02T05:56:59Z</time><name>3751</name><sym>Flag, Blue</sym></wpt><wpt lat="10.351305" lon="123.956872"><ele>-58.428791</ele><time>2024-09-02T05:57:12Z</time><name>3752</name><sym>Flag, Blue</sym></wpt><wpt lat="10.351287" lon="123.956920"><ele>-58.428791</ele><time>2024-09-02T05:57:28Z</time><name>3753</name><sym>Flag, Blue</sym></wpt><wpt lat="10.351227" lon="123.957013"><ele>-58.428791</ele><time>2024-09-02T05:57:45Z</time><name>3754</name><sym>Flag, Blue</sym></wpt><wpt lat="10.351147" lon="123.957115"><ele>-58.428791</ele><time>2024-09-02T05:58:06Z</time><name>3755</name><sym>Flag, Blue</sym></wpt><wpt lat="10.350973" lon="123.957352"><ele>-58.438122</ele><time>2024-09-02T05:58:56Z</time><name>3756</name><sym>Flag, Blue</sym></wpt><wpt lat="10.350985" lon="123.957355"><ele>-58.438122</ele><time>2024-09-02T05:59:07Z</time><name>3757</name><sym>Flag, Blue</sym></wpt><wpt lat="10.350977" lon="123.957354"><ele>-58.438122</ele><time>2024-09-02T05:59:12Z</time><name>3758</name><sym>Flag, Blue</sym></wpt><wpt lat="10.350976" lon="123.957353"><ele>-58.438122</ele><time>2024-09-02T05:59:15Z</time><name>3759</name><sym>Flag, Blue</sym></wpt><wpt lat="10.350931" lon="123.957383"><ele>-58.438122</ele><time>2024-09-02T05:59:29Z</time><name>3760</name><sym>Flag, Blue</sym></wpt><wpt lat="10.350928" lon="123.957383"><ele>-58.438122</ele><time>2024-09-02T05:59:33Z</time><name>3761</name><sym>Flag, Blue</sym></wpt><wpt lat="10.350908" lon="123.957389"><ele>-58.438122</ele><time>2024-09-02T05:59:37Z</time><name>3762</name><sym>Flag, Blue</sym></wpt><wpt lat="10.350906" lon="123.957447"><ele>-58.438122</ele><time>2024-09-02T06:00:00Z</time><name>3763</name><sym>Flag, Blue</sym></wpt><wpt lat="10.350905" lon="123.957460"><ele>-58.438122</ele><time>2024-09-02T06:00:09Z</time><name>3764</name><sym>Flag, Blue</sym></wpt><wpt lat="10.350885" lon="123.957558"><ele>-61.395950</ele><time>2024-09-02T06:00:32Z</time><name>3765</name><sym>Flag, Blue</sym></wpt><wpt lat="10.350869" lon="123.957627"><ele>-61.358627</ele><time>2024-09-02T06:00:51Z</time><name>3766</name><sym>Flag, Blue</sym></wpt><wpt lat="10.350819" lon="123.957688"><ele>-62.254375</ele><time>2024-09-02T06:01:09Z</time><name>3767</name><sym>Flag, Blue</sym></wpt><wpt lat="10.350809" lon="123.957701"><ele>-62.534298</ele><time>2024-09-02T06:01:20Z</time><name>3768</name><sym>Flag, Blue</sym></wpt><wpt lat="10.350646" lon="123.958057"><ele>-63.187443</ele><time>2024-09-02T06:02:17Z</time><name>3769</name><sym>Flag, Blue</sym></wpt><wpt lat="10.350385" lon="123.958307"><ele>-62.692917</ele><time>2024-09-02T06:03:23Z</time><name>3770</name><sym>Flag, Blue</sym></wpt><wpt lat="10.350381" lon="123.958289"><ele>-62.692917</ele><time>2024-09-02T06:03:31Z</time><name>3771</name><sym>Flag, Blue</sym></wpt><wpt lat="10.350381" lon="123.958284"><ele>-62.692917</ele><time>2024-09-02T06:03:36Z</time><name>3772</name><sym>Flag, Blue</sym></wpt><wpt lat="10.350365" lon="123.958268"><ele>-62.692917</ele><time>2024-09-02T06:03:52Z</time><name>3773</name><sym>Flag, Blue</sym></wpt><wpt lat="10.350406" lon="123.958159"><ele>-62.692917</ele><time>2024-09-02T06:04:34Z</time><name>3774</name><sym>Flag, Blue</sym></wpt><wpt lat="10.350392" lon="123.958144"><ele>-62.692917</ele><time>2024-09-02T06:04:49Z</time><name>3775</name><sym>Flag, Blue</sym></wpt><wpt lat="10.350399" lon="123.958115"><ele>-62.590279</ele><time>2024-09-02T06:08:07Z</time><name>3776</name><sym>Flag, Blue</sym></wpt><wpt lat="10.350419" lon="123.958108"><ele>-62.590279</ele><time>2024-09-02T06:08:15Z</time><name>3777</name><sym>Flag, Blue</sym></wpt><wpt lat="10.350409" lon="123.957644"><ele>-62.590279</ele><time>2024-09-02T06:09:35Z</time><name>3778</name><sym>Flag, Blue</sym></wpt><wpt lat="10.350234" lon="123.957835"><ele>-62.590279</ele><time>2024-09-02T06:10:59Z</time><name>3779</name><sym>Flag, Blue</sym></wpt><wpt lat="10.350178" lon="123.957999"><ele>-62.590279</ele><time>2024-09-02T06:11:30Z</time><name>3780</name><sym>Flag, Blue</sym></wpt><wpt lat="10.350221" lon="123.958062"><ele>-62.590279</ele><time>2024-09-02T06:11:41Z</time><name>3781</name><sym>Flag, Blue</sym></wpt><wpt lat="10.350218" lon="123.958056"><ele>-62.590279</ele><time>2024-09-02T06:11:46Z</time><name>3782</name><sym>Flag, Blue</sym></wpt><wpt lat="10.350207" lon="123.958058"><ele>-62.590279</ele><time>2024-09-02T06:12:01Z</time><name>3783</name><sym>Flag, Blue</sym></wpt><wpt lat="10.350214" lon="123.957974"><ele>-62.590279</ele><time>2024-09-02T06:12:26Z</time><name>3784</name><sym>Flag, Blue</sym></wpt><wpt lat="10.355036" lon="123.961821"><ele>-61.750519</ele><time>2024-09-02T06:20:26Z</time><name>3785</name><sym>Flag, Blue</sym></wpt><wpt lat="10.355066" lon="123.961817"><ele>-61.750519</ele><time>2024-09-02T06:20:34Z</time><name>3786</name><sym>Flag, Blue</sym></wpt><wpt lat="10.355066" lon="123.961858"><ele>-61.750519</ele><time>2024-09-02T06:20:45Z</time><name>3787</name><sym>Flag, Blue</sym></wpt><wpt lat="10.355053" lon="123.961857"><ele>-61.750519</ele><time>2024-09-02T06:21:01Z</time><name>3788</name><sym>Flag, Blue</sym></wpt><wpt lat="10.354994" lon="123.961924"><ele>-61.750519</ele><time>2024-09-02T06:21:25Z</time><name>3789</name><sym>Flag, Blue</sym></wpt><wpt lat="10.354945" lon="123.961962"><ele>-61.750519</ele><time>2024-09-02T06:21:39Z</time><name>3790</name><sym>Flag, Blue</sym></wpt><wpt lat="10.354869" lon="123.962001"><ele>-61.759850</ele><time>2024-09-02T06:22:00Z</time><name>3791</name><sym>Flag, Blue</sym></wpt><wpt lat="10.354842" lon="123.961999"><ele>-61.759850</ele><time>2024-09-02T06:22:04Z</time><name>3792</name><sym>Flag, Blue</sym></wpt><wpt lat="10.354807" lon="123.962021"><ele>-61.759850</ele><time>2024-09-02T06:22:08Z</time><name>3793</name><sym>Flag, Blue</sym></wpt><wpt lat="10.354786" lon="123.962014"><ele>-61.759850</ele><time>2024-09-02T06:22:50Z</time><name>3794</name><sym>Flag, Blue</sym></wpt><wpt lat="10.354757" lon="123.961953"><ele>-61.759850</ele><time>2024-09-02T06:23:13Z</time><name>3795</name><sym>Flag, Blue</sym></wpt><wpt lat="10.354537" lon="123.962000"><ele>-61.759850</ele><time>2024-09-02T06:24:10Z</time><name>3796</name><sym>Flag, Blue</sym></wpt><wpt lat="10.354507" lon="123.961993"><ele>-61.759850</ele><time>2024-09-02T06:24:16Z</time><name>3797</name><sym>Flag, Blue</sym></wpt><wpt lat="10.354490" lon="123.961968"><ele>-61.759850</ele><time>2024-09-02T06:24:20Z</time><name>3798</name><sym>Flag, Blue</sym></wpt><wpt lat="10.354477" lon="123.961919"><ele>-61.759850</ele><time>2024-09-02T06:24:29Z</time><name>3799</name><sym>Flag, Blue</sym></wpt><wpt lat="10.354408" lon="123.961828"><ele>-61.759850</ele><time>2024-09-02T06:24:49Z</time><name>3800</name><sym>Flag, Blue</sym></wpt><wpt lat="10.354551" lon="123.961630"><ele>-61.759850</ele><time>2024-09-02T06:25:40Z</time><name>3801</name><sym>Flag, Blue</sym></wpt><wpt lat="10.354560" lon="123.961572"><ele>-61.759850</ele><time>2024-09-02T06:26:04Z</time><name>3802</name><sym>Flag, Blue</sym></wpt><wpt lat="10.354552" lon="123.961566"><ele>-61.759850</ele><time>2024-09-02T06:26:20Z</time><name>3803</name><sym>Flag, Blue</sym></wpt><wpt lat="10.354512" lon="123.961521"><ele>-61.759850</ele><time>2024-09-02T06:26:36Z</time><name>3804</name><sym>Flag, Blue</sym></wpt><wpt lat="10.354505" lon="123.961502"><ele>-61.759850</ele><time>2024-09-02T06:26:44Z</time><name>3805</name><sym>Flag, Blue</sym></wpt><wpt lat="10.354454" lon="123.961507"><ele>-61.759850</ele><time>2024-09-02T06:27:09Z</time><name>3806</name><sym>Flag, Blue</sym></wpt><wpt lat="10.354407" lon="123.961542"><ele>-61.759850</ele><time>2024-09-02T06:27:27Z</time><name>3807</name><sym>Flag, Blue</sym></wpt><wpt lat="10.354407" lon="123.961544"><ele>-61.759850</ele><time>2024-09-02T06:27:30Z</time><name>3808</name><sym>Flag, Blue</sym></wpt><wpt lat="10.354399" lon="123.961568"><ele>-61.759850</ele><time>2024-09-02T06:28:00Z</time><name>3809</name><sym>Flag, Blue</sym></wpt><wpt lat="10.354412" lon="123.961651"><ele>-61.759850</ele><time>2024-09-02T06:28:14Z</time><name>3810</name><sym>Flag, Blue</sym></wpt><wpt lat="10.354394" lon="123.961628"><ele>-61.759850</ele><time>2024-09-02T06:28:19Z</time><name>3811</name><sym>Flag, Blue</sym></wpt><wpt lat="10.353896" lon="123.961760"><ele>-63.803268</ele><time>2024-09-02T06:34:39Z</time><name>3812</name><sym>Flag, Blue</sym></wpt><wpt lat="10.349644" lon="123.957567"><ele>-63.812599</ele><time>2024-09-02T06:35:24Z</time><name>3813</name><sym>Flag, Blue</sym></wpt></gpx>