<?xml version="1.0" encoding="UTF-8" standalone="no" ?><gpx xmlns="http://www.topografix.com/GPX/1/1" xmlns:gpxx="http://www.garmin.com/xmlschemas/GpxExtensions/v3" xmlns:wptx1="http://www.garmin.com/xmlschemas/WaypointExtension/v1" xmlns:gpxtpx="http://www.garmin.com/xmlschemas/TrackPointExtension/v1" creator="eTrex 22x" version="1.1" xmlns:xsi="http://www.w3.org/2001/XMLSchema-instance" xsi:schemaLocation="http://www.topografix.com/GPX/1/1 http://www.topografix.com/GPX/1/1/gpx.xsd http://www.garmin.com/xmlschemas/GpxExtensions/v3 http://www8.garmin.com/xmlschemas/GpxExtensionsv3.xsd http://www.garmin.com/xmlschemas/TrackStatsExtension/v1 http://www8.garmin.com/xmlschemas/TrackStatsExtension.xsd http://www.garmin.com/xmlschemas/WaypointExtension/v1 http://www8.garmin.com/xmlschemas/WaypointExtensionv1.xsd http://www.garmin.com/xmlschemas/TrackPointExtension/v1 http://www.garmin.com/xmlschemas/TrackPointExtensionv1.xsd"><metadata><link href="http://www.garmin.com"><text>Garmin International</text></link><time>2024-09-02T01:23:19Z</time></metadata><wpt lat="10.326303" lon="123.936321"><time>2024-09-02T01:23:19Z</time><name>1295</name><sym>Flag, Blue</sym></wpt><wpt lat="10.350702" lon="123.957890"><ele>18.859451</ele><time>2024-09-02T01:48:18Z</time><name>1296</name><sym>Flag, Blue</sym></wpt><wpt lat="10.350683" lon="123.958021"><ele>16.364906</ele><time>2024-09-02T01:49:11Z</time><name>1297</name><sym>Flag, Blue</sym></wpt><wpt lat="10.350684" lon="123.958050"><ele>17.363937</ele><time>2024-09-02T01:49:31Z</time><name>1298</name><sym>Flag, Blue</sym></wpt><wpt lat="10.350684" lon="123.958155"><ele>18.247356</ele><time>2024-09-02T01:50:35Z</time><name>1299</name><sym>Flag, Blue</sym></wpt><wpt lat="10.350674" lon="123.958163"><ele>18.310291</ele><time>2024-09-02T01:50:45Z</time><name>1300</name><sym>Flag, Blue</sym></wpt><wpt lat="10.350657" lon="123.958170"><ele>17.427464</ele><time>2024-09-02T01:50:51Z</time><name>1301</name><sym>Flag, Blue</sym></wpt><wpt lat="10.350653" lon="123.958170"><ele>16.822300</ele><time>2024-09-02T01:50:57Z</time><name>1302</name><sym>Flag, Blue</sym></wpt><wpt lat="10.350657" lon="123.958154"><ele>16.990025</ele><time>2024-09-02T01:51:10Z</time><name>1303</name><sym>Flag, Blue</sym></wpt><wpt lat="10.350620" lon="123.958238"><ele>16.651150</ele><time>2024-09-02T01:52:20Z</time><name>1304</name><sym>Flag, Blue</sym></wpt><wpt lat="10.350600" lon="123.958261"><ele>17.406048</ele><time>2024-09-02T01:52:30Z</time><name>1305</name><sym>Flag, Blue</sym></wpt><wpt lat="10.350597" lon="123.958265"><ele>17.602818</ele><time>2024-09-02T01:52:37Z</time><name>1306</name><sym>Flag, Blue</sym></wpt><wpt lat="10.350704" lon="123.958195"><ele>17.943350</ele><time>2024-09-02T01:53:17Z</time><name>1307</name><sym>Flag, Blue</sym></wpt><wpt lat="10.350777" lon="123.958343"><ele>16.680359</ele><time>2024-09-02T01:53:46Z</time><name>1308</name><sym>Flag, Blue</sym></wpt><wpt lat="10.351145" lon="123.958734"><ele>15.377880</ele><time>2024-09-02T01:56:01Z</time><name>1309</name><sym>Flag, Blue</sym></wpt><wpt lat="10.351306" lon="123.958818"><ele>16.685364</ele><time>2024-09-02T01:56:25Z</time><name>1310</name><sym>Flag, Blue</sym></wpt><wpt lat="10.351337" lon="123.958834"><ele>15.779419</ele><time>2024-09-02T01:56:35Z</time><name>1311</name><sym>Flag, Blue</sym></wpt><wpt lat="10.351292" lon="123.958808"><ele>15.169487</ele><time>2024-09-02T01:57:03Z</time><name>1312</name><sym>Flag, Blue</sym></wpt><wpt lat="10.351171" lon="123.958894"><ele>18.557968</ele><time>2024-09-02T01:57:51Z</time><name>1313</name><sym>Flag, Blue</sym></wpt><wpt lat="10.350681" lon="123.958403"><ele>18.911144</ele><time>2024-09-02T01:59:11Z</time><name>1314</name><sym>Flag, Blue</sym></wpt><wpt lat="10.350631" lon="123.958413"><ele>18.418507</ele><time>2024-09-02T01:59:24Z</time><name>1315</name><sym>Flag, Blue</sym></wpt><wpt lat="10.350655" lon="123.958518"><ele>20.335125</ele><time>2024-09-02T01:59:52Z</time><name>1316</name><sym>Flag, Blue</sym></wpt><wpt lat="10.350646" lon="123.958511"><ele>21.236462</ele><time>2024-09-02T02:00:00Z</time><name>1317</name><sym>Flag, Blue</sym></wpt><wpt lat="10.350635" lon="123.958483"><ele>22.967945</ele><time>2024-09-02T02:00:13Z</time><name>1318</name><sym>Flag, Blue</sym></wpt><wpt lat="10.350622" lon="123.958449"><ele>22.588558</ele><time>2024-09-02T02:00:22Z</time><name>1319</name><sym>Flag, Blue</sym></wpt><wpt lat="10.350602" lon="123.958429"><ele>21.977200</ele><time>2024-09-02T02:00:33Z</time><name>1320</name><sym>Flag, Blue</sym></wpt><wpt lat="10.350625" lon="123.958396"><ele>20.016399</ele><time>2024-09-02T02:00:56Z</time><name>1321</name><sym>Flag, Blue</sym></wpt><wpt lat="10.350671" lon="123.958406"><ele>19.107878</ele><time>2024-09-02T02:01:32Z</time><name>1322</name><sym>Flag, Blue</sym></wpt><wpt lat="10.351108" lon="123.957104"><ele>27.636818</ele><time>2024-09-02T02:08:25Z</time><name>1323</name><sym>Flag, Blue</sym></wpt><wpt lat="10.353855" lon="123.956965"><ele>26.315733</ele><time>2024-09-02T02:13:22Z</time><name>1324</name><sym>Flag, Blue</sym></wpt><wpt lat="10.353818" lon="123.957000"><ele>22.952511</ele><time>2024-09-02T02:13:41Z</time><name>1325</name><sym>Flag, Blue</sym></wpt><wpt lat="10.353812" lon="123.957007"><ele>22.523930</ele><time>2024-09-02T02:13:45Z</time><name>1326</name><sym>Flag, Blue</sym></wpt><wpt lat="10.353809" lon="123.957009"><ele>22.001125</ele><time>2024-09-02T02:13:49Z</time><name>1327</name><sym>Flag, Blue</sym></wpt><wpt lat="10.353807" lon="123.957021"><ele>21.582653</ele><time>2024-09-02T02:13:54Z</time><name>1328</name><sym>Flag, Blue</sym></wpt><wpt lat="10.353805" lon="123.957026"><ele>21.126385</ele><time>2024-09-02T02:14:00Z</time><name>1329</name><sym>Flag, Blue</sym></wpt><wpt lat="10.353794" lon="123.957043"><ele>21.790028</ele><time>2024-09-02T02:14:15Z</time><name>1330</name><sym>Flag, Blue</sym></wpt><wpt lat="10.353789" lon="123.957044"><ele>21.937649</ele><time>2024-09-02T02:14:19Z</time><name>1331</name><sym>Flag, Blue</sym></wpt><wpt lat="10.353790" lon="123.957048"><ele>22.178570</ele><time>2024-09-02T02:14:22Z</time><name>1332</name><sym>Flag, Blue</sym></wpt><wpt lat="10.353777" lon="123.957066"><ele>22.144176</ele><time>2024-09-02T02:14:29Z</time><name>1333</name><sym>Flag, Blue</sym></wpt><wpt lat="10.353778" lon="123.957084"><ele>22.273518</ele><time>2024-09-02T02:14:37Z</time><name>1334</name><sym>Flag, Blue</sym></wpt><wpt lat="10.353785" lon="123.957087"><ele>22.018230</ele><time>2024-09-02T02:14:41Z</time><name>1335</name><sym>Flag, Blue</sym></wpt><wpt lat="10.353787" lon="123.957083"><ele>21.706173</ele><time>2024-09-02T02:14:46Z</time><name>1336</name><sym>Flag, Blue</sym></wpt><wpt lat="10.353789" lon="123.957085"><ele>22.308208</ele><time>2024-09-02T02:14:53Z</time><name>1337</name><sym>Flag, Blue</sym></wpt><wpt lat="10.353759" lon="123.957099"><ele>22.475266</ele><time>2024-09-02T02:15:18Z</time><name>1338</name><sym>Flag, Blue</sym></wpt><wpt lat="10.353773" lon="123.957115"><ele>21.073174</ele><time>2024-09-02T02:15:25Z</time><name>1339</name><sym>Flag, Blue</sym></wpt><wpt lat="10.353786" lon="123.957119"><ele>20.103752</ele><time>2024-09-02T02:15:29Z</time><name>1340</name><sym>Flag, Blue</sym></wpt><wpt lat="10.353788" lon="123.957120"><ele>19.712036</ele><time>2024-09-02T02:15:34Z</time><name>1341</name><sym>Flag, Blue</sym></wpt><wpt lat="10.353774" lon="123.957109"><ele>20.335533</ele><time>2024-09-02T02:15:40Z</time><name>1342</name><sym>Flag, Blue</sym></wpt><wpt lat="10.353766" lon="123.957108"><ele>19.561569</ele><time>2024-09-02T02:15:44Z</time><name>1343</name><sym>Flag, Blue</sym></wpt><wpt lat="10.353770" lon="123.957099"><ele>17.610283</ele><time>2024-09-02T02:16:04Z</time><name>1344</name><sym>Flag, Blue</sym></wpt><wpt lat="10.353764" lon="123.957094"><ele>17.447853</ele><time>2024-09-02T02:16:10Z</time><name>1345</name><sym>Flag, Blue</sym></wpt><wpt lat="10.353776" lon="123.957099"><ele>17.537491</ele><time>2024-09-02T02:16:16Z</time><name>1346</name><sym>Flag, Blue</sym></wpt><wpt lat="10.353785" lon="123.957101"><ele>18.009956</ele><time>2024-09-02T02:16:21Z</time><name>1347</name><sym>Flag, Blue</sym></wpt><wpt lat="10.353787" lon="123.957105"><ele>20.952484</ele><time>2024-09-02T02:16:47Z</time><name>1348</name><sym>Flag, Blue</sym></wpt><wpt lat="10.353802" lon="123.957076"><ele>24.640522</ele><time>2024-09-02T02:17:17Z</time><name>1349</name><sym>Flag, Blue</sym></wpt><wpt lat="10.353829" lon="123.957059"><ele>24.104145</ele><time>2024-09-02T02:17:24Z</time><name>1350</name><sym>Flag, Blue</sym></wpt><wpt lat="10.353828" lon="123.957053"><ele>24.047161</ele><time>2024-09-02T02:17:28Z</time><name>1351</name><sym>Flag, Blue</sym></wpt><wpt lat="10.353819" lon="123.957042"><ele>23.854954</ele><time>2024-09-02T02:17:32Z</time><name>1352</name><sym>Flag, Blue</sym></wpt><wpt lat="10.353808" lon="123.957033"><ele>23.494068</ele><time>2024-09-02T02:17:37Z</time><name>1353</name><sym>Flag, Blue</sym></wpt><wpt lat="10.356232" lon="123.954469"><ele>37.125332</ele><time>2024-09-02T02:28:15Z</time><name>1354</name><sym>Flag, Blue</sym></wpt><wpt lat="10.356239" lon="123.954417"><ele>35.078548</ele><time>2024-09-02T02:28:36Z</time><name>1355</name><sym>Flag, Blue</sym></wpt><wpt lat="10.356236" lon="123.954392"><ele>34.427586</ele><time>2024-09-02T02:28:49Z</time><name>1356</name><sym>Flag, Blue</sym></wpt><wpt lat="10.356246" lon="123.954402"><ele>34.808601</ele><time>2024-09-02T02:29:13Z</time><name>1357</name><sym>Flag, Blue</sym></wpt><wpt lat="10.356240" lon="123.954403"><ele>35.534351</ele><time>2024-09-02T02:29:20Z</time><name>1358</name><sym>Flag, Blue</sym></wpt><wpt lat="10.356206" lon="123.954348"><ele>34.348457</ele><time>2024-09-02T02:29:33Z</time><name>1359</name><sym>Flag, Blue</sym></wpt><wpt lat="10.356172" lon="123.954343"><ele>34.840096</ele><time>2024-09-02T02:29:52Z</time><name>1360</name><sym>Flag, Blue</sym></wpt><wpt lat="10.356156" lon="123.954331"><ele>34.212257</ele><time>2024-09-02T02:30:01Z</time><name>1361</name><sym>Flag, Blue</sym></wpt><wpt lat="10.356162" lon="123.954295"><ele>35.802608</ele><time>2024-09-02T02:30:16Z</time><name>1362</name><sym>Flag, Blue</sym></wpt><wpt lat="10.356237" lon="123.954317"><ele>35.438812</ele><time>2024-09-02T02:31:22Z</time><name>1363</name><sym>Flag, Blue</sym></wpt><wpt lat="10.356257" lon="123.954306"><ele>34.715729</ele><time>2024-09-02T02:31:35Z</time><name>1364</name><sym>Flag, Blue</sym></wpt><wpt lat="10.356285" lon="123.954308"><ele>33.667442</ele><time>2024-09-02T02:31:45Z</time><name>1365</name><sym>Flag, Blue</sym></wpt><wpt lat="10.356334" lon="123.954327"><ele>33.298279</ele><time>2024-09-02T02:31:58Z</time><name>1366</name><sym>Flag, Blue</sym></wpt><wpt lat="10.356331" lon="123.954279"><ele>35.912529</ele><time>2024-09-02T02:32:39Z</time><name>1367</name><sym>Flag, Blue</sym></wpt><wpt lat="10.356328" lon="123.954265"><ele>36.213787</ele><time>2024-09-02T02:32:50Z</time><name>1368</name><sym>Flag, Blue</sym></wpt><wpt lat="10.356330" lon="123.954238"><ele>38.281780</ele><time>2024-09-02T02:33:05Z</time><name>1369</name><sym>Flag, Blue</sym></wpt><wpt lat="10.356407" lon="123.954234"><ele>36.001225</ele><time>2024-09-02T02:33:57Z</time><name>1370</name><sym>Flag, Blue</sym></wpt><wpt lat="10.356410" lon="123.954280"><ele>36.680565</ele><time>2024-09-02T02:34:21Z</time><name>1371</name><sym>Flag, Blue</sym></wpt><wpt lat="10.356413" lon="123.954272"><ele>38.101547</ele><time>2024-09-02T02:34:30Z</time><name>1372</name><sym>Flag, Blue</sym></wpt><wpt lat="10.356414" lon="123.954275"><ele>37.868874</ele><time>2024-09-02T02:34:34Z</time><name>1373</name><sym>Flag, Blue</sym></wpt><wpt lat="10.356411" lon="123.954274"><ele>37.595207</ele><time>2024-09-02T02:34:39Z</time><name>1374</name><sym>Flag, Blue</sym></wpt><wpt lat="10.356496" lon="123.954347"><ele>36.943687</ele><time>2024-09-02T02:35:38Z</time><name>1375</name><sym>Flag, Blue</sym></wpt><wpt lat="10.356502" lon="123.954381"><ele>35.163269</ele><time>2024-09-02T02:36:02Z</time><name>1376</name><sym>Flag, Blue</sym></wpt><wpt lat="10.356566" lon="123.954402"><ele>35.274006</ele><time>2024-09-02T02:36:28Z</time><name>1377</name><sym>Flag, Blue</sym></wpt><wpt lat="10.356607" lon="123.954523"><ele>29.095440</ele><time>2024-09-02T02:36:54Z</time><name>1378</name><sym>Flag, Blue</sym></wpt><wpt lat="10.356595" lon="123.954538"><ele>28.124027</ele><time>2024-09-02T02:37:07Z</time><name>1379</name><sym>Flag, Blue</sym></wpt><wpt lat="10.356643" lon="123.954614"><ele>28.413521</ele><time>2024-09-02T02:37:34Z</time><name>1380</name><sym>Flag, Blue</sym></wpt><wpt lat="10.356658" lon="123.954599"><ele>27.936020</ele><time>2024-09-02T02:37:47Z</time><name>1381</name><sym>Flag, Blue</sym></wpt><wpt lat="10.356707" lon="123.954602"><ele>26.264000</ele><time>2024-09-02T02:38:10Z</time><name>1382</name><sym>Flag, Blue</sym></wpt></gpx>