<?xml version="1.0" encoding="UTF-8"?>
<kml xmlns="http://www.opengis.net/kml/2.2" xmlns:gx="http://www.google.com/kml/ext/2.2" xmlns:kml="http://www.opengis.net/kml/2.2" xmlns:atom="http://www.w3.org/2005/Atom">
<Document>
	<name>GPS device</name>
	<open>1</open>
	<snippet>Created Tue Sep 3 09:22:54 2024</snippet>
	<LookAt>
		<gx:TimeSpan>
			<begin>2024-08-30T23:59:28Z</begin>
			<end>2024-08-31T00:59:40Z</end>
		</gx:TimeSpan>
		<longitude>123.935592</longitude>
		<latitude>10.326485</latitude>
		<altitude>0</altitude>
		<heading>0</heading>
		<tilt>0</tilt>
		<range>1300</range>
	</LookAt>
	<StyleMap id="waypoint">
		<Pair>
			<key>normal</key>
			<styleUrl>#waypoint_n</styleUrl>
		</Pair>
		<Pair>
			<key>highlight</key>
			<styleUrl>#waypoint_h</styleUrl>
		</Pair>
	</StyleMap>
	<Style id="waypoint_h">
		<IconStyle>
			<scale>1.2</scale>
			<Icon>
				<href>https://maps.google.com/mapfiles/kml/pal4/icon61.png</href>
			</Icon>
		</IconStyle>
	</Style>
	<Style id="waypoint_n">
		<IconStyle>
			<Icon>
				<href>https://maps.google.com/mapfiles/kml/pal4/icon61.png</href>
			</Icon>
		</IconStyle>
	</Style>
	<Folder>
		<name>Waypoints</name>
		<open>1</open>
		<Placemark>
			<name>3366</name>
			<TimeStamp><when>2024-08-30T23:59:28Z</when>
</TimeStamp>
			<styleUrl>#waypoint</styleUrl>
			<Point>
				<coordinates>123.935433,10.326901,-89.05</coordinates>
			</Point>
		</Placemark>
		<Placemark>
			<name>3367</name>
			<TimeStamp><when>2024-08-31T00:01:40Z</when>
</TimeStamp>
			<styleUrl>#waypoint</styleUrl>
			<Point>
				<coordinates>123.935332,10.327059,-89.05</coordinates>
			</Point>
		</Placemark>
		<Placemark>
			<name>3368</name>
			<TimeStamp><when>2024-08-31T00:02:14Z</when>
</TimeStamp>
			<styleUrl>#waypoint</styleUrl>
			<Point>
				<coordinates>123.935304,10.327016,-89.05</coordinates>
			</Point>
		</Placemark>
		<Placemark>
			<name>3369</name>
			<TimeStamp><when>2024-08-31T00:02:26Z</when>
</TimeStamp>
			<styleUrl>#waypoint</styleUrl>
			<Point>
				<coordinates>123.935279,10.327006,-89.05</coordinates>
			</Point>
		</Placemark>
		<Placemark>
			<name>3370</name>
			<TimeStamp><when>2024-08-31T00:03:09Z</when>
</TimeStamp>
			<styleUrl>#waypoint</styleUrl>
			<Point>
				<coordinates>123.935233,10.326998,-89.05</coordinates>
			</Point>
		</Placemark>
		<Placemark>
			<name>3371</name>
			<TimeStamp><when>2024-08-31T00:03:16Z</when>
</TimeStamp>
			<styleUrl>#waypoint</styleUrl>
			<Point>
				<coordinates>123.935239,10.327003,-89.05</coordinates>
			</Point>
		</Placemark>
		<Placemark>
			<name>3372</name>
			<TimeStamp><when>2024-08-31T00:03:45Z</when>
</TimeStamp>
			<styleUrl>#waypoint</styleUrl>
			<Point>
				<coordinates>123.935197,10.326953,-89.05</coordinates>
			</Point>
		</Placemark>
		<Placemark>
			<name>3373</name>
			<TimeStamp><when>2024-08-31T00:04:05Z</when>
</TimeStamp>
			<styleUrl>#waypoint</styleUrl>
			<Point>
				<coordinates>123.935153,10.326908,-89.05</coordinates>
			</Point>
		</Placemark>
		<Placemark>
			<name>3374</name>
			<TimeStamp><when>2024-08-31T00:04:22Z</when>
</TimeStamp>
			<styleUrl>#waypoint</styleUrl>
			<Point>
				<coordinates>123.935127,10.326904,-89.05</coordinates>
			</Point>
		</Placemark>
		<Placemark>
			<name>3375</name>
			<TimeStamp><when>2024-08-31T00:04:39Z</when>
</TimeStamp>
			<styleUrl>#waypoint</styleUrl>
			<Point>
				<coordinates>123.93509,10.326896,-89.05</coordinates>
			</Point>
		</Placemark>
		<Placemark>
			<name>3376</name>
			<TimeStamp><when>2024-08-31T00:05:01Z</when>
</TimeStamp>
			<styleUrl>#waypoint</styleUrl>
			<Point>
				<coordinates>123.935068,10.326885,-89.05</coordinates>
			</Point>
		</Placemark>
		<Placemark>
			<name>3377</name>
			<TimeStamp><when>2024-08-31T00:06:09Z</when>
</TimeStamp>
			<styleUrl>#waypoint</styleUrl>
			<Point>
				<coordinates>123.934955,10.326773,-89.05</coordinates>
			</Point>
		</Placemark>
		<Placemark>
			<name>3378</name>
			<TimeStamp><when>2024-08-31T00:06:35Z</when>
</TimeStamp>
			<styleUrl>#waypoint</styleUrl>
			<Point>
				<coordinates>123.934899,10.326727,-89.05</coordinates>
			</Point>
		</Placemark>
		<Placemark>
			<name>3379</name>
			<TimeStamp><when>2024-08-31T00:07:01Z</when>
</TimeStamp>
			<styleUrl>#waypoint</styleUrl>
			<Point>
				<coordinates>123.934952,10.326694,-89.05</coordinates>
			</Point>
		</Placemark>
		<Placemark>
			<name>3380</name>
			<TimeStamp><when>2024-08-31T00:07:28Z</when>
</TimeStamp>
			<styleUrl>#waypoint</styleUrl>
			<Point>
				<coordinates>123.934955,10.32662,-89.05</coordinates>
			</Point>
		</Placemark>
		<Placemark>
			<name>3381</name>
			<TimeStamp><when>2024-08-31T00:07:45Z</when>
</TimeStamp>
			<styleUrl>#waypoint</styleUrl>
			<Point>
				<coordinates>123.934899,10.326629,-89.05</coordinates>
			</Point>
		</Placemark>
		<Placemark>
			<name>3382</name>
			<TimeStamp><when>2024-08-31T00:07:55Z</when>
</TimeStamp>
			<styleUrl>#waypoint</styleUrl>
			<Point>
				<coordinates>123.934918,10.326608,-89.05</coordinates>
			</Point>
		</Placemark>
		<Placemark>
			<name>3383</name>
			<TimeStamp><when>2024-08-31T00:08:02Z</when>
</TimeStamp>
			<styleUrl>#waypoint</styleUrl>
			<Point>
				<coordinates>123.934918,10.326594,-89.05</coordinates>
			</Point>
		</Placemark>
		<Placemark>
			<name>3384</name>
			<TimeStamp><when>2024-08-31T00:08:21Z</when>
</TimeStamp>
			<styleUrl>#waypoint</styleUrl>
			<Point>
				<coordinates>123.934953,10.326565,-89.05</coordinates>
			</Point>
		</Placemark>
		<Placemark>
			<name>3385</name>
			<TimeStamp><when>2024-08-31T00:08:29Z</when>
</TimeStamp>
			<styleUrl>#waypoint</styleUrl>
			<Point>
				<coordinates>123.934955,10.32655,-89.05</coordinates>
			</Point>
		</Placemark>
		<Placemark>
			<name>3386</name>
			<TimeStamp><when>2024-08-31T00:08:44Z</when>
</TimeStamp>
			<styleUrl>#waypoint</styleUrl>
			<Point>
				<coordinates>123.934981,10.326529,-89.05</coordinates>
			</Point>
		</Placemark>
		<Placemark>
			<name>3387</name>
			<TimeStamp><when>2024-08-31T00:09:10Z</when>
</TimeStamp>
			<styleUrl>#waypoint</styleUrl>
			<Point>
				<coordinates>123.935021,10.326551,-89.05</coordinates>
			</Point>
		</Placemark>
		<Placemark>
			<name>3388</name>
			<TimeStamp><when>2024-08-31T00:09:41Z</when>
</TimeStamp>
			<styleUrl>#waypoint</styleUrl>
			<Point>
				<coordinates>123.935014,10.326488,-89.05</coordinates>
			</Point>
		</Placemark>
		<Placemark>
			<name>3389</name>
			<TimeStamp><when>2024-08-31T00:09:58Z</when>
</TimeStamp>
			<styleUrl>#waypoint</styleUrl>
			<Point>
				<coordinates>123.935033,10.326482,-89.05</coordinates>
			</Point>
		</Placemark>
		<Placemark>
			<name>3390</name>
			<TimeStamp><when>2024-08-31T00:10:03Z</when>
</TimeStamp>
			<styleUrl>#waypoint</styleUrl>
			<Point>
				<coordinates>123.935037,10.326478,-89.05</coordinates>
			</Point>
		</Placemark>
		<Placemark>
			<name>3391</name>
			<TimeStamp><when>2024-08-31T00:10:10Z</when>
</TimeStamp>
			<styleUrl>#waypoint</styleUrl>
			<Point>
				<coordinates>123.935042,10.326479,-89.05</coordinates>
			</Point>
		</Placemark>
		<Placemark>
			<name>3392</name>
			<TimeStamp><when>2024-08-31T00:11:46Z</when>
</TimeStamp>
			<styleUrl>#waypoint</styleUrl>
			<Point>
				<coordinates>123.935197,10.32625,-89.05</coordinates>
			</Point>
		</Placemark>
		<Placemark>
			<name>3393</name>
			<TimeStamp><when>2024-08-31T00:12:00Z</when>
</TimeStamp>
			<styleUrl>#waypoint</styleUrl>
			<Point>
				<coordinates>123.935198,10.326234,-89.05</coordinates>
			</Point>
		</Placemark>
		<Placemark>
			<name>3394</name>
			<TimeStamp><when>2024-08-31T00:12:11Z</when>
</TimeStamp>
			<styleUrl>#waypoint</styleUrl>
			<Point>
				<coordinates>123.935202,10.32623,-89.05</coordinates>
			</Point>
		</Placemark>
		<Placemark>
			<name>3395</name>
			<TimeStamp><when>2024-08-31T00:12:25Z</when>
</TimeStamp>
			<styleUrl>#waypoint</styleUrl>
			<Point>
				<coordinates>123.935208,10.326211,-89.05</coordinates>
			</Point>
		</Placemark>
		<Placemark>
			<name>3396</name>
			<TimeStamp><when>2024-08-31T00:12:39Z</when>
</TimeStamp>
			<styleUrl>#waypoint</styleUrl>
			<Point>
				<coordinates>123.935221,10.326203,-89.05</coordinates>
			</Point>
		</Placemark>
		<Placemark>
			<name>3397</name>
			<TimeStamp><when>2024-08-31T00:13:40Z</when>
</TimeStamp>
			<styleUrl>#waypoint</styleUrl>
			<Point>
				<coordinates>123.935367,10.326009,-89.05</coordinates>
			</Point>
		</Placemark>
		<Placemark>
			<name>3398</name>
			<TimeStamp><when>2024-08-31T00:14:02Z</when>
</TimeStamp>
			<styleUrl>#waypoint</styleUrl>
			<Point>
				<coordinates>123.935412,10.325955,-89.05</coordinates>
			</Point>
		</Placemark>
		<Placemark>
			<name>3399</name>
			<TimeStamp><when>2024-08-31T00:14:09Z</when>
</TimeStamp>
			<styleUrl>#waypoint</styleUrl>
			<Point>
				<coordinates>123.935433,10.325923,-89.05</coordinates>
			</Point>
		</Placemark>
		<Placemark>
			<name>3400</name>
			<TimeStamp><when>2024-08-31T00:14:21Z</when>
</TimeStamp>
			<styleUrl>#waypoint</styleUrl>
			<Point>
				<coordinates>123.935469,10.325877,-89.05</coordinates>
			</Point>
		</Placemark>
		<Placemark>
			<name>3401</name>
			<TimeStamp><when>2024-08-31T00:14:29Z</when>
</TimeStamp>
			<styleUrl>#waypoint</styleUrl>
			<Point>
				<coordinates>123.935478,10.325871,-89.05</coordinates>
			</Point>
		</Placemark>
		<Placemark>
			<name>3402</name>
			<TimeStamp><when>2024-08-31T00:15:04Z</when>
</TimeStamp>
			<styleUrl>#waypoint</styleUrl>
			<Point>
				<coordinates>123.935533,10.325805,-89.05</coordinates>
			</Point>
		</Placemark>
		<Placemark>
			<name>3403</name>
			<TimeStamp><when>2024-08-31T00:15:21Z</when>
</TimeStamp>
			<styleUrl>#waypoint</styleUrl>
			<Point>
				<coordinates>123.935584,10.325751,-89.05</coordinates>
			</Point>
		</Placemark>
		<Placemark>
			<name>3404</name>
			<TimeStamp><when>2024-08-31T00:15:33Z</when>
</TimeStamp>
			<styleUrl>#waypoint</styleUrl>
			<Point>
				<coordinates>123.935601,10.325724,-89.05</coordinates>
			</Point>
		</Placemark>
		<Placemark>
			<name>3405</name>
			<TimeStamp><when>2024-08-31T00:15:59Z</when>
</TimeStamp>
			<styleUrl>#waypoint</styleUrl>
			<Point>
				<coordinates>123.935626,10.325721,-89.05</coordinates>
			</Point>
		</Placemark>
		<Placemark>
			<name>3406</name>
			<TimeStamp><when>2024-08-31T00:16:31Z</when>
</TimeStamp>
			<styleUrl>#waypoint</styleUrl>
			<Point>
				<coordinates>123.935631,10.325672,-89.05</coordinates>
			</Point>
		</Placemark>
		<Placemark>
			<name>3407</name>
			<TimeStamp><when>2024-08-31T00:17:00Z</when>
</TimeStamp>
			<styleUrl>#waypoint</styleUrl>
			<Point>
				<coordinates>123.935738,10.325574,-89.05</coordinates>
			</Point>
		</Placemark>
		<Placemark>
			<name>3408</name>
			<TimeStamp><when>2024-08-31T00:17:07Z</when>
</TimeStamp>
			<styleUrl>#waypoint</styleUrl>
			<Point>
				<coordinates>123.935744,10.325557,-89.05</coordinates>
			</Point>
		</Placemark>
		<Placemark>
			<name>3409</name>
			<TimeStamp><when>2024-08-31T00:17:33Z</when>
</TimeStamp>
			<styleUrl>#waypoint</styleUrl>
			<Point>
				<coordinates>123.93581,10.325618,-89.05</coordinates>
			</Point>
		</Placemark>
		<Placemark>
			<name>3410</name>
			<TimeStamp><when>2024-08-31T00:17:45Z</when>
</TimeStamp>
			<styleUrl>#waypoint</styleUrl>
			<Point>
				<coordinates>123.935804,10.325655,-89.05</coordinates>
			</Point>
		</Placemark>
		<Placemark>
			<name>3411</name>
			<TimeStamp><when>2024-08-31T00:18:13Z</when>
</TimeStamp>
			<styleUrl>#waypoint</styleUrl>
			<Point>
				<coordinates>123.935809,10.325721,-89.05</coordinates>
			</Point>
		</Placemark>
		<Placemark>
			<name>3412</name>
			<TimeStamp><when>2024-08-31T00:18:35Z</when>
</TimeStamp>
			<styleUrl>#waypoint</styleUrl>
			<Point>
				<coordinates>123.935765,10.325777,-89.05</coordinates>
			</Point>
		</Placemark>
		<Placemark>
			<name>3413</name>
			<TimeStamp><when>2024-08-31T00:18:55Z</when>
</TimeStamp>
			<styleUrl>#waypoint</styleUrl>
			<Point>
				<coordinates>123.935725,10.325806,-89.05</coordinates>
			</Point>
		</Placemark>
		<Placemark>
			<name>3414</name>
			<TimeStamp><when>2024-08-31T00:19:17Z</when>
</TimeStamp>
			<styleUrl>#waypoint</styleUrl>
			<Point>
				<coordinates>123.9357,10.325864,-89.05</coordinates>
			</Point>
		</Placemark>
		<Placemark>
			<name>3415</name>
			<TimeStamp><when>2024-08-31T00:19:37Z</when>
</TimeStamp>
			<styleUrl>#waypoint</styleUrl>
			<Point>
				<coordinates>123.935647,10.325896,-89.05</coordinates>
			</Point>
		</Placemark>
		<Placemark>
			<name>3416</name>
			<TimeStamp><when>2024-08-31T00:19:50Z</when>
</TimeStamp>
			<styleUrl>#waypoint</styleUrl>
			<Point>
				<coordinates>123.935641,10.325902,-89.05</coordinates>
			</Point>
		</Placemark>
		<Placemark>
			<name>3417</name>
			<TimeStamp><when>2024-08-31T00:20:17Z</when>
</TimeStamp>
			<styleUrl>#waypoint</styleUrl>
			<Point>
				<coordinates>123.935549,10.326003,-89.05</coordinates>
			</Point>
		</Placemark>
		<Placemark>
			<name>3418</name>
			<TimeStamp><when>2024-08-31T00:20:47Z</when>
</TimeStamp>
			<styleUrl>#waypoint</styleUrl>
			<Point>
				<coordinates>123.935517,10.326084,-89.05</coordinates>
			</Point>
		</Placemark>
		<Placemark>
			<name>3419</name>
			<TimeStamp><when>2024-08-31T00:21:07Z</when>
</TimeStamp>
			<styleUrl>#waypoint</styleUrl>
			<Point>
				<coordinates>123.935436,10.326183,-89.05</coordinates>
			</Point>
		</Placemark>
		<Placemark>
			<name>3420</name>
			<TimeStamp><when>2024-08-31T00:21:28Z</when>
</TimeStamp>
			<styleUrl>#waypoint</styleUrl>
			<Point>
				<coordinates>123.93538,10.326264,-89.05</coordinates>
			</Point>
		</Placemark>
		<Placemark>
			<name>3421</name>
			<TimeStamp><when>2024-08-31T00:21:50Z</when>
</TimeStamp>
			<styleUrl>#waypoint</styleUrl>
			<Point>
				<coordinates>123.935332,10.326278,-89.05</coordinates>
			</Point>
		</Placemark>
		<Placemark>
			<name>3422</name>
			<TimeStamp><when>2024-08-31T00:22:14Z</when>
</TimeStamp>
			<styleUrl>#waypoint</styleUrl>
			<Point>
				<coordinates>123.935303,10.326315,-89.05</coordinates>
			</Point>
		</Placemark>
		<Placemark>
			<name>3423</name>
			<TimeStamp><when>2024-08-31T00:22:29Z</when>
</TimeStamp>
			<styleUrl>#waypoint</styleUrl>
			<Point>
				<coordinates>123.93528,10.326348,-89.05</coordinates>
			</Point>
		</Placemark>
		<Placemark>
			<name>3424</name>
			<TimeStamp><when>2024-08-31T00:22:40Z</when>
</TimeStamp>
			<styleUrl>#waypoint</styleUrl>
			<Point>
				<coordinates>123.935257,10.326378,-89.05</coordinates>
			</Point>
		</Placemark>
		<Placemark>
			<name>3425</name>
			<TimeStamp><when>2024-08-31T00:22:49Z</when>
</TimeStamp>
			<styleUrl>#waypoint</styleUrl>
			<Point>
				<coordinates>123.935244,10.326396,-89.05</coordinates>
			</Point>
		</Placemark>
		<Placemark>
			<name>3426</name>
			<TimeStamp><when>2024-08-31T00:23:27Z</when>
</TimeStamp>
			<styleUrl>#waypoint</styleUrl>
			<Point>
				<coordinates>123.935183,10.326466,-89.05</coordinates>
			</Point>
		</Placemark>
		<Placemark>
			<name>3427</name>
			<TimeStamp><when>2024-08-31T00:23:43Z</when>
</TimeStamp>
			<styleUrl>#waypoint</styleUrl>
			<Point>
				<coordinates>123.93518,10.326464,-89.05</coordinates>
			</Point>
		</Placemark>
		<Placemark>
			<name>3428</name>
			<TimeStamp><when>2024-08-31T00:23:54Z</when>
</TimeStamp>
			<styleUrl>#waypoint</styleUrl>
			<Point>
				<coordinates>123.935175,10.326482,-89.05</coordinates>
			</Point>
		</Placemark>
		<Placemark>
			<name>3429</name>
			<TimeStamp><when>2024-08-31T00:24:07Z</when>
</TimeStamp>
			<styleUrl>#waypoint</styleUrl>
			<Point>
				<coordinates>123.93517,10.326495,-89.05</coordinates>
			</Point>
		</Placemark>
		<Placemark>
			<name>3430</name>
			<TimeStamp><when>2024-08-31T00:24:27Z</when>
</TimeStamp>
			<styleUrl>#waypoint</styleUrl>
			<Point>
				<coordinates>123.935135,10.326531,-89.05</coordinates>
			</Point>
		</Placemark>
		<Placemark>
			<name>3431</name>
			<TimeStamp><when>2024-08-31T00:24:37Z</when>
</TimeStamp>
			<styleUrl>#waypoint</styleUrl>
			<Point>
				<coordinates>123.935122,10.326551,-89.05</coordinates>
			</Point>
		</Placemark>
		<Placemark>
			<name>3432</name>
			<TimeStamp><when>2024-08-31T00:25:00Z</when>
</TimeStamp>
			<styleUrl>#waypoint</styleUrl>
			<Point>
				<coordinates>123.935082,10.326601,-89.05</coordinates>
			</Point>
		</Placemark>
		<Placemark>
			<name>3433</name>
			<TimeStamp><when>2024-08-31T00:25:11Z</when>
</TimeStamp>
			<styleUrl>#waypoint</styleUrl>
			<Point>
				<coordinates>123.935084,10.326607,-89.05</coordinates>
			</Point>
		</Placemark>
		<Placemark>
			<name>3434</name>
			<TimeStamp><when>2024-08-31T00:25:17Z</when>
</TimeStamp>
			<styleUrl>#waypoint</styleUrl>
			<Point>
				<coordinates>123.935074,10.326611,-89.05</coordinates>
			</Point>
		</Placemark>
		<Placemark>
			<name>3435</name>
			<TimeStamp><when>2024-08-31T00:25:43Z</when>
</TimeStamp>
			<styleUrl>#waypoint</styleUrl>
			<Point>
				<coordinates>123.935036,10.326614,-89.05</coordinates>
			</Point>
		</Placemark>
		<Placemark>
			<name>3436</name>
			<TimeStamp><when>2024-08-31T00:26:03Z</when>
</TimeStamp>
			<styleUrl>#waypoint</styleUrl>
			<Point>
				<coordinates>123.935056,10.326639,-89.05</coordinates>
			</Point>
		</Placemark>
		<Placemark>
			<name>3437</name>
			<TimeStamp><when>2024-08-31T00:26:14Z</when>
</TimeStamp>
			<styleUrl>#waypoint</styleUrl>
			<Point>
				<coordinates>123.935067,10.326646,-89.05</coordinates>
			</Point>
		</Placemark>
		<Placemark>
			<name>3438</name>
			<TimeStamp><when>2024-08-31T00:26:28Z</when>
</TimeStamp>
			<styleUrl>#waypoint</styleUrl>
			<Point>
				<coordinates>123.93508,10.326652,-89.05</coordinates>
			</Point>
		</Placemark>
		<Placemark>
			<name>3439</name>
			<TimeStamp><when>2024-08-31T00:26:50Z</when>
</TimeStamp>
			<styleUrl>#waypoint</styleUrl>
			<Point>
				<coordinates>123.935067,10.326685,-89.05</coordinates>
			</Point>
		</Placemark>
		<Placemark>
			<name>3440</name>
			<TimeStamp><when>2024-08-31T00:27:20Z</when>
</TimeStamp>
			<styleUrl>#waypoint</styleUrl>
			<Point>
				<coordinates>123.935028,10.326739,-89.05</coordinates>
			</Point>
		</Placemark>
		<Placemark>
			<name>3441</name>
			<TimeStamp><when>2024-08-31T00:27:46Z</when>
</TimeStamp>
			<styleUrl>#waypoint</styleUrl>
			<Point>
				<coordinates>123.93512,10.326785,-89.05</coordinates>
			</Point>
		</Placemark>
		<Placemark>
			<name>3442</name>
			<TimeStamp><when>2024-08-31T00:28:15Z</when>
</TimeStamp>
			<styleUrl>#waypoint</styleUrl>
			<Point>
				<coordinates>123.93517,10.326762,-89.05</coordinates>
			</Point>
		</Placemark>
		<Placemark>
			<name>3443</name>
			<TimeStamp><when>2024-08-31T00:28:45Z</when>
</TimeStamp>
			<styleUrl>#waypoint</styleUrl>
			<Point>
				<coordinates>123.935235,10.326667,-89.05</coordinates>
			</Point>
		</Placemark>
		<Placemark>
			<name>3444</name>
			<TimeStamp><when>2024-08-31T00:28:59Z</when>
</TimeStamp>
			<styleUrl>#waypoint</styleUrl>
			<Point>
				<coordinates>123.935246,10.326651,-89.05</coordinates>
			</Point>
		</Placemark>
		<Placemark>
			<name>3445</name>
			<TimeStamp><when>2024-08-31T00:29:03Z</when>
</TimeStamp>
			<styleUrl>#waypoint</styleUrl>
			<Point>
				<coordinates>123.935244,10.326652,-89.05</coordinates>
			</Point>
		</Placemark>
		<Placemark>
			<name>3446</name>
			<TimeStamp><when>2024-08-31T00:29:21Z</when>
</TimeStamp>
			<styleUrl>#waypoint</styleUrl>
			<Point>
				<coordinates>123.935255,10.326634,-89.05</coordinates>
			</Point>
		</Placemark>
		<Placemark>
			<name>3447</name>
			<TimeStamp><when>2024-08-31T00:29:53Z</when>
</TimeStamp>
			<styleUrl>#waypoint</styleUrl>
			<Point>
				<coordinates>123.935287,10.326605,-89.05</coordinates>
			</Point>
		</Placemark>
		<Placemark>
			<name>3448</name>
			<TimeStamp><when>2024-08-31T00:30:10Z</when>
</TimeStamp>
			<styleUrl>#waypoint</styleUrl>
			<Point>
				<coordinates>123.935322,10.326565,-89.05</coordinates>
			</Point>
		</Placemark>
		<Placemark>
			<name>3449</name>
			<TimeStamp><when>2024-08-31T00:30:32Z</when>
</TimeStamp>
			<styleUrl>#waypoint</styleUrl>
			<Point>
				<coordinates>123.935381,10.326521,-89.05</coordinates>
			</Point>
		</Placemark>
		<Placemark>
			<name>3450</name>
			<TimeStamp><when>2024-08-31T00:30:55Z</when>
</TimeStamp>
			<styleUrl>#waypoint</styleUrl>
			<Point>
				<coordinates>123.935424,10.32643,-89.05</coordinates>
			</Point>
		</Placemark>
		<Placemark>
			<name>3451</name>
			<TimeStamp><when>2024-08-31T00:31:01Z</when>
</TimeStamp>
			<styleUrl>#waypoint</styleUrl>
			<Point>
				<coordinates>123.935417,10.326424,-89.05</coordinates>
			</Point>
		</Placemark>
		<Placemark>
			<name>3452</name>
			<TimeStamp><when>2024-08-31T00:31:33Z</when>
</TimeStamp>
			<styleUrl>#waypoint</styleUrl>
			<Point>
				<coordinates>123.935502,10.326382,-89.05</coordinates>
			</Point>
		</Placemark>
		<Placemark>
			<name>3453</name>
			<TimeStamp><when>2024-08-31T00:32:27Z</when>
</TimeStamp>
			<styleUrl>#waypoint</styleUrl>
			<Point>
				<coordinates>123.93556,10.326251,-89.05</coordinates>
			</Point>
		</Placemark>
		<Placemark>
			<name>3454</name>
			<TimeStamp><when>2024-08-31T00:32:35Z</when>
</TimeStamp>
			<styleUrl>#waypoint</styleUrl>
			<Point>
				<coordinates>123.935568,10.326246,-89.05</coordinates>
			</Point>
		</Placemark>
		<Placemark>
			<name>3455</name>
			<TimeStamp><when>2024-08-31T00:32:48Z</when>
</TimeStamp>
			<styleUrl>#waypoint</styleUrl>
			<Point>
				<coordinates>123.935587,10.326207,-89.05</coordinates>
			</Point>
		</Placemark>
		<Placemark>
			<name>3456</name>
			<TimeStamp><when>2024-08-31T00:33:10Z</when>
</TimeStamp>
			<styleUrl>#waypoint</styleUrl>
			<Point>
				<coordinates>123.935606,10.326174,-89.05</coordinates>
			</Point>
		</Placemark>
		<Placemark>
			<name>3457</name>
			<TimeStamp><when>2024-08-31T00:33:35Z</when>
</TimeStamp>
			<styleUrl>#waypoint</styleUrl>
			<Point>
				<coordinates>123.935664,10.326103,-89.05</coordinates>
			</Point>
		</Placemark>
		<Placemark>
			<name>3458</name>
			<TimeStamp><when>2024-08-31T00:33:55Z</when>
</TimeStamp>
			<styleUrl>#waypoint</styleUrl>
			<Point>
				<coordinates>123.935675,10.326081,-89.05</coordinates>
			</Point>
		</Placemark>
		<Placemark>
			<name>3459</name>
			<TimeStamp><when>2024-08-31T00:34:27Z</when>
</TimeStamp>
			<styleUrl>#waypoint</styleUrl>
			<Point>
				<coordinates>123.93575,10.326004,-89.05</coordinates>
			</Point>
		</Placemark>
		<Placemark>
			<name>3460</name>
			<TimeStamp><when>2024-08-31T00:34:47Z</when>
</TimeStamp>
			<styleUrl>#waypoint</styleUrl>
			<Point>
				<coordinates>123.935819,10.32596,-89.05</coordinates>
			</Point>
		</Placemark>
		<Placemark>
			<name>3461</name>
			<TimeStamp><when>2024-08-31T00:35:15Z</when>
</TimeStamp>
			<styleUrl>#waypoint</styleUrl>
			<Point>
				<coordinates>123.935814,10.325934,-89.05</coordinates>
			</Point>
		</Placemark>
		<Placemark>
			<name>3462</name>
			<TimeStamp><when>2024-08-31T00:36:11Z</when>
</TimeStamp>
			<styleUrl>#waypoint</styleUrl>
			<Point>
				<coordinates>123.935935,10.325764,-89.05</coordinates>
			</Point>
		</Placemark>
		<Placemark>
			<name>3463</name>
			<TimeStamp><when>2024-08-31T00:36:30Z</when>
</TimeStamp>
			<styleUrl>#waypoint</styleUrl>
			<Point>
				<coordinates>123.935947,10.325731,-89.05</coordinates>
			</Point>
		</Placemark>
		<Placemark>
			<name>3464</name>
			<TimeStamp><when>2024-08-31T00:36:41Z</when>
</TimeStamp>
			<styleUrl>#waypoint</styleUrl>
			<Point>
				<coordinates>123.935948,10.325727,-89.05</coordinates>
			</Point>
		</Placemark>
		<Placemark>
			<name>3465</name>
			<TimeStamp><when>2024-08-31T00:37:52Z</when>
</TimeStamp>
			<styleUrl>#waypoint</styleUrl>
			<Point>
				<coordinates>123.936095,10.325854,-89.05</coordinates>
			</Point>
		</Placemark>
		<Placemark>
			<name>3466</name>
			<TimeStamp><when>2024-08-31T00:38:36Z</when>
</TimeStamp>
			<styleUrl>#waypoint</styleUrl>
			<Point>
				<coordinates>123.935977,10.326052,-89.05</coordinates>
			</Point>
		</Placemark>
		<Placemark>
			<name>3467</name>
			<TimeStamp><when>2024-08-31T00:39:26Z</when>
</TimeStamp>
			<styleUrl>#waypoint</styleUrl>
			<Point>
				<coordinates>123.935801,10.326236,-89.05</coordinates>
			</Point>
		</Placemark>
		<Placemark>
			<name>3468</name>
			<TimeStamp><when>2024-08-31T00:39:33Z</when>
</TimeStamp>
			<styleUrl>#waypoint</styleUrl>
			<Point>
				<coordinates>123.935803,10.32624,-89.05</coordinates>
			</Point>
		</Placemark>
		<Placemark>
			<name>3469</name>
			<TimeStamp><when>2024-08-31T00:39:54Z</when>
</TimeStamp>
			<styleUrl>#waypoint</styleUrl>
			<Point>
				<coordinates>123.935797,10.326255,-89.05</coordinates>
			</Point>
		</Placemark>
		<Placemark>
			<name>3470</name>
			<TimeStamp><when>2024-08-31T00:40:31Z</when>
</TimeStamp>
			<styleUrl>#waypoint</styleUrl>
			<Point>
				<coordinates>123.935744,10.326302,-89.05</coordinates>
			</Point>
		</Placemark>
		<Placemark>
			<name>3471</name>
			<TimeStamp><when>2024-08-31T00:41:24Z</when>
</TimeStamp>
			<styleUrl>#waypoint</styleUrl>
			<Point>
				<coordinates>123.935641,10.326428,-89.05</coordinates>
			</Point>
		</Placemark>
		<Placemark>
			<name>3472</name>
			<TimeStamp><when>2024-08-31T00:41:55Z</when>
</TimeStamp>
			<styleUrl>#waypoint</styleUrl>
			<Point>
				<coordinates>123.93556,10.326566,-89.05</coordinates>
			</Point>
		</Placemark>
		<Placemark>
			<name>3473</name>
			<TimeStamp><when>2024-08-31T00:42:18Z</when>
</TimeStamp>
			<styleUrl>#waypoint</styleUrl>
			<Point>
				<coordinates>123.935519,10.326623,-89.05</coordinates>
			</Point>
		</Placemark>
		<Placemark>
			<name>3474</name>
			<TimeStamp><when>2024-08-31T00:42:43Z</when>
</TimeStamp>
			<styleUrl>#waypoint</styleUrl>
			<Point>
				<coordinates>123.935526,10.326659,-89.05</coordinates>
			</Point>
		</Placemark>
		<Placemark>
			<name>3475</name>
			<TimeStamp><when>2024-08-31T00:43:00Z</when>
</TimeStamp>
			<styleUrl>#waypoint</styleUrl>
			<Point>
				<coordinates>123.935543,10.326658,-89.05</coordinates>
			</Point>
		</Placemark>
		<Placemark>
			<name>3476</name>
			<TimeStamp><when>2024-08-31T00:43:38Z</when>
</TimeStamp>
			<styleUrl>#waypoint</styleUrl>
			<Point>
				<coordinates>123.935526,10.326681,-89.05</coordinates>
			</Point>
		</Placemark>
		<Placemark>
			<name>3477</name>
			<TimeStamp><when>2024-08-31T00:43:44Z</when>
</TimeStamp>
			<styleUrl>#waypoint</styleUrl>
			<Point>
				<coordinates>123.935531,10.326686,-89.05</coordinates>
			</Point>
		</Placemark>
		<Placemark>
			<name>3478</name>
			<TimeStamp><when>2024-08-31T00:43:52Z</when>
</TimeStamp>
			<styleUrl>#waypoint</styleUrl>
			<Point>
				<coordinates>123.935538,10.326692,-89.05</coordinates>
			</Point>
		</Placemark>
		<Placemark>
			<name>3479</name>
			<TimeStamp><when>2024-08-31T00:43:58Z</when>
</TimeStamp>
			<styleUrl>#waypoint</styleUrl>
			<Point>
				<coordinates>123.935525,10.326689,-89.05</coordinates>
			</Point>
		</Placemark>
		<Placemark>
			<name>3480</name>
			<TimeStamp><when>2024-08-31T00:44:25Z</when>
</TimeStamp>
			<styleUrl>#waypoint</styleUrl>
			<Point>
				<coordinates>123.935494,10.326664,-89.05</coordinates>
			</Point>
		</Placemark>
		<Placemark>
			<name>3481</name>
			<TimeStamp><when>2024-08-31T00:45:02Z</when>
</TimeStamp>
			<styleUrl>#waypoint</styleUrl>
			<Point>
				<coordinates>123.935395,10.326729,-89.05</coordinates>
			</Point>
		</Placemark>
		<Placemark>
			<name>3482</name>
			<TimeStamp><when>2024-08-31T00:45:24Z</when>
</TimeStamp>
			<styleUrl>#waypoint</styleUrl>
			<Point>
				<coordinates>123.935387,10.326741,-89.05</coordinates>
			</Point>
		</Placemark>
		<Placemark>
			<name>3483</name>
			<TimeStamp><when>2024-08-31T00:45:38Z</when>
</TimeStamp>
			<styleUrl>#waypoint</styleUrl>
			<Point>
				<coordinates>123.935388,10.32675,-89.05</coordinates>
			</Point>
		</Placemark>
		<Placemark>
			<name>3484</name>
			<TimeStamp><when>2024-08-31T00:45:54Z</when>
</TimeStamp>
			<styleUrl>#waypoint</styleUrl>
			<Point>
				<coordinates>123.935375,10.32675,-89.05</coordinates>
			</Point>
		</Placemark>
		<Placemark>
			<name>3485</name>
			<TimeStamp><when>2024-08-31T00:46:15Z</when>
</TimeStamp>
			<styleUrl>#waypoint</styleUrl>
			<Point>
				<coordinates>123.935363,10.326749,-89.05</coordinates>
			</Point>
		</Placemark>
		<Placemark>
			<name>3486</name>
			<TimeStamp><when>2024-08-31T00:46:28Z</when>
</TimeStamp>
			<styleUrl>#waypoint</styleUrl>
			<Point>
				<coordinates>123.935356,10.326734,-89.05</coordinates>
			</Point>
		</Placemark>
		<Placemark>
			<name>3487</name>
			<TimeStamp><when>2024-08-31T00:46:43Z</when>
</TimeStamp>
			<styleUrl>#waypoint</styleUrl>
			<Point>
				<coordinates>123.935337,10.32675,-89.05</coordinates>
			</Point>
		</Placemark>
		<Placemark>
			<name>3488</name>
			<TimeStamp><when>2024-08-31T00:48:17Z</when>
</TimeStamp>
			<styleUrl>#waypoint</styleUrl>
			<Point>
				<coordinates>123.935377,10.326793,-89.05</coordinates>
			</Point>
		</Placemark>
		<Placemark>
			<name>3489</name>
			<TimeStamp><when>2024-08-31T00:49:10Z</when>
</TimeStamp>
			<styleUrl>#waypoint</styleUrl>
			<Point>
				<coordinates>123.935534,10.326868,-89.05</coordinates>
			</Point>
		</Placemark>
		<Placemark>
			<name>3490</name>
			<TimeStamp><when>2024-08-31T00:49:37Z</when>
</TimeStamp>
			<styleUrl>#waypoint</styleUrl>
			<Point>
				<coordinates>123.935452,10.326952,-89.05</coordinates>
			</Point>
		</Placemark>
		<Placemark>
			<name>3491</name>
			<TimeStamp><when>2024-08-31T00:49:45Z</when>
</TimeStamp>
			<styleUrl>#waypoint</styleUrl>
			<Point>
				<coordinates>123.935444,10.326956,-89.05</coordinates>
			</Point>
		</Placemark>
		<Placemark>
			<name>3492</name>
			<TimeStamp><when>2024-08-31T00:50:32Z</when>
</TimeStamp>
			<styleUrl>#waypoint</styleUrl>
			<Point>
				<coordinates>123.935567,10.326828,-89.05</coordinates>
			</Point>
		</Placemark>
		<Placemark>
			<name>3493</name>
			<TimeStamp><when>2024-08-31T00:50:57Z</when>
</TimeStamp>
			<styleUrl>#waypoint</styleUrl>
			<Point>
				<coordinates>123.935587,10.326738,-89.05</coordinates>
			</Point>
		</Placemark>
		<Placemark>
			<name>3494</name>
			<TimeStamp><when>2024-08-31T00:51:07Z</when>
</TimeStamp>
			<styleUrl>#waypoint</styleUrl>
			<Point>
				<coordinates>123.935576,10.326794,-89.05</coordinates>
			</Point>
		</Placemark>
		<Placemark>
			<name>3495</name>
			<TimeStamp><when>2024-08-31T00:51:14Z</when>
</TimeStamp>
			<styleUrl>#waypoint</styleUrl>
			<Point>
				<coordinates>123.935565,10.326818,-89.05</coordinates>
			</Point>
		</Placemark>
		<Placemark>
			<name>3496</name>
			<TimeStamp><when>2024-08-31T00:52:16Z</when>
</TimeStamp>
			<styleUrl>#waypoint</styleUrl>
			<Point>
				<coordinates>123.935549,10.327128,-89.05</coordinates>
			</Point>
		</Placemark>
		<Placemark>
			<name>3497</name>
			<TimeStamp><when>2024-08-31T00:52:34Z</when>
</TimeStamp>
			<styleUrl>#waypoint</styleUrl>
			<Point>
				<coordinates>123.935577,10.32711,-89.05</coordinates>
			</Point>
		</Placemark>
		<Placemark>
			<name>3498</name>
			<TimeStamp><when>2024-08-31T00:53:46Z</when>
</TimeStamp>
			<styleUrl>#waypoint</styleUrl>
			<Point>
				<coordinates>123.935406,10.327102,-89.05</coordinates>
			</Point>
		</Placemark>
		<Placemark>
			<name>3499</name>
			<TimeStamp><when>2024-08-31T00:54:13Z</when>
</TimeStamp>
			<styleUrl>#waypoint</styleUrl>
			<Point>
				<coordinates>123.935492,10.327171,-89.05</coordinates>
			</Point>
		</Placemark>
		<Placemark>
			<name>3500</name>
			<TimeStamp><when>2024-08-31T00:54:37Z</when>
</TimeStamp>
			<styleUrl>#waypoint</styleUrl>
			<Point>
				<coordinates>123.935561,10.327228,-89.05</coordinates>
			</Point>
		</Placemark>
		<Placemark>
			<name>3501</name>
			<TimeStamp><when>2024-08-31T00:54:51Z</when>
</TimeStamp>
			<styleUrl>#waypoint</styleUrl>
			<Point>
				<coordinates>123.935551,10.327265,-89.05</coordinates>
			</Point>
		</Placemark>
		<Placemark>
			<name>3502</name>
			<TimeStamp><when>2024-08-31T00:54:59Z</when>
</TimeStamp>
			<styleUrl>#waypoint</styleUrl>
			<Point>
				<coordinates>123.935558,10.327285,-89.05</coordinates>
			</Point>
		</Placemark>
		<Placemark>
			<name>3503</name>
			<TimeStamp><when>2024-08-31T00:55:27Z</when>
</TimeStamp>
			<styleUrl>#waypoint</styleUrl>
			<Point>
				<coordinates>123.935662,10.327324,-89.05</coordinates>
			</Point>
		</Placemark>
		<Placemark>
			<name>3504</name>
			<TimeStamp><when>2024-08-31T00:56:42Z</when>
</TimeStamp>
			<styleUrl>#waypoint</styleUrl>
			<Point>
				<coordinates>123.935915,10.32735,-90.28</coordinates>
			</Point>
		</Placemark>
		<Placemark>
			<name>3505</name>
			<TimeStamp><when>2024-08-31T00:57:12Z</when>
</TimeStamp>
			<styleUrl>#waypoint</styleUrl>
			<Point>
				<coordinates>123.935892,10.327315,-90.28</coordinates>
			</Point>
		</Placemark>
		<Placemark>
			<name>3506</name>
			<TimeStamp><when>2024-08-31T00:57:51Z</when>
</TimeStamp>
			<styleUrl>#waypoint</styleUrl>
			<Point>
				<coordinates>123.936018,10.327329,-90.28</coordinates>
			</Point>
		</Placemark>
		<Placemark>
			<name>3507</name>
			<TimeStamp><when>2024-08-31T00:58:08Z</when>
</TimeStamp>
			<styleUrl>#waypoint</styleUrl>
			<Point>
				<coordinates>123.936032,10.327396,-90.28</coordinates>
			</Point>
		</Placemark>
		<Placemark>
			<name>3508</name>
			<TimeStamp><when>2024-08-31T00:58:18Z</when>
</TimeStamp>
			<styleUrl>#waypoint</styleUrl>
			<Point>
				<coordinates>123.936025,10.327413,-90.28</coordinates>
			</Point>
		</Placemark>
		<Placemark>
			<name>3509</name>
			<TimeStamp><when>2024-08-31T00:58:38Z</when>
</TimeStamp>
			<styleUrl>#waypoint</styleUrl>
			<Point>
				<coordinates>123.936026,10.327368,-90.28</coordinates>
			</Point>
		</Placemark>
		<Placemark>
			<name>3510</name>
			<TimeStamp><when>2024-08-31T00:58:44Z</when>
</TimeStamp>
			<styleUrl>#waypoint</styleUrl>
			<Point>
				<coordinates>123.936029,10.32734,-90.28</coordinates>
			</Point>
		</Placemark>
		<Placemark>
			<name>3511</name>
			<TimeStamp><when>2024-08-31T00:59:21Z</when>
</TimeStamp>
			<styleUrl>#waypoint</styleUrl>
			<Point>
				<coordinates>123.936113,10.327246,-90.28</coordinates>
			</Point>
		</Placemark>
		<Placemark>
			<name>3512</name>
			<TimeStamp><when>2024-08-31T00:59:40Z</when>
</TimeStamp>
			<styleUrl>#waypoint</styleUrl>
			<Point>
				<coordinates>123.936135,10.327246,-90.28</coordinates>
			</Point>
		</Placemark>
	</Folder>
</Document>
</kml>
