<?xml version="1.0" encoding="UTF-8" standalone="no" ?><gpx xmlns="http://www.topografix.com/GPX/1/1" xmlns:gpxx="http://www.garmin.com/xmlschemas/GpxExtensions/v3" xmlns:wptx1="http://www.garmin.com/xmlschemas/WaypointExtension/v1" xmlns:gpxtpx="http://www.garmin.com/xmlschemas/TrackPointExtension/v1" creator="eTrex 22x" version="1.1" xmlns:xsi="http://www.w3.org/2001/XMLSchema-instance" xsi:schemaLocation="http://www.topografix.com/GPX/1/1 http://www.topografix.com/GPX/1/1/gpx.xsd http://www.garmin.com/xmlschemas/GpxExtensions/v3 http://www8.garmin.com/xmlschemas/GpxExtensionsv3.xsd http://www.garmin.com/xmlschemas/TrackStatsExtension/v1 http://www8.garmin.com/xmlschemas/TrackStatsExtension.xsd http://www.garmin.com/xmlschemas/WaypointExtension/v1 http://www8.garmin.com/xmlschemas/WaypointExtensionv1.xsd http://www.garmin.com/xmlschemas/TrackPointExtension/v1 http://www.garmin.com/xmlschemas/TrackPointExtensionv1.xsd"><metadata><link href="http://www.garmin.com"><text>Garmin International</text></link><time>2024-07-24T01:39:21Z</time></metadata><wpt lat="10.345418" lon="123.934885"><ele>23.647247</ele><time>2024-07-24T01:39:21Z</time><name>606</name><cmt>BALETE</cmt><sym>Flag, Blue</sym></wpt><wpt lat="10.345228" lon="123.934919"><ele>34.224724</ele><time>2024-07-24T01:41:33Z</time><name>607</name><cmt>BALETE</cmt><sym>Flag, Blue</sym></wpt><wpt lat="10.345133" lon="123.934943"><time>2024-07-24T04:42:23Z</time><name>608</name><sym>Flag, Blue</sym></wpt><wpt lat="10.345133" lon="123.934943"><time>2024-07-24T04:42:43Z</time><name>609</name><sym>Flag, Blue</sym></wpt><wpt lat="10.345133" lon="123.934943"><time>2024-07-24T04:43:19Z</time><name>610</name><sym>Flag, Blue</sym></wpt><wpt lat="10.328250" lon="123.936882"><ele>19.098091</ele><time>2024-07-24T05:18:58Z</time><name>611</name><sym>Flag, Blue</sym></wpt><wpt lat="10.328275" lon="123.936827"><ele>12.706711</ele><time>2024-07-24T05:19:32Z</time><name>612</name><sym>Flag, Blue</sym></wpt><wpt lat="10.328199" lon="123.936851"><ele>16.233707</ele><time>2024-07-24T05:20:23Z</time><name>613</name><sym>Flag, Blue</sym></wpt><wpt lat="10.328199" lon="123.937035"><ele>11.916389</ele><time>2024-07-24T05:21:35Z</time><name>614</name><sym>Flag, Blue</sym></wpt><wpt lat="10.328183" lon="123.937063"><ele>17.702114</ele><time>2024-07-24T05:22:15Z</time><name>615</name><sym>Flag, Blue</sym></wpt><wpt lat="10.328155" lon="123.937111"><ele>19.394386</ele><time>2024-07-24T05:22:50Z</time><name>616</name><sym>Flag, Blue</sym></wpt><wpt lat="10.328078" lon="123.937254"><ele>20.079521</ele><time>2024-07-24T05:23:40Z</time><name>617</name><sym>Flag, Blue</sym></wpt><wpt lat="10.328151" lon="123.937314"><ele>16.097599</ele><time>2024-07-24T05:24:52Z</time><name>618</name><sym>Flag, Blue</sym></wpt><wpt lat="10.327989" lon="123.937340"><ele>15.914196</ele><time>2024-07-24T05:25:45Z</time><name>619</name><sym>Flag, Blue</sym></wpt><wpt lat="10.327979" lon="123.937368"><ele>16.634548</ele><time>2024-07-24T05:26:20Z</time><name>620</name><sym>Flag, Blue</sym></wpt><wpt lat="10.327891" lon="123.937504"><ele>18.570892</ele><time>2024-07-24T05:27:42Z</time><name>621</name><sym>Flag, Blue</sym></wpt><wpt lat="10.327887" lon="123.937525"><ele>16.555954</ele><time>2024-07-24T05:28:04Z</time><name>622</name><sym>Flag, Blue</sym></wpt><wpt lat="10.327932" lon="123.937534"><ele>18.469376</ele><time>2024-07-24T05:28:30Z</time><name>623</name><sym>Flag, Blue</sym></wpt><wpt lat="10.327858" lon="123.937566"><ele>20.001751</ele><time>2024-07-24T05:29:18Z</time><name>624</name><sym>Flag, Blue</sym></wpt><wpt lat="10.327855" lon="123.937569"><ele>17.965427</ele><time>2024-07-24T05:29:55Z</time><name>625</name><sym>Flag, Blue</sym></wpt><wpt lat="10.327696" lon="123.937808"><ele>19.952141</ele><time>2024-07-24T05:31:05Z</time><name>626</name><sym>Flag, Blue</sym></wpt><wpt lat="10.327686" lon="123.937821"><ele>19.652512</ele><time>2024-07-24T05:32:22Z</time><name>627</name><sym>Flag, Blue</sym></wpt><wpt lat="10.327705" lon="123.937980"><ele>19.735794</ele><time>2024-07-24T05:33:06Z</time><name>628</name><sym>Flag, Blue</sym></wpt><wpt lat="10.327646" lon="123.938019"><ele>23.046860</ele><time>2024-07-24T05:34:03Z</time><name>629</name><sym>Flag, Blue</sym></wpt><wpt lat="10.327649" lon="123.938090"><ele>19.212189</ele><time>2024-07-24T05:35:04Z</time><name>630</name><sym>Flag, Blue</sym></wpt><wpt lat="10.327640" lon="123.938235"><ele>18.987286</ele><time>2024-07-24T05:36:08Z</time><name>631</name><sym>Flag, Blue</sym></wpt><wpt lat="10.327847" lon="123.938208"><ele>13.005089</ele><time>2024-07-24T05:38:14Z</time><name>632</name><sym>Flag, Blue</sym></wpt><wpt lat="10.327803" lon="123.938197"><ele>14.041523</ele><time>2024-07-24T05:39:17Z</time><name>633</name><sym>Flag, Blue</sym></wpt><wpt lat="10.327896" lon="123.938167"><ele>14.285244</ele><time>2024-07-24T05:40:01Z</time><name>634</name><sym>Flag, Blue</sym></wpt><wpt lat="10.327930" lon="123.938142"><ele>16.886089</ele><time>2024-07-24T05:40:50Z</time><name>635</name><sym>Flag, Blue</sym></wpt><wpt lat="10.327978" lon="123.938040"><ele>18.525822</ele><time>2024-07-24T05:41:38Z</time><name>636</name><sym>Flag, Blue</sym></wpt><wpt lat="10.328010" lon="123.938018"><ele>19.980885</ele><time>2024-07-24T05:43:01Z</time><name>637</name><sym>Flag, Blue</sym></wpt><wpt lat="10.327993" lon="123.937942"><ele>16.291599</ele><time>2024-07-24T05:44:35Z</time><name>638</name><sym>Flag, Blue</sym></wpt><wpt lat="10.328231" lon="123.937713"><ele>12.438183</ele><time>2024-07-24T05:46:41Z</time><name>639</name><sym>Flag, Blue</sym></wpt><wpt lat="10.328304" lon="123.937724"><ele>12.705372</ele><time>2024-07-24T05:47:25Z</time><name>640</name><sym>Flag, Blue</sym></wpt><wpt lat="10.328385" lon="123.937503"><ele>11.511589</ele><time>2024-07-24T05:48:43Z</time><name>641</name><sym>Flag, Blue</sym></wpt><wpt lat="10.328553" lon="123.937328"><ele>11.962124</ele><time>2024-07-24T05:49:47Z</time><name>642</name><sym>Flag, Blue</sym></wpt><wpt lat="10.328503" lon="123.937295"><ele>17.226151</ele><time>2024-07-24T05:50:57Z</time><name>643</name><sym>Flag, Blue</sym></wpt><wpt lat="10.328535" lon="123.937223"><ele>9.697182</ele><time>2024-07-24T05:52:31Z</time><name>644</name><sym>Flag, Blue</sym></wpt><wpt lat="10.328552" lon="123.937202"><ele>15.349823</ele><time>2024-07-24T05:54:18Z</time><name>645</name><sym>Flag, Blue</sym></wpt><wpt lat="10.328551" lon="123.937228"><ele>18.377930</ele><time>2024-07-24T05:54:35Z</time><name>646</name><sym>Flag, Blue</sym></wpt><wpt lat="10.328561" lon="123.937228"><ele>18.612679</ele><time>2024-07-24T05:54:52Z</time><name>647</name><sym>Flag, Blue</sym></wpt><wpt lat="10.328547" lon="123.937237"><ele>20.026421</ele><time>2024-07-24T05:55:27Z</time><name>648</name><sym>Flag, Blue</sym></wpt><wpt lat="10.328614" lon="123.937146"><ele>19.125946</ele><time>2024-07-24T05:56:38Z</time><name>649</name><sym>Flag, Blue</sym></wpt><wpt lat="10.328627" lon="123.937066"><ele>13.319664</ele><time>2024-07-24T06:00:11Z</time><name>650</name><sym>Flag, Blue</sym></wpt><wpt lat="10.328786" lon="123.937068"><ele>12.221344</ele><time>2024-07-24T06:01:36Z</time><name>651</name><sym>Flag, Blue</sym></wpt><wpt lat="10.328752" lon="123.937121"><ele>21.394543</ele><time>2024-07-24T06:03:03Z</time><name>652</name><sym>Flag, Blue</sym></wpt><wpt lat="10.328749" lon="123.937107"><ele>20.114559</ele><time>2024-07-24T06:03:25Z</time><name>653</name><sym>Flag, Blue</sym></wpt><wpt lat="10.328793" lon="123.937111"><ele>19.288891</ele><time>2024-07-24T06:03:50Z</time><name>654</name><sym>Flag, Blue</sym></wpt><wpt lat="10.328821" lon="123.937126"><ele>24.892666</ele><time>2024-07-24T06:04:19Z</time><name>655</name><sym>Flag, Blue</sym></wpt><wpt lat="10.328831" lon="123.937135"><ele>24.174767</ele><time>2024-07-24T06:05:17Z</time><name>656</name><sym>Flag, Blue</sym></wpt><wpt lat="10.328824" lon="123.937156"><ele>20.023582</ele><time>2024-07-24T06:05:40Z</time><name>657</name><sym>Flag, Blue</sym></wpt><wpt lat="10.328816" lon="123.937178"><ele>19.799728</ele><time>2024-07-24T06:06:08Z</time><name>658</name><sym>Flag, Blue</sym></wpt><wpt lat="10.328952" lon="123.937192"><ele>18.245022</ele><time>2024-07-24T06:07:44Z</time><name>659</name><sym>Flag, Blue</sym></wpt><wpt lat="10.328966" lon="123.937204"><ele>16.438904</ele><time>2024-07-24T06:08:50Z</time><name>660</name><sym>Flag, Blue</sym></wpt><wpt lat="10.328971" lon="123.937266"><ele>18.704388</ele><time>2024-07-24T06:09:51Z</time><name>661</name><sym>Flag, Blue</sym></wpt><wpt lat="10.329000" lon="123.937251"><ele>16.817455</ele><time>2024-07-24T06:10:24Z</time><name>662</name><sym>Flag, Blue</sym></wpt><wpt lat="10.329017" lon="123.937236"><ele>16.730255</ele><time>2024-07-24T06:11:35Z</time><name>663</name><sym>Flag, Blue</sym></wpt><wpt lat="10.329105" lon="123.937268"><ele>21.527565</ele><time>2024-07-24T06:12:41Z</time><name>664</name><sym>Flag, Blue</sym></wpt><wpt lat="10.329177" lon="123.937293"><ele>16.488716</ele><time>2024-07-24T06:13:52Z</time><name>665</name><sym>Flag, Blue</sym></wpt><wpt lat="10.329466" lon="123.937416"><ele>13.344059</ele><time>2024-07-24T06:15:37Z</time><name>666</name><sym>Flag, Blue</sym></wpt><wpt lat="10.329854" lon="123.937493"><ele>18.126152</ele><time>2024-07-24T06:17:06Z</time><name>667</name><sym>Flag, Blue</sym></wpt><wpt lat="10.329891" lon="123.937495"><ele>20.227798</ele><time>2024-07-24T06:17:40Z</time><name>668</name><sym>Flag, Blue</sym></wpt><wpt lat="10.330118" lon="123.937588"><ele>21.246540</ele><time>2024-07-24T06:18:35Z</time><name>669</name><sym>Flag, Blue</sym></wpt><wpt lat="10.330112" lon="123.938246"><ele>19.222496</ele><time>2024-07-24T06:20:52Z</time><name>670</name><sym>Flag, Blue</sym></wpt><wpt lat="10.329988" lon="123.938899"><ele>19.089382</ele><time>2024-07-24T06:23:48Z</time><name>671</name><sym>Flag, Blue</sym></wpt></gpx>