<?xml version="1.0" encoding="UTF-8" standalone="no" ?><gpx xmlns="http://www.topografix.com/GPX/1/1" xmlns:gpxx="http://www.garmin.com/xmlschemas/GpxExtensions/v3" xmlns:wptx1="http://www.garmin.com/xmlschemas/WaypointExtension/v1" xmlns:gpxtpx="http://www.garmin.com/xmlschemas/TrackPointExtension/v1" creator="eTrex 22x" version="1.1" xmlns:xsi="http://www.w3.org/2001/XMLSchema-instance" xsi:schemaLocation="http://www.topografix.com/GPX/1/1 http://www.topografix.com/GPX/1/1/gpx.xsd http://www.garmin.com/xmlschemas/GpxExtensions/v3 http://www8.garmin.com/xmlschemas/GpxExtensionsv3.xsd http://www.garmin.com/xmlschemas/TrackStatsExtension/v1 http://www8.garmin.com/xmlschemas/TrackStatsExtension.xsd http://www.garmin.com/xmlschemas/WaypointExtension/v1 http://www8.garmin.com/xmlschemas/WaypointExtensionv1.xsd http://www.garmin.com/xmlschemas/TrackPointExtension/v1 http://www.garmin.com/xmlschemas/TrackPointExtensionv1.xsd"><metadata><link href="http://www.garmin.com"><text>Garmin International</text></link><time>2024-07-23T02:22:32Z</time></metadata><wpt lat="10.331474" lon="123.939511"><ele>19.632519</ele><time>2024-07-23T02:22:32Z</time><name>382</name><sym>Flag, Blue</sym></wpt><wpt lat="10.331457" lon="123.939522"><ele>18.749382</ele><time>2024-07-23T02:22:46Z</time><name>383</name><sym>Flag, Blue</sym></wpt><wpt lat="10.331565" lon="123.939558"><ele>21.056232</ele><time>2024-07-23T02:23:40Z</time><name>384</name><sym>Flag, Blue</sym></wpt><wpt lat="10.331575" lon="123.939596"><ele>22.439583</ele><time>2024-07-23T02:23:59Z</time><name>385</name><sym>Flag, Blue</sym></wpt><wpt lat="10.331515" lon="123.939596"><ele>26.729137</ele><time>2024-07-23T02:24:20Z</time><name>386</name><sym>Flag, Blue</sym></wpt><wpt lat="10.331573" lon="123.939626"><ele>23.586283</ele><time>2024-07-23T02:24:45Z</time><name>387</name><sym>Flag, Blue</sym></wpt><wpt lat="10.331764" lon="123.939736"><ele>16.627651</ele><time>2024-07-23T02:25:37Z</time><name>388</name><sym>Flag, Blue</sym></wpt><wpt lat="10.331800" lon="123.939760"><ele>12.981790</ele><time>2024-07-23T02:26:04Z</time><name>389</name><sym>Flag, Blue</sym></wpt><wpt lat="10.331887" lon="123.939849"><ele>11.164121</ele><time>2024-07-23T02:26:41Z</time><name>390</name><sym>Flag, Blue</sym></wpt><wpt lat="10.331992" lon="123.939920"><ele>6.090030</ele><time>2024-07-23T02:27:12Z</time><name>391</name><sym>Flag, Blue</sym></wpt><wpt lat="10.332259" lon="123.940068"><ele>11.869515</ele><time>2024-07-23T02:28:00Z</time><name>392</name><sym>Flag, Blue</sym></wpt><wpt lat="10.332347" lon="123.940108"><ele>15.244055</ele><time>2024-07-23T02:28:43Z</time><name>393</name><sym>Flag, Blue</sym></wpt><wpt lat="10.332490" lon="123.940200"><ele>18.557137</ele><time>2024-07-23T02:30:18Z</time><name>394</name><sym>Flag, Blue</sym></wpt><wpt lat="10.332592" lon="123.940266"><ele>17.021919</ele><time>2024-07-23T02:30:47Z</time><name>395</name><sym>Flag, Blue</sym></wpt><wpt lat="10.332596" lon="123.940294"><ele>15.425247</ele><time>2024-07-23T02:30:58Z</time><name>396</name><sym>Flag, Blue</sym></wpt><wpt lat="10.332647" lon="123.940323"><ele>14.455910</ele><time>2024-07-23T02:31:14Z</time><name>397</name><sym>Flag, Blue</sym></wpt><wpt lat="10.332720" lon="123.940360"><ele>15.669435</ele><time>2024-07-23T02:31:52Z</time><name>398</name><sym>Flag, Blue</sym></wpt><wpt lat="10.332779" lon="123.940394"><ele>14.029705</ele><time>2024-07-23T02:32:16Z</time><name>399</name><sym>Flag, Blue</sym></wpt><wpt lat="10.332947" lon="123.940515"><ele>17.041798</ele><time>2024-07-23T02:32:57Z</time><name>400</name><sym>Flag, Blue</sym></wpt><wpt lat="10.332985" lon="123.940530"><ele>17.473181</ele><time>2024-07-23T02:33:16Z</time><name>401</name><sym>Flag, Blue</sym></wpt><wpt lat="10.333039" lon="123.940566"><ele>18.159863</ele><time>2024-07-23T02:33:38Z</time><name>402</name><sym>Flag, Blue</sym></wpt><wpt lat="10.332898" lon="123.940665"><ele>21.292740</ele><time>2024-07-23T02:34:40Z</time><name>403</name><sym>Flag, Blue</sym></wpt><wpt lat="10.332912" lon="123.940715"><ele>21.741631</ele><time>2024-07-23T02:35:07Z</time><name>404</name><sym>Flag, Blue</sym></wpt><wpt lat="10.332923" lon="123.940725"><ele>22.879036</ele><time>2024-07-23T02:35:17Z</time><name>405</name><sym>Flag, Blue</sym></wpt><wpt lat="10.332462" lon="123.941195"><ele>24.788803</ele><time>2024-07-23T02:40:08Z</time><name>406</name><sym>Flag, Blue</sym></wpt><wpt lat="10.333091" lon="123.940524"><ele>23.725830</ele><time>2024-07-23T02:42:56Z</time><name>407</name><sym>Flag, Blue</sym></wpt><wpt lat="10.333408" lon="123.940132"><ele>21.641188</ele><time>2024-07-23T02:44:03Z</time><name>408</name><sym>Flag, Blue</sym></wpt><wpt lat="10.333473" lon="123.940081"><ele>23.578053</ele><time>2024-07-23T02:44:19Z</time><name>409</name><sym>Flag, Blue</sym></wpt><wpt lat="10.333497" lon="123.940048"><ele>25.737972</ele><time>2024-07-23T02:44:33Z</time><name>410</name><sym>Flag, Blue</sym></wpt><wpt lat="10.333563" lon="123.940032"><ele>25.955654</ele><time>2024-07-23T02:45:11Z</time><name>411</name><sym>Flag, Blue</sym></wpt><wpt lat="10.334241" lon="123.940434"><ele>19.108963</ele><time>2024-07-23T02:47:22Z</time><name>412</name><sym>Flag, Blue</sym></wpt><wpt lat="10.334191" lon="123.940276"><ele>20.536720</ele><time>2024-07-23T02:48:30Z</time><name>413</name><sym>Flag, Blue</sym></wpt><wpt lat="10.333741" lon="123.939961"><ele>23.527710</ele><time>2024-07-23T02:50:05Z</time><name>414</name><sym>Flag, Blue</sym></wpt><wpt lat="10.333822" lon="123.939779"><ele>24.847488</ele><time>2024-07-23T02:50:53Z</time><name>415</name><sym>Flag, Blue</sym></wpt><wpt lat="10.333833" lon="123.939740"><ele>25.418808</ele><time>2024-07-23T02:51:16Z</time><name>416</name><sym>Flag, Blue</sym></wpt><wpt lat="10.333802" lon="123.939848"><ele>22.570068</ele><time>2024-07-23T02:51:47Z</time><name>417</name><sym>Flag, Blue</sym></wpt><wpt lat="10.333812" lon="123.939838"><ele>24.586918</ele><time>2024-07-23T02:52:00Z</time><name>418</name><sym>Flag, Blue</sym></wpt><wpt lat="10.333588" lon="123.939799"><ele>24.617626</ele><time>2024-07-23T02:52:52Z</time><name>419</name><sym>Flag, Blue</sym></wpt><wpt lat="10.333537" lon="123.939776"><ele>22.986897</ele><time>2024-07-23T02:53:37Z</time><name>420</name><sym>Flag, Blue</sym></wpt><wpt lat="10.333535" lon="123.939780"><ele>23.307339</ele><time>2024-07-23T02:53:42Z</time><name>421</name><sym>Flag, Blue</sym></wpt><wpt lat="10.333353" lon="123.939550"><ele>23.576229</ele><time>2024-07-23T02:54:17Z</time><name>422</name><sym>Flag, Blue</sym></wpt><wpt lat="10.333046" lon="123.939084"><ele>33.866684</ele><time>2024-07-23T02:56:08Z</time><name>423</name><sym>Flag, Blue</sym></wpt><wpt lat="10.332989" lon="123.939127"><ele>32.765049</ele><time>2024-07-23T02:56:31Z</time><name>424</name><sym>Flag, Blue</sym></wpt><wpt lat="10.332838" lon="123.938809"><ele>25.851837</ele><time>2024-07-23T02:57:58Z</time><name>425</name><sym>Flag, Blue</sym></wpt><wpt lat="10.332837" lon="123.938794"><ele>27.068260</ele><time>2024-07-23T02:58:14Z</time><name>426</name><sym>Flag, Blue</sym></wpt><wpt lat="10.332807" lon="123.938808"><ele>28.213907</ele><time>2024-07-23T02:58:32Z</time><name>427</name><sym>Flag, Blue</sym></wpt><wpt lat="10.332159" lon="123.938176"><ele>25.535505</ele><time>2024-07-23T03:00:48Z</time><name>428</name><sym>Flag, Blue</sym></wpt><wpt lat="10.332141" lon="123.938175"><ele>25.666670</ele><time>2024-07-23T03:00:59Z</time><name>429</name><sym>Flag, Blue</sym></wpt><wpt lat="10.331466" lon="123.939163"><ele>29.329941</ele><time>2024-07-23T03:02:11Z</time><name>430</name><sym>Flag, Blue</sym></wpt><wpt lat="10.331454" lon="123.939154"><ele>27.466465</ele><time>2024-07-23T03:02:33Z</time><name>431</name><sym>Flag, Blue</sym></wpt><wpt lat="10.331372" lon="123.939270"><ele>23.389381</ele><time>2024-07-23T03:03:02Z</time><name>432</name><sym>Flag, Blue</sym></wpt><wpt lat="10.331339" lon="123.939304"><ele>25.028900</ele><time>2024-07-23T03:03:15Z</time><name>433</name><sym>Flag, Blue</sym></wpt><wpt lat="10.331315" lon="123.939346"><ele>24.888687</ele><time>2024-07-23T03:03:32Z</time><name>434</name><sym>Flag, Blue</sym></wpt><wpt lat="10.327049" lon="123.937001"><ele>20.343874</ele><time>2024-07-23T05:23:24Z</time><name>435</name><sym>Flag, Blue</sym></wpt><wpt lat="10.326954" lon="123.936801"><ele>11.926880</ele><time>2024-07-23T05:24:53Z</time><name>436</name><sym>Flag, Blue</sym></wpt><wpt lat="10.326924" lon="123.936628"><ele>8.815630</ele><time>2024-07-23T05:25:34Z</time><name>437</name><sym>Flag, Blue</sym></wpt><wpt lat="10.327042" lon="123.936517"><ele>20.829193</ele><time>2024-07-23T05:26:46Z</time><name>438</name><sym>Flag, Blue</sym></wpt><wpt lat="10.327379" lon="123.936790"><ele>17.335287</ele><time>2024-07-23T05:31:32Z</time><name>439</name><sym>Flag, Blue</sym></wpt><wpt lat="10.327323" lon="123.936879"><ele>19.253498</ele><time>2024-07-23T05:32:15Z</time><name>440</name><sym>Flag, Blue</sym></wpt><wpt lat="10.327311" lon="123.936890"><ele>20.409676</ele><time>2024-07-23T05:32:23Z</time><name>441</name><sym>Flag, Blue</sym></wpt><wpt lat="10.327139" lon="123.937029"><ele>15.689240</ele><time>2024-07-23T05:32:57Z</time><name>442</name><sym>Flag, Blue</sym></wpt><wpt lat="10.327062" lon="123.937110"><ele>16.079123</ele><time>2024-07-23T05:33:20Z</time><name>443</name><sym>Flag, Blue</sym></wpt><wpt lat="10.327025" lon="123.937153"><ele>17.317169</ele><time>2024-07-23T05:33:33Z</time><name>444</name><sym>Flag, Blue</sym></wpt><wpt lat="10.326819" lon="123.937335"><ele>21.183596</ele><time>2024-07-23T05:34:11Z</time><name>445</name><sym>Flag, Blue</sym></wpt><wpt lat="10.326746" lon="123.937378"><ele>21.459951</ele><time>2024-07-23T05:34:28Z</time><name>446</name><sym>Flag, Blue</sym></wpt><wpt lat="10.326674" lon="123.937440"><ele>22.320568</ele><time>2024-07-23T05:34:52Z</time><name>447</name><sym>Flag, Blue</sym></wpt><wpt lat="10.326663" lon="123.937455"><ele>20.929338</ele><time>2024-07-23T05:35:01Z</time><name>448</name><sym>Flag, Blue</sym></wpt><wpt lat="10.326655" lon="123.937453"><ele>21.383430</ele><time>2024-07-23T05:35:10Z</time><name>449</name><sym>Flag, Blue</sym></wpt><wpt lat="10.326620" lon="123.937480"><ele>21.455120</ele><time>2024-07-23T05:35:24Z</time><name>450</name><sym>Flag, Blue</sym></wpt><wpt lat="10.326616" lon="123.937485"><ele>20.710865</ele><time>2024-07-23T05:35:31Z</time><name>451</name><sym>Flag, Blue</sym></wpt><wpt lat="10.326601" lon="123.937494"><ele>20.529070</ele><time>2024-07-23T05:35:38Z</time><name>452</name><sym>Flag, Blue</sym></wpt><wpt lat="10.326594" lon="123.937504"><ele>20.048635</ele><time>2024-07-23T05:35:43Z</time><name>453</name><sym>Flag, Blue</sym></wpt><wpt lat="10.326581" lon="123.937515"><ele>20.003712</ele><time>2024-07-23T05:35:50Z</time><name>454</name><sym>Flag, Blue</sym></wpt><wpt lat="10.326575" lon="123.937524"><ele>19.720058</ele><time>2024-07-23T05:35:55Z</time><name>455</name><sym>Flag, Blue</sym></wpt><wpt lat="10.326558" lon="123.937521"><ele>20.444767</ele><time>2024-07-23T05:36:06Z</time><name>456</name><sym>Flag, Blue</sym></wpt><wpt lat="10.326552" lon="123.937532"><ele>21.312624</ele><time>2024-07-23T05:36:41Z</time><name>457</name><sym>Flag, Blue</sym></wpt><wpt lat="10.326507" lon="123.937570"><ele>20.991510</ele><time>2024-07-23T05:36:59Z</time><name>458</name><sym>Flag, Blue</sym></wpt><wpt lat="10.326506" lon="123.937555"><ele>20.010780</ele><time>2024-07-23T05:37:18Z</time><name>459</name><sym>Flag, Blue</sym></wpt><wpt lat="10.326489" lon="123.937566"><ele>18.987373</ele><time>2024-07-23T05:37:23Z</time><name>460</name><sym>Flag, Blue</sym></wpt><wpt lat="10.326437" lon="123.937606"><ele>18.717453</ele><time>2024-07-23T05:37:39Z</time><name>461</name><sym>Flag, Blue</sym></wpt><wpt lat="10.326366" lon="123.937670"><ele>16.702833</ele><time>2024-07-23T05:38:06Z</time><name>462</name><sym>Flag, Blue</sym></wpt><wpt lat="10.326338" lon="123.937712"><ele>18.175049</ele><time>2024-07-23T05:38:16Z</time><name>463</name><sym>Flag, Blue</sym></wpt><wpt lat="10.326314" lon="123.937723"><ele>18.403370</ele><time>2024-07-23T05:38:23Z</time><name>464</name><sym>Flag, Blue</sym></wpt><wpt lat="10.326291" lon="123.937724"><ele>17.429203</ele><time>2024-07-23T05:38:43Z</time><name>465</name><sym>Flag, Blue</sym></wpt><wpt lat="10.326278" lon="123.937743"><ele>17.595919</ele><time>2024-07-23T05:38:52Z</time><name>466</name><sym>Flag, Blue</sym></wpt><wpt lat="10.326197" lon="123.937808"><ele>18.739418</ele><time>2024-07-23T05:39:08Z</time><name>467</name><sym>Flag, Blue</sym></wpt><wpt lat="10.326156" lon="123.937849"><ele>16.816442</ele><time>2024-07-23T05:39:30Z</time><name>468</name><sym>Flag, Blue</sym></wpt><wpt lat="10.326160" lon="123.937984"><ele>21.297874</ele><time>2024-07-23T05:40:38Z</time><name>469</name><sym>Flag, Blue</sym></wpt><wpt lat="10.326284" lon="123.937873"><ele>21.028318</ele><time>2024-07-23T05:42:15Z</time><name>470</name><sym>Flag, Blue</sym></wpt><wpt lat="10.326309" lon="123.937865"><ele>20.412025</ele><time>2024-07-23T05:42:21Z</time><name>471</name><sym>Flag, Blue</sym></wpt><wpt lat="10.326324" lon="123.937854"><ele>21.138386</ele><time>2024-07-23T05:42:27Z</time><name>472</name><sym>Flag, Blue</sym></wpt><wpt lat="10.326346" lon="123.937837"><ele>21.660053</ele><time>2024-07-23T05:42:33Z</time><name>473</name><sym>Flag, Blue</sym></wpt><wpt lat="10.326385" lon="123.937790"><ele>19.775763</ele><time>2024-07-23T05:42:47Z</time><name>474</name><sym>Flag, Blue</sym></wpt><wpt lat="10.326405" lon="123.937780"><ele>18.878962</ele><time>2024-07-23T05:42:54Z</time><name>475</name><sym>Flag, Blue</sym></wpt><wpt lat="10.326442" lon="123.937751"><ele>19.298941</ele><time>2024-07-23T05:43:16Z</time><name>476</name><sym>Flag, Blue</sym></wpt><wpt lat="10.326567" lon="123.937665"><ele>19.168474</ele><time>2024-07-23T05:43:43Z</time><name>477</name><sym>Flag, Blue</sym></wpt><wpt lat="10.326647" lon="123.937592"><ele>18.431252</ele><time>2024-07-23T05:44:02Z</time><name>478</name><sym>Flag, Blue</sym></wpt><wpt lat="10.326671" lon="123.937595"><ele>18.474411</ele><time>2024-07-23T05:44:24Z</time><name>479</name><sym>Flag, Blue</sym></wpt><wpt lat="10.326663" lon="123.937597"><ele>19.615677</ele><time>2024-07-23T05:44:29Z</time><name>480</name><sym>Flag, Blue</sym></wpt><wpt lat="10.326723" lon="123.937521"><ele>22.293438</ele><time>2024-07-23T05:44:45Z</time><name>481</name><sym>Flag, Blue</sym></wpt><wpt lat="10.326738" lon="123.937517"><ele>23.301079</ele><time>2024-07-23T05:44:53Z</time><name>482</name><sym>Flag, Blue</sym></wpt><wpt lat="10.326781" lon="123.937496"><ele>22.052250</ele><time>2024-07-23T05:45:05Z</time><name>483</name><sym>Flag, Blue</sym></wpt><wpt lat="10.326831" lon="123.937455"><ele>24.137117</ele><time>2024-07-23T05:45:16Z</time><name>484</name><sym>Flag, Blue</sym></wpt><wpt lat="10.326847" lon="123.937435"><ele>23.638248</ele><time>2024-07-23T05:45:24Z</time><name>485</name><sym>Flag, Blue</sym></wpt><wpt lat="10.326876" lon="123.937405"><ele>24.142462</ele><time>2024-07-23T05:45:33Z</time><name>486</name><sym>Flag, Blue</sym></wpt><wpt lat="10.326896" lon="123.937391"><ele>23.657497</ele><time>2024-07-23T05:45:46Z</time><name>487</name><sym>Flag, Blue</sym></wpt><wpt lat="10.326948" lon="123.937357"><ele>23.167187</ele><time>2024-07-23T05:46:04Z</time><name>488</name><sym>Flag, Blue</sym></wpt><wpt lat="10.326960" lon="123.937342"><ele>23.425617</ele><time>2024-07-23T05:46:08Z</time><name>489</name><sym>Flag, Blue</sym></wpt><wpt lat="10.327014" lon="123.937306"><ele>22.903687</ele><time>2024-07-23T05:46:22Z</time><name>490</name><sym>Flag, Blue</sym></wpt><wpt lat="10.327030" lon="123.937298"><ele>22.416115</ele><time>2024-07-23T05:46:30Z</time><name>491</name><sym>Flag, Blue</sym></wpt><wpt lat="10.327067" lon="123.937263"><ele>23.193443</ele><time>2024-07-23T05:46:49Z</time><name>492</name><sym>Flag, Blue</sym></wpt><wpt lat="10.327094" lon="123.937247"><ele>23.481827</ele><time>2024-07-23T05:46:58Z</time><name>493</name><sym>Flag, Blue</sym></wpt><wpt lat="10.327107" lon="123.937234"><ele>22.819695</ele><time>2024-07-23T05:47:09Z</time><name>494</name><sym>Flag, Blue</sym></wpt><wpt lat="10.327163" lon="123.937174"><ele>20.686760</ele><time>2024-07-23T05:47:27Z</time><name>495</name><sym>Flag, Blue</sym></wpt><wpt lat="10.327282" lon="123.937086"><ele>19.986519</ele><time>2024-07-23T05:47:44Z</time><name>496</name><sym>Flag, Blue</sym></wpt><wpt lat="10.327294" lon="123.937064"><ele>19.809315</ele><time>2024-07-23T05:47:53Z</time><name>497</name><sym>Flag, Blue</sym></wpt><wpt lat="10.327330" lon="123.937040"><ele>19.300972</ele><time>2024-07-23T05:48:14Z</time><name>498</name><sym>Flag, Blue</sym></wpt><wpt lat="10.327343" lon="123.937016"><ele>19.420906</ele><time>2024-07-23T05:48:39Z</time><name>499</name><sym>Flag, Blue</sym></wpt><wpt lat="10.327405" lon="123.936997"><ele>18.662647</ele><time>2024-07-23T05:48:58Z</time><name>500</name><sym>Flag, Blue</sym></wpt><wpt lat="10.327382" lon="123.936961"><ele>16.382328</ele><time>2024-07-23T05:49:14Z</time><name>501</name><sym>Flag, Blue</sym></wpt><wpt lat="10.327462" lon="123.936894"><ele>19.354004</ele><time>2024-07-23T05:49:56Z</time><name>502</name><sym>Flag, Blue</sym></wpt><wpt lat="10.327481" lon="123.936796"><ele>15.165936</ele><time>2024-07-23T05:50:28Z</time><name>503</name><sym>Flag, Blue</sym></wpt><wpt lat="10.327510" lon="123.936757"><ele>15.957191</ele><time>2024-07-23T05:50:40Z</time><name>504</name><sym>Flag, Blue</sym></wpt><wpt lat="10.327541" lon="123.936715"><ele>16.180593</ele><time>2024-07-23T05:50:53Z</time><name>505</name><sym>Flag, Blue</sym></wpt><wpt lat="10.327537" lon="123.936206"><ele>19.536673</ele><time>2024-07-23T05:52:15Z</time><name>506</name><sym>Flag, Blue</sym></wpt><wpt lat="10.327556" lon="123.936066"><ele>20.772017</ele><time>2024-07-23T05:52:32Z</time><name>507</name><sym>Flag, Blue</sym></wpt><wpt lat="10.327531" lon="123.935907"><ele>20.200832</ele><time>2024-07-23T05:52:58Z</time><name>508</name><sym>Flag, Blue</sym></wpt><wpt lat="10.327525" lon="123.935867"><ele>20.624435</ele><time>2024-07-23T05:53:07Z</time><name>509</name><sym>Flag, Blue</sym></wpt><wpt lat="10.327516" lon="123.935814"><ele>21.508722</ele><time>2024-07-23T05:53:16Z</time><name>510</name><sym>Flag, Blue</sym></wpt><wpt lat="10.327502" lon="123.935755"><ele>22.938835</ele><time>2024-07-23T05:53:30Z</time><name>511</name><sym>Flag, Blue</sym></wpt><wpt lat="10.327556" lon="123.935624"><ele>21.515747</ele><time>2024-07-23T05:54:18Z</time><name>512</name><sym>Flag, Blue</sym></wpt><wpt lat="10.327546" lon="123.935580"><ele>23.309269</ele><time>2024-07-23T05:54:29Z</time><name>513</name><sym>Flag, Blue</sym></wpt><wpt lat="10.327273" lon="123.935099"><ele>24.075117</ele><time>2024-07-23T05:55:55Z</time><name>514</name><sym>Flag, Blue</sym></wpt><wpt lat="10.327211" lon="123.935269"><ele>24.094788</ele><time>2024-07-23T05:57:09Z</time><name>515</name><sym>Flag, Blue</sym></wpt><wpt lat="10.327216" lon="123.935281"><ele>23.669659</ele><time>2024-07-23T05:57:23Z</time><name>516</name><sym>Flag, Blue</sym></wpt><wpt lat="10.327220" lon="123.935270"><ele>24.681332</ele><time>2024-07-23T05:57:37Z</time><name>517</name><sym>Flag, Blue</sym></wpt><wpt lat="10.327203" lon="123.935252"><ele>25.316996</ele><time>2024-07-23T05:57:45Z</time><name>518</name><sym>Flag, Blue</sym></wpt><wpt lat="10.327164" lon="123.935181"><ele>26.307219</ele><time>2024-07-23T05:58:00Z</time><name>519</name><sym>Flag, Blue</sym></wpt><wpt lat="10.327101" lon="123.935107"><ele>28.568268</ele><time>2024-07-23T05:58:17Z</time><name>520</name><sym>Flag, Blue</sym></wpt><wpt lat="10.327041" lon="123.935031"><ele>29.426329</ele><time>2024-07-23T05:58:30Z</time><name>521</name><sym>Flag, Blue</sym></wpt><wpt lat="10.326972" lon="123.934955"><ele>28.070900</ele><time>2024-07-23T05:58:42Z</time><name>522</name><sym>Flag, Blue</sym></wpt><wpt lat="10.326930" lon="123.934907"><ele>25.851601</ele><time>2024-07-23T05:58:51Z</time><name>523</name><sym>Flag, Blue</sym></wpt><wpt lat="10.326924" lon="123.934894"><ele>26.074135</ele><time>2024-07-23T05:59:00Z</time><name>524</name><sym>Flag, Blue</sym></wpt><wpt lat="10.326911" lon="123.934878"><ele>25.973152</ele><time>2024-07-23T05:59:07Z</time><name>525</name><sym>Flag, Blue</sym></wpt><wpt lat="10.326989" lon="123.934818"><ele>20.189924</ele><time>2024-07-23T06:00:04Z</time><name>526</name><sym>Flag, Blue</sym></wpt><wpt lat="10.327009" lon="123.934838"><ele>19.141171</ele><time>2024-07-23T06:00:21Z</time><name>527</name><sym>Flag, Blue</sym></wpt><wpt lat="10.326977" lon="123.934816"><ele>21.005848</ele><time>2024-07-23T06:00:42Z</time><name>528</name><sym>Flag, Blue</sym></wpt><wpt lat="10.326977" lon="123.934811"><ele>20.725971</ele><time>2024-07-23T06:00:47Z</time><name>529</name><sym>Flag, Blue</sym></wpt><wpt lat="10.326950" lon="123.934793"><ele>21.290331</ele><time>2024-07-23T06:00:59Z</time><name>530</name><sym>Flag, Blue</sym></wpt><wpt lat="10.326952" lon="123.934786"><ele>21.234829</ele><time>2024-07-23T06:01:05Z</time><name>531</name><sym>Flag, Blue</sym></wpt><wpt lat="10.326947" lon="123.934775"><ele>21.183376</ele><time>2024-07-23T06:01:09Z</time><name>532</name><sym>Flag, Blue</sym></wpt><wpt lat="10.326936" lon="123.934768"><ele>21.570004</ele><time>2024-07-23T06:01:13Z</time><name>533</name><sym>Flag, Blue</sym></wpt><wpt lat="10.326905" lon="123.934759"><ele>22.193584</ele><time>2024-07-23T06:01:19Z</time><name>534</name><sym>Flag, Blue</sym></wpt><wpt lat="10.326932" lon="123.934747"><ele>24.524284</ele><time>2024-07-23T06:01:58Z</time><name>535</name><sym>Flag, Blue</sym></wpt><wpt lat="10.326903" lon="123.934731"><ele>23.574821</ele><time>2024-07-23T06:02:23Z</time><name>536</name><sym>Flag, Blue</sym></wpt><wpt lat="10.326894" lon="123.934721"><ele>23.425299</ele><time>2024-07-23T06:02:27Z</time><name>537</name><sym>Flag, Blue</sym></wpt><wpt lat="10.326896" lon="123.934608"><ele>23.488770</ele><time>2024-07-23T06:03:10Z</time><name>538</name><sym>Flag, Blue</sym></wpt><wpt lat="10.327107" lon="123.934838"><ele>19.252638</ele><time>2024-07-23T06:05:02Z</time><name>539</name><sym>Flag, Blue</sym></wpt><wpt lat="10.327106" lon="123.934828"><ele>21.495823</ele><time>2024-07-23T06:05:17Z</time><name>540</name><sym>Flag, Blue</sym></wpt><wpt lat="10.327080" lon="123.934802"><ele>23.620417</ele><time>2024-07-23T06:05:27Z</time><name>541</name><sym>Flag, Blue</sym></wpt><wpt lat="10.327078" lon="123.934607"><ele>29.415989</ele><time>2024-07-23T06:06:49Z</time><name>542</name><sym>Flag, Blue</sym></wpt><wpt lat="10.327067" lon="123.934556"><ele>26.216419</ele><time>2024-07-23T06:07:09Z</time><name>543</name><sym>Flag, Blue</sym></wpt><wpt lat="10.327061" lon="123.934558"><ele>23.934452</ele><time>2024-07-23T06:07:16Z</time><name>544</name><sym>Flag, Blue</sym></wpt><wpt lat="10.327234" lon="123.934470"><ele>27.589111</ele><time>2024-07-23T06:08:07Z</time><name>545</name><sym>Flag, Blue</sym></wpt><wpt lat="10.327301" lon="123.934394"><ele>28.982998</ele><time>2024-07-23T06:08:49Z</time><name>546</name><sym>Flag, Blue</sym></wpt><wpt lat="10.327376" lon="123.934308"><ele>32.402912</ele><time>2024-07-23T06:09:39Z</time><name>547</name><sym>Flag, Blue</sym></wpt><wpt lat="10.327502" lon="123.934243"><ele>26.510296</ele><time>2024-07-23T06:10:30Z</time><name>548</name><sym>Flag, Blue</sym></wpt><wpt lat="10.327568" lon="123.934186"><ele>21.408697</ele><time>2024-07-23T06:10:55Z</time><name>549</name><sym>Flag, Blue</sym></wpt><wpt lat="10.327589" lon="123.934169"><ele>22.665306</ele><time>2024-07-23T06:11:16Z</time><name>550</name><sym>Flag, Blue</sym></wpt><wpt lat="10.327581" lon="123.934199"><ele>26.051922</ele><time>2024-07-23T06:11:39Z</time><name>551</name><sym>Flag, Blue</sym></wpt><wpt lat="10.327611" lon="123.934218"><ele>26.997158</ele><time>2024-07-23T06:11:57Z</time><name>552</name><sym>Flag, Blue</sym></wpt><wpt lat="10.327636" lon="123.934238"><ele>27.266277</ele><time>2024-07-23T06:12:07Z</time><name>553</name><sym>Flag, Blue</sym></wpt><wpt lat="10.327639" lon="123.934250"><ele>27.523579</ele><time>2024-07-23T06:12:14Z</time><name>554</name><sym>Flag, Blue</sym></wpt><wpt lat="10.327658" lon="123.934285"><ele>29.681290</ele><time>2024-07-23T06:12:45Z</time><name>555</name><sym>Flag, Blue</sym></wpt><wpt lat="10.327675" lon="123.934290"><ele>29.656471</ele><time>2024-07-23T06:12:59Z</time><name>556</name><sym>Flag, Blue</sym></wpt><wpt lat="10.327665" lon="123.934315"><ele>27.721970</ele><time>2024-07-23T06:14:04Z</time><name>557</name><sym>Flag, Blue</sym></wpt><wpt lat="10.327680" lon="123.934307"><ele>30.820084</ele><time>2024-07-23T06:14:14Z</time><name>558</name><sym>Flag, Blue</sym></wpt><wpt lat="10.327729" lon="123.934329"><ele>32.044891</ele><time>2024-07-23T06:14:37Z</time><name>559</name><sym>Flag, Blue</sym></wpt><wpt lat="10.327005" lon="123.934503"><ele>34.503868</ele><time>2024-07-23T06:16:52Z</time><name>560</name><sym>Flag, Blue</sym></wpt><wpt lat="10.326994" lon="123.934519"><ele>35.078865</ele><time>2024-07-23T06:16:58Z</time><name>561</name><sym>Flag, Blue</sym></wpt><wpt lat="10.327006" lon="123.934513"><ele>33.872189</ele><time>2024-07-23T06:17:13Z</time><name>562</name><sym>Flag, Blue</sym></wpt><wpt lat="10.327032" lon="123.934464"><ele>30.916466</ele><time>2024-07-23T06:17:27Z</time><name>563</name><sym>Flag, Blue</sym></wpt><wpt lat="10.327053" lon="123.934464"><ele>28.950367</ele><time>2024-07-23T06:17:40Z</time><name>564</name><sym>Flag, Blue</sym></wpt><wpt lat="10.327085" lon="123.934432"><ele>27.883171</ele><time>2024-07-23T06:17:50Z</time><name>565</name><sym>Flag, Blue</sym></wpt><wpt lat="10.327140" lon="123.934414"><ele>27.921446</ele><time>2024-07-23T06:17:57Z</time><name>566</name><sym>Flag, Blue</sym></wpt><wpt lat="10.327153" lon="123.934401"><ele>28.135128</ele><time>2024-07-23T06:18:04Z</time><name>567</name><sym>Flag, Blue</sym></wpt><wpt lat="10.327218" lon="123.934370"><ele>29.394863</ele><time>2024-07-23T06:18:22Z</time><name>568</name><sym>Flag, Blue</sym></wpt><wpt lat="10.327238" lon="123.934346"><ele>29.669956</ele><time>2024-07-23T06:18:34Z</time><name>569</name><sym>Flag, Blue</sym></wpt><wpt lat="10.327268" lon="123.934314"><ele>29.501137</ele><time>2024-07-23T06:18:42Z</time><name>570</name><sym>Flag, Blue</sym></wpt><wpt lat="10.327320" lon="123.934293"><ele>28.793537</ele><time>2024-07-23T06:19:01Z</time><name>571</name><sym>Flag, Blue</sym></wpt><wpt lat="10.327345" lon="123.934277"><ele>28.669601</ele><time>2024-07-23T06:19:22Z</time><name>572</name><sym>Flag, Blue</sym></wpt><wpt lat="10.327377" lon="123.934249"><ele>25.097841</ele><time>2024-07-23T06:19:37Z</time><name>573</name><sym>Flag, Blue</sym></wpt><wpt lat="10.327382" lon="123.934246"><ele>25.090668</ele><time>2024-07-23T06:19:43Z</time><name>574</name><sym>Flag, Blue</sym></wpt><wpt lat="10.327467" lon="123.934181"><ele>20.934519</ele><time>2024-07-23T06:20:12Z</time><name>575</name><sym>Flag, Blue</sym></wpt><wpt lat="10.327504" lon="123.934142"><ele>23.854860</ele><time>2024-07-23T06:20:29Z</time><name>576</name><sym>Flag, Blue</sym></wpt><wpt lat="10.327516" lon="123.934132"><ele>23.872459</ele><time>2024-07-23T06:20:36Z</time><name>577</name><sym>Flag, Blue</sym></wpt><wpt lat="10.327462" lon="123.934130"><time>2024-07-23T06:27:52Z</time><name>578</name><sym>Flag, Blue</sym></wpt><wpt lat="10.330928" lon="123.934702"><ele>76.379822</ele><time>2024-07-23T06:27:58Z</time><name>579</name><sym>Flag, Blue</sym></wpt><wpt lat="10.330995" lon="123.934690"><ele>52.961758</ele><time>2024-07-23T06:28:03Z</time><name>580</name><sym>Flag, Blue</sym></wpt><wpt lat="10.330994" lon="123.934690"><ele>48.636929</ele><time>2024-07-23T06:28:06Z</time><name>581</name><sym>Flag, Blue</sym></wpt><wpt lat="10.331066" lon="123.934789"><ele>37.049610</ele><time>2024-07-23T06:28:29Z</time><name>582</name><sym>Flag, Blue</sym></wpt><wpt lat="10.331102" lon="123.934807"><ele>35.876762</ele><time>2024-07-23T06:28:36Z</time><name>583</name><sym>Flag, Blue</sym></wpt><wpt lat="10.331126" lon="123.934836"><ele>34.246620</ele><time>2024-07-23T06:28:48Z</time><name>584</name><sym>Flag, Blue</sym></wpt><wpt lat="10.331178" lon="123.934838"><ele>33.412239</ele><time>2024-07-23T06:29:02Z</time><name>585</name><sym>Flag, Blue</sym></wpt><wpt lat="10.331193" lon="123.934867"><ele>33.888809</ele><time>2024-07-23T06:29:26Z</time><name>586</name><sym>Flag, Blue</sym></wpt><wpt lat="10.331210" lon="123.934858"><ele>33.521488</ele><time>2024-07-23T06:29:33Z</time><name>587</name><sym>Flag, Blue</sym></wpt><wpt lat="10.331264" lon="123.934928"><ele>32.814808</ele><time>2024-07-23T06:30:02Z</time><name>588</name><sym>Flag, Blue</sym></wpt><wpt lat="10.331285" lon="123.934941"><ele>33.885334</ele><time>2024-07-23T06:30:13Z</time><name>589</name><sym>Flag, Blue</sym></wpt><wpt lat="10.331276" lon="123.934979"><ele>35.548443</ele><time>2024-07-23T06:30:39Z</time><name>590</name><sym>Flag, Blue</sym></wpt><wpt lat="10.331223" lon="123.934935"><ele>34.944683</ele><time>2024-07-23T06:30:51Z</time><name>591</name><sym>Flag, Blue</sym></wpt><wpt lat="10.331233" lon="123.934930"><ele>34.693035</ele><time>2024-07-23T06:30:55Z</time><name>592</name><sym>Flag, Blue</sym></wpt><wpt lat="10.331167" lon="123.934883"><time>2024-07-23T06:35:32Z</time><name>593</name><sym>Flag, Blue</sym></wpt><wpt lat="10.330496" lon="123.935327"><ele>26.883827</ele><time>2024-07-23T06:39:34Z</time><name>594</name><sym>Flag, Blue</sym></wpt><wpt lat="10.330513" lon="123.935252"><ele>26.938803</ele><time>2024-07-23T06:40:18Z</time><name>595</name><sym>Flag, Blue</sym></wpt><wpt lat="10.330242" lon="123.935294"><ele>24.625023</ele><time>2024-07-23T06:41:57Z</time><name>596</name><sym>Flag, Blue</sym></wpt><wpt lat="10.330388" lon="123.936632"><ele>30.242601</ele><time>2024-07-23T06:45:16Z</time><name>597</name><sym>Flag, Blue</sym></wpt><wpt lat="10.330302" lon="123.936638"><ele>25.912151</ele><time>2024-07-23T06:45:36Z</time><name>598</name><sym>Flag, Blue</sym></wpt><wpt lat="10.330005" lon="123.936617"><ele>18.378052</ele><time>2024-07-23T06:46:29Z</time><name>599</name><sym>Flag, Blue</sym></wpt><wpt lat="10.329966" lon="123.936615"><ele>17.509705</ele><time>2024-07-23T06:46:43Z</time><name>600</name><sym>Flag, Blue</sym></wpt><wpt lat="10.329867" lon="123.936627"><ele>18.091993</ele><time>2024-07-23T06:47:05Z</time><name>601</name><sym>Flag, Blue</sym></wpt><wpt lat="10.329798" lon="123.936637"><ele>17.193991</ele><time>2024-07-23T06:47:37Z</time><name>602</name><sym>Flag, Blue</sym></wpt><wpt lat="10.329739" lon="123.936612"><ele>15.357397</ele><time>2024-07-23T06:48:02Z</time><name>603</name><sym>Flag, Blue</sym></wpt><wpt lat="10.330430" lon="123.936980"><ele>25.240261</ele><time>2024-07-23T06:50:30Z</time><name>604</name><sym>Flag, Blue</sym></wpt><wpt lat="10.330432" lon="123.937116"><ele>19.671322</ele><time>2024-07-23T06:50:57Z</time><name>605</name><sym>Flag, Blue</sym></wpt></gpx>