{"type":"FeatureCollection","features":[{"type":"Feature","properties":{"name":"LL","level":1,"LndslideSu":"LL"},"geometry":{"type":"MultiPolygon","coordinates":[[[[123.9241749236524,10.38323286382324],[123.9242403117239,10.38329079060332],[123.9243255208278,10.38335022657582],[123.9243799572679,10.38340977102679],[123.9244038384524,10.38344767000541],[123.9244334527597,10.38352087599308],[123.9244481956523,10.3836033813892],[123.9244448198755,10.38368833087851],[123.9244148496644,10.38376976771729],[123.9243884098734,10.38381889399891],[123.9243634176562,10.38385303248473],[123.9243132658133,10.3839215396302],[123.9241767815452,10.38409027388947],[123.9241219705395,10.38417099998941],[123.9240805242912,10.38424444764768],[123.9240597035425,10.38431153555277],[123.9240469057528,10.38438933460335],[123.9240470462934,10.38443718793603],[123.9240602899315,10.38451119527877],[123.9241478546941,10.3847023572294],[123.9242159456915,10.38484572238727],[123.9243132054318,10.38504642674254],[123.924390991373,10.38519933431359],[123.9244216848605,10.38525769733512],[123.9244445626741,10.38532803250445],[123.9244543629259,10.38537346518545],[123.9244578573003,10.38541125917827],[123.9244579276101,10.38543518629243],[123.9244479156956,10.38550205679641],[123.9244258715655,10.38557929106081],[123.9244091505107,10.38561381991259],[123.9243932524737,10.38563157131783],[123.9243490689695,10.38566317692778],[123.924327181128,10.38568200815253],[123.9242967873184,10.3857017157377],[123.9242678538501,10.38572476870434],[123.9242384273399,10.38574447349912],[123.9242094938633,10.38576752646106],[123.924186367604,10.38579295552151],[123.9241380021922,10.38584656703621],[123.9241110577668,10.3858741584554],[123.9240924155544,10.3858846832146],[123.9240702246378,10.38589487997546],[123.9240469993524,10.3859024626201],[123.9240358316754,10.38590458736129],[123.9240222380336,10.38590456590814],[123.9239971954368,10.3858998469335],[123.9239691567829,10.38588392305333],[123.9239187526784,10.38584551622122],[123.9239087858526,10.38583393409139],[123.9239395484957,10.38558397840839],[123.9241473372944,10.383193657449],[123.9241749236524,10.38323286382324]]],[[[123.9232044401122,10.39214864619749],[123.9232458477259,10.39221159858639],[123.9233140969032,10.392361648023],[123.9233148839261,10.39262962461823],[123.9232734225332,10.39282862399032],[123.923271985839,10.39283551901842],[123.9232213941093,10.39301447245582],[123.9231786308111,10.39294498215049],[123.9231401425606,10.39289959343824],[123.9231400729454,10.39206419361381],[123.9232044401122,10.39214864619749]]]]}},{"type":"Feature","properties":{"name":"LL","level":1,"LndslideSu":"LL"},"geometry":{"type":"MultiPolygon","coordinates":[[[[123.9336199381512,10.37525608380832],[123.933707179085,10.3753371806461],[123.9337993104514,10.37543740578202],[123.9338431792945,10.37556169664167],[123.933833839336,10.37567178706751],[123.93379558364,10.37581067264158],[123.9337670519461,10.37596867248865],[123.933738506037,10.37612188583599],[123.9336954459162,10.37627035663751],[123.9335848044824,10.37644773675628],[123.9334738924711,10.37653419508353],[123.9332557723181,10.37667637496216],[123.9330530272308,10.37676309994695],[123.9329226111325,10.37679219074322],[123.9327300248102,10.37669427188948],[123.9326766589977,10.37662743245451],[123.9326232941191,10.37656059210153],[123.9325795106044,10.37646501281606],[123.932530879301,10.37636466105396],[123.9325111913623,10.37624508452653],[123.932510794568,10.37611109599231],[123.93252485526,10.37596270948416],[123.9325631682294,10.37584296548997],[123.9325820616136,10.37569456495136],[123.9325672640329,10.37559411496268],[123.9323440098551,10.37528371554122],[123.932247230413,10.3752457140025],[123.9321553686899,10.37523641017937],[123.9320683689201,10.3752366625947],[123.9319620497205,10.37524175576335],[123.9318751481537,10.37527550549667],[123.9317979430504,10.37531879745602],[123.9317764677077,10.37533461486642],[123.9317051710845,10.37538712801731],[123.9316335956485,10.3754398464774],[123.9317220156813,10.3752947621135],[123.9318933459235,10.3749363705663],[123.9318983398578,10.37492139056338],[123.9319771853412,10.37468489676816],[123.9320368230004,10.37442152997304],[123.9321087216262,10.37421794355145],[123.9322407169904,10.37390651314838],[123.9323482971439,10.37351141032051],[123.9326130668463,10.37315174086025],[123.9328174897278,10.37281617369144],[123.933175326867,10.37248619726348],[123.9331753319704,10.37248791996937],[123.9337134941925,10.37224993799897],[123.9338873217591,10.37219200887809],[123.934090234013,10.37216270713608],[123.9343656887604,10.37214755036051],[123.9346049573696,10.37215403214096],[123.9349240818946,10.37219617188172],[123.9352285139611,10.37217375251598],[123.9354747984378,10.37210125569304],[123.9357063475431,10.37194984316057],[123.9359377907011,10.37176254034482],[123.9361185905559,10.37161127624793],[123.9365017042055,10.37122972486926],[123.936870680058,10.3709702416142],[123.9371691964613,10.37090051317917],[123.9369799139198,10.37099490577123],[123.9369221710928,10.37108121006427],[123.9369228115008,10.37129654899398],[123.9369378236032,10.37146877714066],[123.9369525795498,10.3715548700762],[123.9369093790999,10.37165548887243],[123.9367790091733,10.37169893689316],[123.9366483831065,10.37165624964982],[123.9364886712503,10.37158493421458],[123.9364281558651,10.37160510223241],[123.9363148446153,10.3716428655781],[123.9361558589775,10.37181560067979],[123.9360985414621,10.37204546356656],[123.9360846815598,10.37226084477126],[123.9360709496301,10.37251929268197],[123.9360572176994,10.37277774149437],[123.9358839021691,10.37300794313816],[123.9357969031078,10.37300819650926],[123.9355502342844,10.37295148987476],[123.9353526030116,10.37278180714245],[123.9352508626286,10.37270075291504],[123.9351780926253,10.3726100430746],[123.9350182678148,10.37250044489118],[123.9349166838325,10.37247202844989],[123.9348151424689,10.37245796785072],[123.9346991997714,10.37247744674273],[123.9346075518216,10.37253992293868],[123.9345353224276,10.37263105464104],[123.934511653231,10.37279860984897],[123.9344619697348,10.3731071103772],[123.9345219786945,10.37337080683307],[123.9346826274589,10.37375795246054],[123.9347556816682,10.37394436883168],[123.9347993517759,10.37400166577727],[123.934857649631,10.37410198815026],[123.9348725756544,10.3742455037986],[123.9348294594485,10.37437483504174],[123.9347717154608,10.37446113903618],[123.9345843027393,10.37447805414949],[123.9345262888754,10.37447343816634],[123.9344634272002,10.37446404973328],[123.9344004954547,10.37443073512656],[123.9343569105287,10.37440214987933],[123.9342891016991,10.37435449433573],[123.9342213079929,10.37431162255831],[123.9341390276792,10.37427357942282],[123.9340277484822,10.37423562056632],[123.9338876246652,10.37425038388169],[123.9338007387151,10.37428891878345],[123.9337235757952,10.37434656704544],[123.9336657747478,10.37441373029826],[123.9335984057491,10.3745144180818],[123.9335600800313,10.3746293774679],[123.9334736052647,10.37480668639668],[123.9334643919171,10.37495984446664],[123.9334840800889,10.37507942092036],[123.9335423494065,10.37517017326022],[123.9336199381512,10.37525608380832]]],[[[123.942190396819,10.37374382570842],[123.9421594087565,10.373814165423],[123.9420773654246,10.37389587645455],[123.942026944158,10.37393232431829],[123.941954549732,10.3739651605602],[123.941941737705,10.3739709721594],[123.9419306688129,10.37397722176157],[123.9418982098431,10.37399554696399],[123.9418840391521,10.37400517603256],[123.9413878893908,10.37434231386896],[123.9412674321559,10.37446828132232],[123.9411107246347,10.37459435582746],[123.9408935836202,10.37471462522022],[123.9406341501965,10.37483501830399],[123.9404956030695,10.37497300163106],[123.9403692470227,10.3751468405211],[123.9402435864477,10.37555396127306],[123.9401355516531,10.37579354432246],[123.9399611463624,10.37606322991249],[123.939908067734,10.3761368028128],[123.9398227600143,10.37625504813256],[123.9397027167727,10.37636011610679],[123.9395504674918,10.3764634406756],[123.9394411945632,10.37651454380009],[123.9394308365222,10.37651938775324],[123.9392196275832,10.37660374932297],[123.9390448116869,10.37673585704027],[123.9389606378443,10.37687368086222],[123.9389065841036,10.37698150916566],[123.9387008802797,10.37727020297124],[123.9383733385939,10.37712772549111],[123.9384503686986,10.37706843383357],[123.9385829290783,10.37694841304364],[123.9387274129588,10.37677452265933],[123.9388353956323,10.37651699492855],[123.938865265158,10.37640325619109],[123.9389253965432,10.37630737330076],[123.93900978432,10.37624132786737],[123.9391062899889,10.37618721106015],[123.9392571176809,10.37611499020295],[123.9394140408683,10.37606069665534],[123.9395769694172,10.37599442140223],[123.9397132606541,10.37593457227337],[123.9398065991901,10.37587580551392],[123.9398456616997,10.37584626125576],[123.9398825378108,10.37581313416971],[123.9399121536833,10.37577644000574],[123.9399597875882,10.37570380272599],[123.93999700838,10.3756368315914],[123.9401068245485,10.37535295009362],[123.9402684917941,10.37489775288747],[123.9403043848366,10.37477801439981],[123.9403461939277,10.3746163870714],[123.9403518072888,10.37447280997106],[123.9403203311163,10.37404820391168],[123.9403018488837,10.37392862455469],[123.9402290459848,10.37382714935151],[123.9401261064358,10.37374968863376],[123.9398258168084,10.37364969634207],[123.9394240102423,10.37371541312076],[123.9392357251778,10.3737877434607],[123.9391122264935,10.37385579775472],[123.9390180955014,10.37389555158837],[123.9389093995045,10.3739138144356],[123.9388042751991,10.37391412160625],[123.9387172545684,10.37390719831275],[123.9385542305267,10.37378973482919],[123.9385682598225,10.37363177802209],[123.9385783181724,10.37350922404517],[123.9385889896347,10.37344100217373],[123.9386358790845,10.37336190683971],[123.9387045071278,10.37327915967788],[123.9388997110325,10.37322310427889],[123.9390730641993,10.37308164501618],[123.9391598349129,10.37300482588175],[123.9392078540762,10.37289940802757],[123.9393086536295,10.37266463205078],[123.9393710726142,10.37252567449421],[123.9394383679329,10.37240105865576],[123.9395540666063,10.3723002285324],[123.9397615832371,10.37219434425168],[123.9399160198168,10.37211732706092],[123.9400898030302,10.37204503883573],[123.9402585392625,10.37190098539323],[123.9403742231921,10.37179536942463],[123.9405381113113,10.37164654441383],[123.9406344769424,10.37154577052913],[123.9407449698195,10.3713205361895],[123.9408026115433,10.37120073400879],[123.9408455677135,10.37101876527289],[123.9408788290849,10.37082725456418],[123.9408928429153,10.37066451215547],[123.9408489436493,10.37053065123393],[123.9407326173528,10.37042092952869],[123.9405358190858,10.37027446768568],[123.940125444043,10.36978948656953],[123.9400140945598,10.36972760266939],[123.9397673993448,10.36966132883168],[123.9396562354865,10.3696616538183],[123.939545084981,10.36966676435678],[123.9393856170916,10.36967680079273],[123.9392019824511,10.36968690866869],[123.9390280861522,10.36972091342903],[123.9387577242599,10.36982219595806],[123.938627383901,10.3698752149183],[123.9385165183444,10.36997603056018],[123.938439442891,10.37006239152807],[123.9383623531459,10.37014396779577],[123.9382149660447,10.37034659909515],[123.9382921458352,10.37011550056586],[123.9383462415809,10.37002202826911],[123.938367649546,10.36990711786499],[123.9383891420951,10.36982091918959],[123.9384215421473,10.36974545543435],[123.938479305705,10.36966632840186],[123.9385370906163,10.36959437974479],[123.9386166040824,10.3695151891857],[123.9387214489322,10.36942156955134],[123.9389000786445,10.36924578452881],[123.9392547540573,10.36889254789571],[123.9393626933982,10.36878312610017],[123.9394514250666,10.36871587250308],[123.9395476749612,10.36868456600053],[123.9399220847378,10.36863222854057],[123.940115556132,10.36867951547014],[123.9402364580475,10.36870308911158],[123.9405021063123,10.36864249527754],[123.9407192078095,10.36851026339796],[123.9407356845215,10.36847889608424],[123.9409090691276,10.36826342786186],[123.9411753711272,10.36754692115056],[123.9412957009435,10.36737908183958],[123.9413796035446,10.3671515333287],[123.9414877421915,10.36694784016406],[123.9416201186823,10.36676800231873],[123.9418251722971,10.36664776827441],[123.942006273802,10.36659938417271],[123.9423324062055,10.36656253811157],[123.9425378162163,10.36656193602857],[123.9428281653594,10.36668071817153],[123.9429250074931,10.36674025088549],[123.9429857802635,10.36685970606235],[123.9429860666109,10.3669554123123],[123.9429863887516,10.36706308071245],[123.9427858298712,10.36739667682931],[123.9428311357869,10.367673666248],[123.9428201266741,10.36803259875989],[123.9428205203768,10.36816419417197],[123.9427847004266,10.36830785985239],[123.942712775045,10.3684994840513],[123.9426488614299,10.36871270868436],[123.9426409927288,10.36873896045969],[123.9426416726835,10.36896626212048],[123.942557913802,10.36924166492646],[123.9424258947772,10.36954113463167],[123.9421472028635,10.37018897511959],[123.9421264562419,10.37038438568838],[123.9421401824026,10.37085383686889],[123.9421407114446,10.37087192339184],[123.9421532433021,10.37130054469606],[123.9422145535313,10.37159944846358],[123.9422638157852,10.37191035068826],[123.9422643883265,10.37210176226364],[123.9422411169351,10.37240091398633],[123.9422177023864,10.37265221258719],[123.9422184896522,10.37291540338115],[123.9422193842991,10.37321448423465],[123.942209757169,10.37338514459054],[123.9422091256968,10.37339633369956],[123.9422079096293,10.37341789428106],[123.9422083292845,10.37355818094965],[123.9422030835399,10.37364086592159],[123.942190396819,10.37374382570842]]],[[[123.9385107216283,10.37753707999714],[123.9383181361697,10.3777888727842],[123.9381905586086,10.37799371624062],[123.9381016682037,10.37813644238495],[123.9378405206184,10.37845817677768],[123.9377104153781,10.37859135064037],[123.937679914095,10.37861674599925],[123.9376358400283,10.37848618595079],[123.9376065539005,10.37839056428509],[123.937528878716,10.37827594315721],[123.93742228802,10.37819011837029],[123.9372770868967,10.37812354692842],[123.9371416671083,10.37809523010833],[123.9369868860368,10.3780573993554],[123.9368609903023,10.37798120103593],[123.9367542859696,10.37785709309662],[123.936676553365,10.37772333027003],[123.9366084311997,10.37757039867917],[123.9365597272927,10.37744612152181],[123.9366070341674,10.37725521758675],[123.9367769991985,10.37713313509081],[123.936867589014,10.3771209077125],[123.9370065125474,10.37710853841554],[123.9371334409681,10.37712611334061],[123.9372604415348,10.37716761434626],[123.9373996312774,10.37724497014368],[123.9375086135154,10.37732241404244],[123.9376960311707,10.37736373851908],[123.9379255614623,10.37734512316609],[123.9380764791142,10.37730281090936],[123.9383177547383,10.37717050952911],[123.9383727477043,10.37712818031103],[123.9386999583341,10.37727149687027],[123.9385107216283,10.37753707999714]]]]}},{"type":"Feature","properties":{"name":"LL","level":1,"LndslideSu":"LL"},"geometry":{"type":"MultiPolygon","coordinates":[[[[123.9611387844452,10.36450226788959],[123.9615557334214,10.36468514145122],[123.9617325518734,10.36515205440894],[123.9617695880777,10.36552733846184],[123.9616707666107,10.36610631472592],[123.9615051464617,10.36657544631674],[123.9615051282691,10.36657547078766],[123.9610941239699,10.3665789761227],[123.9611371140312,10.36650140327731],[123.9611727419798,10.36629792134165],[123.9611418598863,10.36607669311729],[123.961086465951,10.36574188732531],[123.9610677578664,10.36555052999284],[123.9610185518281,10.36526355898384],[123.9609029437162,10.36499473058253],[123.9607029942764,10.36480391562589],[123.9604064540901,10.36463731521376],[123.9601341168274,10.36448260624981],[123.9600825140064,10.36442656925663],[123.9604722864002,10.3640529827294],[123.9611387844452,10.36450226788959]]],[[[123.9575968259785,10.37064144380407],[123.9575967968118,10.37064146378577],[123.9572693337684,10.37080765933092],[123.9572693064334,10.3708076811158],[123.9569811060395,10.37114905561008],[123.9568890897032,10.37110081866488],[123.9567013459502,10.37101228273323],[123.9560771174933,10.37062900771653],[123.9560710835233,10.37063595941424],[123.9559207709355,10.37055243201866],[123.9557735853871,10.37046864774012],[123.9557238500268,10.37043477549422],[123.9553651342853,10.37031186737046],[123.9551871970461,10.37020831555373],[123.9551181064232,10.37013674125533],[123.9550417002884,10.37004365433885],[123.9549870549686,10.36995409195387],[123.954914912733,10.36982701649332],[123.954899589528,10.36980002495027],[123.9548375852748,10.36967459503431],[123.9547719341935,10.36954199751885],[123.9547353693639,10.36943802544435],[123.9546878440162,10.36930537406549],[123.9546077913534,10.36920512033208],[123.9544368117234,10.36900464417374],[123.9543240923799,10.36889013141642],[123.9542477085363,10.36880422260747],[123.953764130128,10.36832114353614],[123.9536478187409,10.36821740787333],[123.9534735843525,10.36813896751725],[123.9533501975256,10.36809267644255],[123.9532086417394,10.3680320832575],[123.9530779721974,10.36797504694094],[123.952918248449,10.36790015154537],[123.9527293855672,10.36777868540617],[123.9525985317826,10.36766063647412],[123.9523584106471,10.36737063994493],[123.9523000221848,10.36724160856753],[123.9522017269286,10.36710192954487],[123.9521035844604,10.36701249535974],[123.9520091421208,10.36694817284843],[123.9519401288185,10.36690172016557],[123.9518349205401,10.36687331977073],[123.95161019959,10.36688116338991],[123.9513782934091,10.36691056157273],[123.9512042994309,10.36691107638128],[123.9508416811052,10.36686908115647],[123.9505078453651,10.36675522070598],[123.9491314569247,10.36596664573266],[123.9488478958371,10.36569471864639],[123.9483604135641,10.36511474019428],[123.9480032343862,10.36446977357844],[123.9477693441126,10.36383879997076],[123.9477615338541,10.36365219463984],[123.947768502569,10.36355886083356],[123.9478044709017,10.36346544066232],[123.9478622093645,10.36337913476025],[123.9479634674148,10.36329987810789],[123.9480864532999,10.36321337985302],[123.9482529803022,10.36314110914334],[123.9484558414685,10.36309744311965],[123.9492001755301,10.36284857449261],[123.9493690106813,10.36274040609846],[123.9495979714209,10.36253635408078],[123.9497904669595,10.36226062984916],[123.9503528508872,10.36083294145383],[123.9504433090083,10.36077883872211],[123.9505519129856,10.36073186168181],[123.9507040136551,10.36068475516259],[123.9508380125838,10.36064487959983],[123.9509755391069,10.36057269335307],[123.9511418366681,10.36042505304393],[123.9513044224407,10.36024871174406],[123.9514309662415,10.36014066748332],[123.9518401135338,10.35998871935902],[123.9520358528817,10.35998814018684],[123.9521954422545,10.36001996898848],[123.9523442541194,10.36008413070806],[123.9525873653771,10.36016595739917],[123.9527436433517,10.36030187651682],[123.9528891882629,10.3604844843678],[123.9530492226168,10.36066346000051],[123.9531260053207,10.36088216081175],[123.9531193193008,10.36106880782284],[123.9530948244984,10.36135958928113],[123.9530879106836,10.36147086806181],[123.9530450203845,10.3616719791789],[123.9529261713849,10.36192714896705],[123.952702473332,10.36227235504046],[123.9526159330535,10.36242334916771],[123.9525078276104,10.36263542010994],[123.9524432425456,10.36285453967172],[123.9524335057301,10.3632314130469],[123.9524483194677,10.36333544996384],[123.9525147379297,10.3637228636122],[123.9525296926959,10.36387355712623],[123.9525846940018,10.36408155577351],[123.9527122148572,10.36429651799407],[123.9528357420031,10.36438946516092],[123.9529662797772,10.36440343430188],[123.9531038615446,10.36434919204372],[123.9531797013451,10.36425565323476],[123.9532772028751,10.3641333392361],[123.9533563203489,10.363924943197],[123.953392004819,10.36373820935262],[123.953463492141,10.36340422170992],[123.9534920892063,10.36327134430502],[123.9535604831585,10.36311322534665],[123.9536722890398,10.36292626669542],[123.9537987125996,10.36277874326062],[123.9539506624997,10.36268138939458],[123.9541028946653,10.36267734954986],[123.9542010144597,10.36275960486388],[123.9542196167129,10.36291746493557],[123.9542206051363,10.36324406014449],[123.9542464023454,10.36338395462289],[123.9542977913582,10.36359555281972],[123.9544109866709,10.36386797961631],[123.9545383238762,10.36402192863011],[123.9546400584241,10.36410058472437],[123.9550429054335,10.36426089307177],[123.955869446872,10.36428356005766],[123.9560760302926,10.36427217924758],[123.9562935542061,10.36428229920623],[123.9565220721928,10.36433186578134],[123.9566129003202,10.36439978601807],[123.9567293090896,10.36453582142829],[123.9568610125718,10.36493380705435],[123.9569240297142,10.36539300988202],[123.9569244546228,10.36553297860912],[123.9569284283559,10.36564781504495],[123.9570051934017,10.36585933616787],[123.9571071906749,10.36602412609775],[123.9572199098235,10.36613863880463],[123.9573180978218,10.36624242711217],[123.9574705931647,10.36632451934199],[123.957480646366,10.36632808041893],[123.9578048542612,10.36644293697742],[123.9579893562091,10.36645696297236],[123.9580920607131,10.36645665694951],[123.9582067397395,10.3664204249712],[123.9583454377635,10.36633626892312],[123.9585565610439,10.36622796979159],[123.9587798760471,10.36615552441149],[123.9590153828362,10.36611893275166],[123.9592508540588,10.366070377018],[123.9594622135043,10.36603983817988],[123.9596495340641,10.36605124227621],[123.959830923024,10.36609855419033],[123.9599038307979,10.36614532198051],[123.9596527025941,10.36650043471324],[123.9596526789239,10.36650046010466],[123.9591661927782,10.36649145339977],[123.9591661379745,10.36649145265902],[123.9593803653023,10.36669364736303],[123.9594433539445,10.36881133426886],[123.9594599620133,10.36936968651259],[123.9587562648777,10.369875041498],[123.9587562375456,10.36987506418705],[123.9583297193366,10.37025811200416],[123.9583296910937,10.37025813560022],[123.9578566026591,10.37062315143574],[123.9575968259785,10.37064144380407]]]]}},{"type":"Feature","properties":{"name":"LL","level":1,"LndslideSu":"LL"},"geometry":{"type":"Polygon","coordinates":[[[123.9312001908715,10.37753443086813],[123.9313562816783,10.37785592909449],[123.9313655856857,10.37789681431032],[123.9313856640748,10.37798504796839],[123.9313956853331,10.37810465261138],[123.9314346004118,10.3783079980778],[123.9314471531871,10.3784373230941],[123.9314671187552,10.37872704493119],[123.9314936819936,10.37888344881979],[123.9315128894508,10.37900398356864],[123.9315277974044,10.37914175799313],[123.9315343748348,10.37923837676931],[123.9315346014064,10.37931494178186],[123.9315328871541,10.3793587635566],[123.9315301084891,10.37942980286615],[123.9314917523219,10.37953519180426],[123.9314341481424,10.37966934857999],[123.9313958353112,10.37978909339122],[123.9313477559471,10.37987536887388],[123.9311497844091,10.37994293827294],[123.9310772268772,10.37992400700705],[123.9309803611593,10.37985729343789],[123.9309075763101,10.3797617971098],[123.9308540696836,10.3796471041393],[123.9307860054212,10.37951331170235],[123.9307421795027,10.37940337538],[123.930683867612,10.37929826666671],[123.9306208635425,10.37924102520411],[123.9305048198881,10.37922700543912],[123.9303743750901,10.3792465250121],[123.9302874731609,10.37928027441591],[123.9302344325836,10.37932349609041],[123.9301912714801,10.37943846920011],[123.9301964304086,10.37954851761511],[123.9302402137406,10.3796440972332],[123.9303034158328,10.37976833351482],[123.9303086304722,10.37989752250561],[123.930279955385,10.38000766892729],[123.9302610183972,10.38014171352058],[123.930261683105,10.3803666230307],[123.9302523975477,10.3804958540247],[123.9302093211825,10.38063953891704],[123.9301038909688,10.38094610617937],[123.9300413400438,10.38104199470014],[123.9299209003084,10.38117633326237],[123.9297619056182,10.38134906582653],[123.9296655061388,10.38144026666097],[123.9294434370543,10.38153183127135],[123.9293371721403,10.38155606524609],[123.9291150030596,10.38161413317016],[123.9289265419467,10.38162903447959],[123.9287236228992,10.38165833351488],[123.9285497599093,10.38170668914895],[123.9283855925557,10.38176458884359],[123.9281442875724,10.38188970499445],[123.9279754565342,10.38200504114167],[123.9278452492844,10.38210591047988],[123.9277103078692,10.3822402902249],[123.9275850902386,10.38239378258444],[123.9275031045553,10.3824562291607],[123.9274112971367,10.38246606474869],[123.9273702535142,10.38242566632142],[123.9273579745063,10.38241358033516],[123.9273480823138,10.382337043167],[123.9273477953075,10.38223437697554],[123.927347667186,10.38218872836692],[123.9273492173784,10.38213483749409],[123.927358748569,10.38208887070034],[123.9273625059348,10.38205153419534],[123.9273604763687,10.3820189991422],[123.9273463608071,10.3819378892863],[123.9273173679549,10.38187859742821],[123.9273116300346,10.38186686241054],[123.9272669737171,10.38177553787772],[123.9272556577868,10.38175239654904],[123.9272552819373,10.38175162806137],[123.9271107903138,10.38145613402395],[123.9271104512223,10.38145544048814],[123.9270882549923,10.38141004821252],[123.9270882356962,10.3814100093826],[123.9269477565195,10.38112272027312],[123.9268868806362,10.38096737257522],[123.9268682090329,10.38078199367863],[123.9269159621514,10.38058445984169],[123.9269456601809,10.38041090542712],[123.9269693688979,10.38025531355493],[123.9269919511063,10.37971689613531],[123.9271217576267,10.37950343733356],[123.9272224977292,10.37924473716996],[123.9273083992276,10.3788712325494],[123.9273217153263,10.37846922454651],[123.9273787009214,10.3781245145441],[123.9275374417847,10.3778656468442],[123.9276532733993,10.37780788823511],[123.9278707325603,10.37779290408803],[123.9282047012526,10.37794985536844],[123.9283502525908,10.37813606387013],[123.9284814742529,10.37837973688647],[123.9285693218555,10.3786666041946],[123.9285849653277,10.37905417236194],[123.9285860240142,10.37941307065276],[123.9285001239737,10.37978657638852],[123.9285295478198,10.37993005148974],[123.9286942860147,10.38006595773067],[123.928766963502,10.38012556442669],[123.9289603704218,10.38014893138431],[123.9291171379601,10.38004080727864],[123.9292616463763,10.37987290260492],[123.9294058711457,10.37960929042839],[123.9294776655286,10.37936981513475],[123.9294770650291,10.37916643985049],[123.9294638514154,10.37878365042944],[123.9293907856432,10.3785924480373],[123.9293176846547,10.37838928252497],[123.9292564904838,10.37812626474719],[123.9291954376688,10.37791110113085],[123.9291341025091,10.37760023092598],[123.9291091937256,10.37734907222148],[123.9291084170732,10.37708588050977],[123.9291437145016,10.3767627666548],[123.9292034254233,10.37652332636969],[123.9292631715763,10.37629585007749],[123.9292926863949,10.37621392951791],[123.929299873484,10.37619398121774],[123.9293598090455,10.37602762528143],[123.9294004550004,10.3759511562854],[123.9294129637074,10.37593189343249],[123.929475264448,10.37583595334746],[123.929514286824,10.37579678122334],[123.9295771818381,10.37576046095965],[123.929651883336,10.375727845866],[123.9297532193188,10.37569800046092],[123.9299621346089,10.37565976899049],[123.9302519586082,10.37559911301256],[123.9304014280243,10.37559045722421],[123.9305253567154,10.37562153230805],[123.9306875821926,10.37572308186144],[123.9307557686298,10.37578822655525],[123.9308076691041,10.37587895539196],[123.9308207524731,10.37593640302572],[123.9308226867215,10.37598542580267],[123.9308129343192,10.3760536819689],[123.9307929701365,10.37612161865744],[123.9307521620512,10.37621388757218],[123.9306771387948,10.37636353677934],[123.9306383463213,10.37646315826142],[123.930593190996,10.37657912016816],[123.9305095268426,10.37689041007384],[123.930510552142,10.37723734512528],[123.9305474382725,10.37745257935314],[123.9306690858398,10.37772738394547],[123.9307542716523,10.37793051407836],[123.9307921134793,10.37801969563757],[123.9308226805572,10.37809173164983],[123.9308875533973,10.37832881615209],[123.9309008290135,10.37845647788554],[123.9309385694744,10.37869111072776],[123.9309496192594,10.37875980487155],[123.9309623783996,10.37883912700131],[123.9309635588429,10.3788559167191],[123.9309749923802,10.37901854100168],[123.9309756292184,10.37923387928826],[123.9309760788929,10.37938592778552],[123.9309845676063,10.37945062955932],[123.930994736641,10.3795099638703],[123.9310234300069,10.37956081716103],[123.9310639094482,10.37958926622609],[123.9311071089938,10.37960257729674],[123.9312006873496,10.37959458311098],[123.9312455180402,10.37957139397503],[123.9313017549576,10.37949436498864],[123.9313423620988,10.37939215996491],[123.9313625128533,10.37930453756917],[123.931385996698,10.37905672140318],[123.9313902915012,10.37884894609573],[123.9313849390184,10.37878752694899],[123.931372650374,10.37864652374077],[123.9313718385049,10.37864163284428],[123.9313111359438,10.37827583782609],[123.9312254542736,10.37790522194784],[123.9312001908715,10.37753443086813]]]}},{"type":"Feature","properties":{"name":"LL","level":1,"LndslideSu":"LL"},"geometry":{"type":"Polygon","coordinates":[[[123.93704890691,10.37991275047685],[123.9362529732525,10.38036763015336],[123.9364674433517,10.38013319581253],[123.9366046550045,10.38002976261834],[123.9367350988092,10.37993143045513],[123.9369307018454,10.37988061432782],[123.93704890691,10.37991275047685]]]}},{"type":"Feature","properties":{"name":"LL","level":1,"LndslideSu":"LL"},"geometry":{"type":"Polygon","coordinates":[[[123.9393419529267,10.37803282665739],[123.9382145907106,10.37908899099196],[123.938389038027,10.378791032347],[123.9385019906705,10.37866165944448],[123.9386090523201,10.37854318442757],[123.9388271729179,10.37830180956978],[123.9390559008676,10.37801402042616],[123.9393690699986,10.37767813154847],[123.9394324148493,10.37759230902604],[123.9396895848594,10.37770494815704],[123.9396932503905,10.37770191160026],[123.9396945637306,10.37770248199697],[123.939694590146,10.37770245750332],[123.9396932795461,10.37770188709844],[123.9394345913383,10.37758936021845],[123.9396699410362,10.37727049760373],[123.9400529763016,10.37706621288233],[123.9400589978574,10.3770630012249],[123.9401887052282,10.37699382324698],[123.9404780264627,10.37676567260957],[123.9409600738735,10.37633358083192],[123.9410998405888,10.37612771234176],[123.9411514692817,10.37605166569784],[123.9412367743874,10.3759260164662],[123.9415019285135,10.37569793674922],[123.94168263209,10.37556638209032],[123.9417451871808,10.37552084101124],[123.9413306996093,10.37602579884643],[123.9413306777719,10.37602582694413],[123.9407137693013,10.37685610258845],[123.9407137447181,10.37685612888564],[123.9398096041755,10.37760547767417],[123.9393419529267,10.37803282665739]]]}},{"type":"Feature","properties":{"name":"LL","level":1,"LndslideSu":"LL"},"geometry":{"type":"Polygon","coordinates":[[[123.9316954043818,10.37147891931514],[123.9316112115769,10.37161076031788],[123.9314786149765,10.37171881521464],[123.9312855668965,10.37181508115004],[123.931152828646,10.37187528265533],[123.9308867135219,10.37192922828161],[123.9306578068086,10.37197175837661],[123.930599172417,10.37197769228287],[123.9305024575936,10.37197414255231],[123.9304511691409,10.37196541066803],[123.9303652864597,10.37194311109535],[123.9302975352465,10.3719145951938],[123.9302075233411,10.37187657242993],[123.9301234563218,10.37182760829434],[123.9300332288815,10.37177658474815],[123.9299876856475,10.37173939089491],[123.9299111851573,10.37166350953398],[123.9297027767598,10.37137463363976],[123.9297018605455,10.37137336391729],[123.9297017404846,10.37137353518039],[123.9296162711119,10.37128291581176],[123.9295559745352,10.37124584685248],[123.9294472305702,10.37119240698519],[123.929349919093,10.3711626985485],[123.9292561541164,10.3711629696702],[123.9291809412696,10.37116897384914],[123.9288970419002,10.37123719502593],[123.9287398070278,10.37129262735772],[123.9286750158761,10.37133150033918],[123.9285764644787,10.3713831312851],[123.9284882890857,10.3714183469156],[123.9284826200071,10.37142061052028],[123.9284356370962,10.37143937517225],[123.9283149561201,10.3714810537626],[123.9282672137258,10.3714947084836],[123.9281272264172,10.37152889896116],[123.927965685791,10.37156270578694],[123.9278739562562,10.37157371844173],[123.9277441822644,10.37157409309449],[123.9276472297493,10.37155710503064],[123.9275722432237,10.37153083312519],[123.9274814314276,10.3714908992385],[123.9274088579418,10.37145247897118],[123.9273694462241,10.37143161435741],[123.9273418200262,10.37142538646339],[123.9272779734028,10.37141099219299],[123.9272050126474,10.37140545576239],[123.9271394409152,10.3714029437382],[123.9270652577833,10.37140662579091],[123.9270237725784,10.37140868431199],[123.9269464637196,10.37140890729824],[123.9268185996259,10.37140927606282],[123.9267319923958,10.37139671977987],[123.9266601168096,10.37137661245314],[123.9265828505812,10.37133418854288],[123.9265294777847,10.37127508704434],[123.9264941071203,10.37122850635908],[123.926464957405,10.37118344507495],[123.926436288436,10.37111860679638],[123.9264210899875,10.37105282717703],[123.9264134315042,10.37094387271682],[123.9264132061457,10.37086723339953],[123.9264304863772,10.37072403743316],[123.9264488371296,10.37065664908874],[123.9264785317169,10.37055560372742],[123.9265601127857,10.37037853026015],[123.9266410066394,10.37026130374837],[123.926680163045,10.37021840852419],[123.9267497040762,10.37016999436165],[123.9267989450218,10.37014975393622],[123.9269090828003,10.3701289336668],[123.9269426975545,10.37012883672755],[123.9270250807826,10.37012859913342],[123.9271576494916,10.37010909949961],[123.9272808501649,10.37006804441157],[123.9273773387583,10.37000794909102],[123.9275098315108,10.36986400559053],[123.9277864750746,10.36943252541396],[123.9279138888239,10.36927144878228],[123.9279768495664,10.36921778663884],[123.9280515634984,10.36918052922267],[123.9281662302881,10.36913832647639],[123.9282990914634,10.3691199975613],[123.9285105106368,10.36910742374296],[123.928691826874,10.36913082727496],[123.9288612198048,10.36920809912139],[123.9291827115842,10.36939531482868],[123.9293026281182,10.36946514674227],[123.9293211722566,10.36947594583136],[123.9293730417934,10.36949943741097],[123.9294460650836,10.36952013316311],[123.9295079991948,10.36952631141826],[123.9295553873395,10.36952737802737],[123.9296152014202,10.36952083323511],[123.9296923800508,10.3694983186244],[123.9297320152478,10.369480739829],[123.9298114733936,10.36942223585134],[123.9298706712129,10.36937865019146],[123.9298950275484,10.36935769997336],[123.9299041591247,10.3693498457949],[123.9299671381023,10.36929567501033],[123.9300022070548,10.36927584770022],[123.9301178801249,10.36921044746184],[123.9301747573848,10.36918773104279],[123.9302149076434,10.36917169527478],[123.9303410642127,10.36909016779668],[123.9303761206515,10.36906024108215],[123.9304254345312,10.36901814350438],[123.9304580829873,10.36899491569172],[123.9304884797847,10.36897688245575],[123.9305225039934,10.36895991575748],[123.9305554550705,10.36894761752954],[123.9306173790047,10.36892626370274],[123.9306582887683,10.36890855903035],[123.9306977587037,10.36889444775251],[123.9307350719307,10.3688864432312],[123.9307573301286,10.36888558569982],[123.9309746832519,10.36890367202293],[123.9309978144467,10.36891109819478],[123.9311200173187,10.36895033339787],[123.9313013521181,10.36897971654107],[123.93153110792,10.3690388677062],[123.9318212076153,10.36907391739202],[123.931984330144,10.36907344449403],[123.9321774471471,10.36900110446921],[123.9323221961161,10.3689169405238],[123.9326178773448,10.36879644909417],[123.9328532678076,10.36871800489992],[123.9331130886947,10.36872921401178],[123.9333307793523,10.36879438004204],[123.9335546351309,10.36890140053104],[123.9336155644995,10.36907469207731],[123.9336039060202,10.36921828691555],[123.9335863492254,10.36940975163838],[123.9335384773962,10.36956541393388],[123.9334542681268,10.36969127423224],[123.9332495278704,10.36991917295463],[123.9330746240701,10.37002136920209],[123.9328817369536,10.37017147122357],[123.9325984916719,10.37041156062304],[123.9324780673968,10.37054948807597],[123.9323998984809,10.37067533062382],[123.9323339019007,10.37083104537407],[123.9321718403925,10.37119041663446],[123.9320814652422,10.37127442199855],[123.9320211201284,10.37129852429346],[123.9318822341341,10.37132285341796],[123.9317736091481,10.37136503999343],[123.9316954043818,10.37147891931514]]]}},{"type":"Feature","properties":{"name":"LL","level":1,"LndslideSu":"LL"},"geometry":{"type":"Polygon","coordinates":[[[123.9320913730186,10.36647970001377],[123.9322148532515,10.3665583005641],[123.9322949197735,10.36666573807162],[123.9323752190171,10.36685213431308],[123.9324411046358,10.36706728344963],[123.9324416355449,10.36724673253136],[123.9324278367559,10.36748364722411],[123.9323559120906,10.36767766244968],[123.9322766946101,10.36785734279913],[123.932161079805,10.3679868821724],[123.9320164656373,10.36811650558538],[123.9318644524959,10.36819590478993],[123.9317341458359,10.36826088500225],[123.931502321292,10.36831898087898],[123.9313718456906,10.36832653647326],[123.9312550743262,10.36829330112297],[123.9311685214344,10.3682317888604],[123.9310941319032,10.368178920969],[123.9309763305934,10.36806260444983],[123.9309252386299,10.36799556533068],[123.9308556226725,10.36782557008836],[123.9308407838285,10.3677107648998],[123.9308407069333,10.36768473076424],[123.930840423412,10.36758873932749],[123.9308617280668,10.36743793898789],[123.9309048664612,10.36731578837231],[123.9309769616096,10.36717919698212],[123.9310708065393,10.3670425425952],[123.9312153782645,10.3668985637126],[123.9313165783934,10.36679777846224],[123.9315806288105,10.36654489380733],[123.9317289043351,10.36648792813684],[123.9318810652862,10.36645877513567],[123.9320913730186,10.36647970001377]]]}},{"type":"Feature","properties":{"name":"LL","level":1,"LndslideSu":"LL"},"geometry":{"type":"Polygon","coordinates":[[[123.9444846021535,10.36699368731449],[123.9445942468963,10.36692396612957],[123.9445781451447,10.36702056833119],[123.9444846021535,10.36699368731449]]]}},{"type":"Feature","properties":{"name":"ML","level":2,"LndslideSu":"ML"},"geometry":{"type":"MultiPolygon","coordinates":[[[[123.9445781451447,10.36702056833119],[123.9445621296472,10.36711665305253],[123.9445621132829,10.36711667842139],[123.9445360786103,10.36711377638491],[123.9443420516676,10.36709214847762],[123.9444846021535,10.36699368731449],[123.9445781451447,10.36702056833119]]],[[[123.9340682369817,10.38340959083795],[123.9340682105657,10.38340961533124],[123.9335997174703,10.38386584476752],[123.93359969197,10.38386587016249],[123.9331837985547,10.38424877178055],[123.9332458391425,10.3841694395086],[123.9340729069194,10.38307096141265],[123.9340682369817,10.38340959083795]]],[[[123.929692105018,10.39104269555886],[123.9294916466466,10.39148609652219],[123.9295474655651,10.39127922973342],[123.929604831755,10.39106372344727],[123.9297044749419,10.39096846458816],[123.929692105018,10.39104269555886]]],[[[123.9294052424085,10.39281411714375],[123.9294052132321,10.39281413531481],[123.9289966877912,10.39303146098818],[123.9289966558663,10.39303147645403],[123.9289921020806,10.393033617992],[123.9290881509016,10.39287408048542],[123.9292977125617,10.39263659888739],[123.9293455633828,10.39251856757982],[123.9294052424085,10.39281411714375]]],[[[123.9270396032558,10.39701731123004],[123.926990498482,10.39704141937379],[123.9269904674834,10.39704143935834],[123.9231405293397,10.39754103442197],[123.9231402449052,10.39412775348496],[123.9233108250444,10.39392012230232],[123.9233984992355,10.39371228854687],[123.9234162182882,10.39348280609303],[123.9233857733704,10.39334481997911],[123.9233245347588,10.39318207369582],[123.9232776549676,10.39310589517668],[123.9232213941093,10.39301447245582],[123.923271985839,10.39283551901842],[123.9232734225332,10.39282862399032],[123.9233148839261,10.39262962461823],[123.9233140969032,10.392361648023],[123.9232458477259,10.39221159858639],[123.9232044401122,10.39214864619749],[123.9231400729454,10.39206419361381],[123.9231399671501,10.3907946254298],[123.923161766684,10.39043538073892],[123.923501318024,10.3889735268345],[123.9237052901307,10.3874873977452],[123.9239087858526,10.38583393409139],[123.9239187526784,10.38584551622122],[123.9239691567829,10.38588392305333],[123.9239971954368,10.3858998469335],[123.9240222380336,10.38590456590814],[123.9240358316754,10.38590458736129],[123.9240469993524,10.3859024626201],[123.9240702246378,10.38589487997546],[123.9240924155544,10.3858846832146],[123.9241110577668,10.3858741584554],[123.9241380021922,10.38584656703621],[123.924186367604,10.38579295552151],[123.9242094938633,10.38576752646106],[123.9242384273399,10.38574447349912],[123.9242678538501,10.38572476870434],[123.9242967873184,10.3857017157377],[123.924327181128,10.38568200815253],[123.9243490689695,10.38566317692778],[123.9243932524737,10.38563157131783],[123.9244091505107,10.38561381991259],[123.9244258715655,10.38557929106081],[123.9244479156956,10.38550205679641],[123.9244579276101,10.38543518629243],[123.9244578573003,10.38541125917827],[123.9244543629259,10.38537346518545],[123.9244445626741,10.38532803250445],[123.9244216848605,10.38525769733512],[123.924390991373,10.38519933431359],[123.9243132054318,10.38504642674254],[123.9242159456915,10.38484572238727],[123.9241478546941,10.3847023572294],[123.9240602899315,10.38451119527877],[123.9240470462934,10.38443718793603],[123.9240469057528,10.38438933460335],[123.9240597035425,10.38431153555277],[123.9240805242912,10.38424444764768],[123.9241219705395,10.38417099998941],[123.9241767815452,10.38409027388947],[123.9243132658133,10.3839215396302],[123.9243634176562,10.38385303248473],[123.9243884098734,10.38381889399891],[123.9244148496644,10.38376976771729],[123.9244448198755,10.38368833087851],[123.9244481956523,10.3836033813892],[123.9244334527597,10.38352087599308],[123.9244038384524,10.38344767000541],[123.9243799572679,10.38340977102679],[123.9243255208278,10.38335022657582],[123.9242403117239,10.38329079060332],[123.9241749236524,10.38323286382324],[123.9241473372944,10.383193657449],[123.9242931764916,10.38151598044253],[123.9242451529809,10.37812454341496],[123.9250724052821,10.37598381735952],[123.9250724307799,10.37598379106091],[123.9257448951376,10.37515112845413],[123.925874612043,10.37382620425534],[123.9258947575919,10.37336349941432],[123.9258929451178,10.37336277123591],[123.9258930972448,10.37336153982556],[123.9259754405067,10.37335620617088],[123.9261115889234,10.37342759486531],[123.9261813053443,10.37350814671636],[123.9262331077692,10.37366053034688],[123.9262606815384,10.37379204796758],[123.9263094195284,10.37392948662537],[123.9263611341329,10.37405196200054],[123.9264097490509,10.37414752840396],[123.9264975468795,10.37421307424471],[123.9265972069812,10.37420381421943],[123.9266906948818,10.37414970971242],[123.9268382571021,10.373993759683],[123.9269285737972,10.37388881995587],[123.9270038219827,10.37379588688787],[123.9272540652306,10.37363066780883],[123.9274743034809,10.3735343256282],[123.9279058491572,10.37338652797258],[123.9281500127536,10.37332259208239],[123.9281714781311,10.37331697124553],[123.928351753812,10.37330042777965],[123.9284737037495,10.37331562695934],[123.9285824065167,10.3733486830246],[123.928724570056,10.37341108055237],[123.9287824750025,10.3734395366057],[123.9289372203488,10.37346595018627],[123.9289966377637,10.37347609213373],[123.92919907664,10.37349046146355],[123.9292401477338,10.37348913452499],[123.9295041525638,10.37348060647516],[123.9297549767689,10.37351277982679],[123.9299363936469,10.37356908115697],[123.9300145464949,10.37359500054973],[123.930078176893,10.37361610397327],[123.9301936587507,10.37367380144887],[123.9302388818456,10.37370578459682],[123.9303244918958,10.37375745622895],[123.9304052700251,10.37382670906886],[123.9304478311339,10.37387864819679],[123.9304732386319,10.37392990087978],[123.9305055707028,10.37399512327366],[123.9305137487929,10.37404631280823],[123.9305212866366,10.37409349536405],[123.9304929045427,10.37426927980918],[123.9304792940433,10.37430325639251],[123.9304132154457,10.37443205413262],[123.9302556652574,10.3746424454696],[123.9301670744723,10.37471196804334],[123.9301301677078,10.37474093070938],[123.9299582277727,10.3748251717136],[123.9296956274676,10.37489771179492],[123.9293846052551,10.37494048330108],[123.9290374393591,10.37501924953328],[123.928708354347,10.37508300846013],[123.9284639130079,10.37516745918752],[123.9282829723503,10.37527266118983],[123.9280961120155,10.37541975276395],[123.9279306978452,10.37566847087344],[123.9276477962527,10.37602818850077],[123.9274277237581,10.37618135770005],[123.9271531968892,10.37630776514314],[123.9270665695726,10.37632577050585],[123.9269780928382,10.37634416099578],[123.9267725875073,10.37631484547981],[123.9266944055823,10.37629380149601],[123.9265307260597,10.37624974416774],[123.9264352577169,10.37623134626898],[123.9263544747555,10.37621971097722],[123.9262960058433,10.37622166741126],[123.9262374406781,10.37623499589624],[123.9261964057571,10.37625186306186],[123.9261572138133,10.37627889304776],[123.9261367394862,10.37630168298409],[123.9261193059275,10.37633164171559],[123.9261036655355,10.37636756015084],[123.9260880343942,10.37641873709681],[123.9260798304282,10.37645699074239],[123.9260739472498,10.37652376527638],[123.9260713655498,10.37661399007983],[123.9260926741878,10.37670715919199],[123.9261290561722,10.37677066937186],[123.9261599652219,10.37680348020574],[123.9262116394967,10.37684344761041],[123.9262763792496,10.37687945621273],[123.9262861384273,10.37688488381412],[123.9263747276551,10.37693135800653],[123.9264679081404,10.37699662600491],[123.9264916309497,10.37702085295478],[123.9265093610408,10.3770544197888],[123.9265332506631,10.37712757159582],[123.9265453218131,10.37720847492927],[123.926550159651,10.37727288811232],[123.9265444974781,10.37736289480696],[123.9265217429006,10.3775112656662],[123.9264565839417,10.37774538044496],[123.9264298720606,10.37790696302517],[123.9264205617249,10.37797927281586],[123.9263886139928,10.37809980999698],[123.9263721071431,10.37815728262035],[123.9263519801626,10.37821619993067],[123.9263274634696,10.3782614928051],[123.9262771033434,10.37831528934708],[123.9262227432506,10.37835319681704],[123.9261171804952,10.37841032758329],[123.9260028785741,10.3784625938737],[123.9259723717831,10.37847654319584],[123.9258557688128,10.37852938398279],[123.9256738252028,10.37865386403687],[123.9256016498367,10.37876473330335],[123.9255687810417,10.37888745248821],[123.9255480649766,10.37903406396717],[123.9256059512221,10.37940565906506],[123.9256932689255,10.37951307715095],[123.9258383974457,10.37955572777603],[123.9260122738953,10.37951215746547],[123.9261643141744,10.3794399388899],[123.9263021930685,10.37948260930617],[123.9263822613829,10.37959004899683],[123.9264117053809,10.37974070278316],[123.9264121255959,10.37988348321135],[123.9264122546405,10.37992732953259],[123.9263947376296,10.37999757040545],[123.9263692610338,10.38009972677174],[123.9263117460449,10.38026498743121],[123.9263069441762,10.38028327028626],[123.9262758963865,10.38040147263417],[123.9262679388576,10.3806218721116],[123.9262711465723,10.3806764392679],[123.9262898483049,10.38073406443929],[123.9263349034736,10.38081736671148],[123.926403450355,10.38088443654286],[123.9264982583713,10.38094984531788],[123.9266174860507,10.38100612957656],[123.9266852278498,10.38106311310752],[123.9267577511633,10.38116531492031],[123.9267646809495,10.38118384064038],[123.9268105987194,10.3813065857151],[123.9268586458408,10.38141387438736],[123.9268866208214,10.38150039187351],[123.9269274171565,10.38165506593427],[123.9269313750675,10.38171495461469],[123.9269318683665,10.38188244071692],[123.9269356681821,10.38196680065267],[123.9269554865745,10.38207505973321],[123.9269819805095,10.38215086261514],[123.9270139440255,10.382205287037],[123.927064151455,10.3822607457643],[123.9271031126533,10.3822714525021],[123.9271379218471,10.38227422318898],[123.9272163996078,10.38226649525443],[123.9272586047343,10.38224850588461],[123.927299965154,10.38222376641991],[123.9273206229417,10.38220859291808],[123.9273367692041,10.38217507030486],[123.9273492173784,10.38213483749409],[123.927347667186,10.38218872836692],[123.9273477953075,10.38223437697554],[123.9273480823138,10.382337043167],[123.9273579745063,10.38241358033516],[123.9273702535142,10.38242566632142],[123.9274112971367,10.38246606474869],[123.9275031045553,10.3824562291607],[123.9275850902386,10.38239378258444],[123.9277103078692,10.3822402902249],[123.9278452492844,10.38210591047988],[123.9279754565342,10.38200504114167],[123.9281442875724,10.38188970499445],[123.9283855925557,10.38176458884359],[123.9285497599093,10.38170668914895],[123.9287236228992,10.38165833351488],[123.9289265419467,10.38162903447959],[123.9291150030596,10.38161413317016],[123.9293371721403,10.38155606524609],[123.9294434370543,10.38153183127135],[123.9296655061388,10.38144026666097],[123.9297619056182,10.38134906582653],[123.9299209003084,10.38117633326237],[123.9300413400438,10.38104199470014],[123.9301038909688,10.38094610617937],[123.9302093211825,10.38063953891704],[123.9302523975477,10.3804958540247],[123.930261683105,10.3803666230307],[123.9302610183972,10.38014171352058],[123.930279955385,10.38000766892729],[123.9303086304722,10.37989752250561],[123.9303034158328,10.37976833351482],[123.9302402137406,10.3796440972332],[123.9301964304086,10.37954851761511],[123.9301912714801,10.37943846920011],[123.9302344325836,10.37932349609041],[123.9302874731609,10.37928027441591],[123.9303743750901,10.3792465250121],[123.9305048198881,10.37922700543912],[123.9306208635425,10.37924102520411],[123.930683867612,10.37929826666671],[123.9307421795027,10.37940337538],[123.9307860054212,10.37951331170235],[123.9308540696836,10.3796471041393],[123.9309075763101,10.3797617971098],[123.9309803611593,10.37985729343789],[123.9310772268772,10.37992400700705],[123.9311497844091,10.37994293827294],[123.9313477559471,10.37987536887388],[123.9313958353112,10.37978909339122],[123.9314341481424,10.37966934857999],[123.9314917523219,10.37953519180426],[123.9315301084891,10.37942980286615],[123.9315328871541,10.3793587635566],[123.9315346014064,10.37931494178186],[123.9315343748348,10.37923837676931],[123.9315277974044,10.37914175799313],[123.9315128894508,10.37900398356864],[123.9314936819936,10.37888344881979],[123.9314671187552,10.37872704493119],[123.9314471531871,10.3784373230941],[123.9314346004118,10.3783079980778],[123.9313956853331,10.37810465261138],[123.9313856640748,10.37798504796839],[123.9313655856857,10.37789681431032],[123.9313562816783,10.37785592909449],[123.9312001908715,10.37753443086813],[123.9311945949416,10.37747714423199],[123.9311853924057,10.37738293218627],[123.9311875858544,10.37695068197402],[123.9311982094919,10.37686448798794],[123.9312084306646,10.37680003039348],[123.9312456587169,10.37656526613984],[123.9313769834337,10.37602653458616],[123.9314728358849,10.37575109876286],[123.931515723663,10.37563325693643],[123.9316335956485,10.3754398464774],[123.9317051710845,10.37538712801731],[123.9317764677077,10.37533461486642],[123.9317979430504,10.37531879745602],[123.9318751481537,10.37527550549667],[123.9319620497205,10.37524175576335],[123.9320683689201,10.3752366625947],[123.9321553686899,10.37523641017937],[123.932247230413,10.3752457140025],[123.9323440098551,10.37528371554122],[123.9325672640329,10.37559411496268],[123.9325820616136,10.37569456495136],[123.9325631682294,10.37584296548997],[123.93252485526,10.37596270948416],[123.932510794568,10.37611109599231],[123.9325111913623,10.37624508452653],[123.932530879301,10.37636466105396],[123.9325795106044,10.37646501281606],[123.9326232941191,10.37656059210153],[123.9326766589977,10.37662743245451],[123.9327300248102,10.37669427188948],[123.9329226111325,10.37679219074322],[123.9330530272308,10.37676309994695],[123.9332557723181,10.37667637496216],[123.9334738924711,10.37653419508353],[123.9335848044824,10.37644773675628],[123.9336954459162,10.37627035663751],[123.933738506037,10.37612188583599],[123.9337670519461,10.37596867248865],[123.93379558364,10.37581067264158],[123.933833839336,10.37567178706751],[123.9338431792945,10.37556169664167],[123.9337993104514,10.37543740578202],[123.933707179085,10.3753371806461],[123.9336199381512,10.37525608380832],[123.9335423494065,10.37517017326022],[123.9334840800889,10.37507942092036],[123.9334643919171,10.37495984446664],[123.9334736052647,10.37480668639668],[123.9335600800313,10.3746293774679],[123.9335984057491,10.3745144180818],[123.9336657747478,10.37441373029826],[123.9337235757952,10.37434656704544],[123.9338007387151,10.37428891878345],[123.9338876246652,10.37425038388169],[123.9340277484822,10.37423562056632],[123.9341390276792,10.37427357942282],[123.9342213079929,10.37431162255831],[123.9342891016991,10.37435449433573],[123.9343569105287,10.37440214987933],[123.9344004954547,10.37443073512656],[123.9344634272002,10.37446404973328],[123.9345262888754,10.37447343816634],[123.9345843027393,10.37447805414949],[123.9347717154608,10.37446113903618],[123.9348294594485,10.37437483504174],[123.9348725756544,10.3742455037986],[123.934857649631,10.37410198815026],[123.9347993517759,10.37400166577727],[123.9347556816682,10.37394436883168],[123.9346826274589,10.37375795246054],[123.9345219786945,10.37337080683307],[123.9344619697348,10.3731071103772],[123.934511653231,10.37279860984897],[123.9345353224276,10.37263105464104],[123.9346075518216,10.37253992293868],[123.9346991997714,10.37247744674273],[123.9348151424689,10.37245796785072],[123.9349166838325,10.37247202844989],[123.9350182678148,10.37250044489118],[123.9351780926253,10.3726100430746],[123.9352508626286,10.37270075291504],[123.9353526030116,10.37278180714245],[123.9355502342844,10.37295148987476],[123.9357969031078,10.37300819650926],[123.9358839021691,10.37300794313816],[123.9360572176994,10.37277774149437],[123.9360709496301,10.37251929268197],[123.9360846815598,10.37226084477126],[123.9360985414621,10.37204546356656],[123.9361558589775,10.37181560067979],[123.9363148446153,10.3716428655781],[123.9364281558651,10.37160510223241],[123.9364886712503,10.37158493421458],[123.9366483831065,10.37165624964982],[123.9367790091733,10.37169893689316],[123.9369093790999,10.37165548887243],[123.9369525795498,10.3715548700762],[123.9369378236032,10.37146877714066],[123.9369228115008,10.37129654899398],[123.9369221710928,10.37108121006427],[123.9369799139198,10.37099490577123],[123.9371691964613,10.37090051317917],[123.9371826123416,10.37089382282646],[123.9374462300808,10.37088358313692],[123.9375476997733,10.37087371679806],[123.9378228529229,10.37075806611836],[123.9379144996662,10.37069558909969],[123.9381216739695,10.37047485899998],[123.9382105906188,10.37035261380069],[123.9382149660447,10.37034659909515],[123.9383623531459,10.37014396779577],[123.938439442891,10.37006239152807],[123.9385165183444,10.36997603056018],[123.938627383901,10.3698752149183],[123.9387577242599,10.36982219595806],[123.9390280861522,10.36972091342903],[123.9392019824511,10.36968690866869],[123.9393856170916,10.36967680079273],[123.939545084981,10.36966676435678],[123.9396562354865,10.3696616538183],[123.9397673993448,10.36966132883168],[123.9400140945598,10.36972760266939],[123.940125444043,10.36978948656953],[123.9405358190858,10.37027446768568],[123.9407326173528,10.37042092952869],[123.9408489436493,10.37053065123393],[123.9408928429153,10.37066451215547],[123.9408788290849,10.37082725456418],[123.9408455677135,10.37101876527289],[123.9408026115433,10.37120073400879],[123.9407449698195,10.3713205361895],[123.9406344769424,10.37154577052913],[123.9405381113113,10.37164654441383],[123.9403742231921,10.37179536942463],[123.9402585392625,10.37190098539323],[123.9400898030302,10.37204503883573],[123.9399160198168,10.37211732706092],[123.9397615832371,10.37219434425168],[123.9395540666063,10.3723002285324],[123.9394383679329,10.37240105865576],[123.9393710726142,10.37252567449421],[123.9393086536295,10.37266463205078],[123.9392078540762,10.37289940802757],[123.9391598349129,10.37300482588175],[123.9390730641993,10.37308164501618],[123.9388997110325,10.37322310427889],[123.9387045071278,10.37327915967788],[123.9386358790845,10.37336190683971],[123.9385889896347,10.37344100217373],[123.9385783181724,10.37350922404517],[123.9385682598225,10.37363177802209],[123.9385542305267,10.37378973482919],[123.9387172545684,10.37390719831275],[123.9388042751991,10.37391412160625],[123.9389093995045,10.3739138144356],[123.9390180955014,10.37389555158837],[123.9391122264935,10.37385579775472],[123.9392357251778,10.3737877434607],[123.9394240102423,10.37371541312076],[123.9398258168084,10.37364969634207],[123.9401261064358,10.37374968863376],[123.9402290459848,10.37382714935151],[123.9403018488837,10.37392862455469],[123.9403203311163,10.37404820391168],[123.9403518072888,10.37447280997106],[123.9403461939277,10.3746163870714],[123.9403043848366,10.37477801439981],[123.9402684917941,10.37489775288747],[123.9401068245485,10.37535295009362],[123.93999700838,10.3756368315914],[123.9399597875882,10.37570380272599],[123.9399121536833,10.37577644000574],[123.9398825378108,10.37581313416971],[123.9398456616997,10.37584626125576],[123.9398065991901,10.37587580551392],[123.9397132606541,10.37593457227337],[123.9395769694172,10.37599442140223],[123.9394140408683,10.37606069665534],[123.9392571176809,10.37611499020295],[123.9391062899889,10.37618721106015],[123.93900978432,10.37624132786737],[123.9389253965432,10.37630737330076],[123.938865265158,10.37640325619109],[123.9388353956323,10.37651699492855],[123.9387274129588,10.37677452265933],[123.9385829290783,10.37694841304364],[123.9384503686986,10.37706843383357],[123.9383733385939,10.37712772549111],[123.9383370974806,10.37711196095566],[123.9383378199811,10.37711288214945],[123.9383727477043,10.37712818031103],[123.9383177547383,10.37717050952911],[123.9380764791142,10.37730281090936],[123.9379255614623,10.37734512316609],[123.9376960311707,10.37736373851908],[123.9375086135154,10.37732241404244],[123.9373996312774,10.37724497014368],[123.9372604415348,10.37716761434626],[123.9371334409681,10.37712611334061],[123.9370065125474,10.37710853841554],[123.936867589014,10.3771209077125],[123.9367769991985,10.37713313509081],[123.9366070341674,10.37725521758675],[123.9365597272927,10.37744612152181],[123.9366084311997,10.37757039867917],[123.936676553365,10.37772333027003],[123.9367542859696,10.37785709309662],[123.9368609903023,10.37798120103593],[123.9369868860368,10.3780573993554],[123.9371416671083,10.37809523010833],[123.9372770868967,10.37812354692842],[123.93742228802,10.37819011837029],[123.937528878716,10.37827594315721],[123.9376065539005,10.37839056428509],[123.9376358400283,10.37848618595079],[123.937679914095,10.37861674599925],[123.9376922229387,10.37865320818603],[123.9375959106172,10.37872412261609],[123.9372702277996,10.3789164875685],[123.9368117325325,10.37914512827354],[123.9365465017107,10.37934927848379],[123.9363414744435,10.37948147393908],[123.9355588711197,10.38017173363559],[123.9352986348994,10.38043090044538],[123.9350890010466,10.38063967329986],[123.9347926409779,10.380942012026],[123.9346120059836,10.38115070019497],[123.9346011502789,10.38117043590172],[123.9344894152273,10.38137357534806],[123.9343451151893,10.38161086963423],[123.9341863369079,10.38185538444547],[123.9340564311001,10.38205674631239],[123.9339409818953,10.38224371099524],[123.9334715961129,10.38287674079137],[123.9333308131354,10.38310633149098],[123.9333128591422,10.3831356111392],[123.933111045724,10.3835381666054],[123.9329449298242,10.38375398936631],[123.9327279352266,10.38392689190011],[123.932496268923,10.38404241383497],[123.9323080619266,10.38414345249526],[123.9321781540346,10.38434481376087],[123.9320772883823,10.38456044756076],[123.9319547371548,10.38479767784844],[123.9318754309539,10.38494864655273],[123.9316297307642,10.38522212379589],[123.9314924872606,10.38539479503818],[123.9313193098767,10.38567524006351],[123.9311824262966,10.38596993572152],[123.9311178120547,10.38618546321506],[123.9309375965884,10.38653770942211],[123.9308366029479,10.38671027439251],[123.9306341684709,10.38690466797419],[123.9304241866952,10.38699859129948],[123.9301417446539,10.38710707962225],[123.9298523699749,10.38732325920173],[123.9296791274072,10.38758217015228],[123.9295060542635,10.38789850366171],[123.9292970894601,10.38833696846529],[123.9292685973085,10.38850932306726],[123.9292332997565,10.38883243590348],[123.9292776711585,10.38912660599354],[123.9293293994983,10.38945664522415],[123.9294105747724,10.38993733764096],[123.9293247154757,10.39032519940731],[123.9292316070317,10.39071308125217],[123.9291019059064,10.39098622192003],[123.9288486945082,10.39117358324649],[123.9287259901862,10.39136056749812],[123.9286251838461,10.39159773389558],[123.9286331554946,10.39184176293682],[123.928728004466,10.39204247333614],[123.9287868556764,10.39232942305941],[123.9287222591211,10.39255212863899],[123.9285345758858,10.39283261548279],[123.928382677516,10.39295508078051],[123.9282382409185,10.39314930536129],[123.9281880819937,10.39335043552599],[123.928254331401,10.39368761041036],[123.9283129715596,10.39390278078228],[123.9285464904321,10.3944117443231],[123.9285511270886,10.39442215341207],[123.9287004666923,10.39478496287259],[123.9287080359407,10.39510036655585],[123.9287457946027,10.39560989577529],[123.9286375887274,10.39579683810073],[123.9283988955366,10.39599133577381],[123.9281528248331,10.39614278572736],[123.9279065410345,10.39622245700245],[123.9276457782452,10.39630934753811],[123.927537338435,10.39641733174502],[123.9274724861738,10.39655390185908],[123.927465723391,10.39671901595507],[123.9275385672264,10.39683365329434],[123.9276547445454,10.3968907412162],[123.9278288419645,10.39691894947894],[123.9280678753747,10.3968392992059],[123.9284081609634,10.39667322048499],[123.9286976923627,10.3965072875337],[123.9289580314984,10.39627683646001],[123.9291108976423,10.39611418257605],[123.9290087233367,10.39639917711495],[123.928752080639,10.39657390629026],[123.9287520496382,10.39657392537028],[123.9285170765857,10.39669920876869],[123.928517044666,10.39669922604305],[123.9281627665499,10.39687634908995],[123.928162736465,10.39687636907201],[123.9281239063421,10.39688438971163],[123.927536922403,10.3969931954151],[123.9272537847264,10.39704202628671],[123.9270376839688,10.39701479464346],[123.9269389246799,10.3969184504424],[123.926930224559,10.39690996327232],[123.9270396032558,10.39701731123004]]]]}},{"type":"Feature","properties":{"name":"ML","level":2,"LndslideSu":"ML"},"geometry":{"type":"Polygon","coordinates":[[[123.9241877258135,10.36239918044184],[123.9242389112347,10.36240791919778],[123.9242901529251,10.36242276645197],[123.9243482121372,10.36245015417854],[123.9243774034487,10.36247118249621],[123.9243825189986,10.36247486735973],[123.9244242558292,10.36251852001837],[123.9244505021422,10.36256995905887],[123.9244575975342,10.36260967258938],[123.9244618813744,10.36267796341402],[123.9244544194756,10.36274626358123],[123.924439962977,10.36280642690364],[123.9244269448431,10.36284161063779],[123.9244010432602,10.36289125165406],[123.9243698859913,10.36293863703111],[123.9243392680246,10.36297713412293],[123.9242534337266,10.36306261276203],[123.9241377327969,10.36316343756574],[123.9240268512221,10.36325946374066],[123.9239448693994,10.36332190911185],[123.9238871240141,10.36340821129183],[123.9236673109911,10.36357892228188],[123.9235468322925,10.36369890232512],[123.9234002932536,10.36393480121683],[123.9233904897949,10.36395058258708],[123.9232942473395,10.3640944194154],[123.9232340428682,10.36416637250946],[123.9231735105982,10.36424928506317],[123.9231377643363,10.36429824617851],[123.9230777313869,10.3644059701876],[123.9228438569185,10.36388918796339],[123.9228006901424,10.3637938021747],[123.9225165543003,10.36316593269864],[123.9225637200163,10.36312678724483],[123.9226722387426,10.36304871451717],[123.9226956872545,10.36303150318117],[123.9228406514023,10.36291215946608],[123.9228913384434,10.36287043166424],[123.9229133188783,10.36285062642013],[123.9230036953968,10.36276662358549],[123.9230323829328,10.36274256416437],[123.9232267732037,10.3626104586899],[123.9233885591365,10.36252978485935],[123.9235331892066,10.36245371888112],[123.9235761031352,10.36243403435493],[123.9238121192021,10.36240544389489],[123.9239905087106,10.36240298901832],[123.9240277286452,10.36239854498678],[123.9241643668186,10.36239796252159],[123.9241877258135,10.36239918044184]]]}}]}