<?xml version="1.0" encoding="UTF-8" standalone="no" ?><gpx xmlns="http://www.topografix.com/GPX/1/1" xmlns:gpxx="http://www.garmin.com/xmlschemas/GpxExtensions/v3" xmlns:wptx1="http://www.garmin.com/xmlschemas/WaypointExtension/v1" xmlns:gpxtpx="http://www.garmin.com/xmlschemas/TrackPointExtension/v1" creator="eTrex 22x" version="1.1" xmlns:xsi="http://www.w3.org/2001/XMLSchema-instance" xsi:schemaLocation="http://www.topografix.com/GPX/1/1 http://www.topografix.com/GPX/1/1/gpx.xsd http://www.garmin.com/xmlschemas/GpxExtensions/v3 http://www8.garmin.com/xmlschemas/GpxExtensionsv3.xsd http://www.garmin.com/xmlschemas/TrackStatsExtension/v1 http://www8.garmin.com/xmlschemas/TrackStatsExtension.xsd http://www.garmin.com/xmlschemas/WaypointExtension/v1 http://www8.garmin.com/xmlschemas/WaypointExtensionv1.xsd http://www.garmin.com/xmlschemas/TrackPointExtension/v1 http://www.garmin.com/xmlschemas/TrackPointExtensionv1.xsd"><metadata><link href="http://www.garmin.com"><text>Garmin International</text></link><time>2024-07-18T06:59:19Z</time></metadata><wpt lat="10.324905" lon="123.941714"><time>2024-07-18T06:59:19Z</time><name>1998</name><sym>Flag, Blue</sym></wpt><wpt lat="10.324905" lon="123.941714"><time>2024-07-18T07:00:12Z</time><name>1999</name><sym>Flag, Blue</sym></wpt><wpt lat="10.324905" lon="123.941714"><time>2024-07-18T07:01:14Z</time><name>2000</name><sym>Flag, Blue</sym></wpt><wpt lat="10.317988" lon="123.930020"><ele>26.035275</ele><time>2024-07-18T07:03:08Z</time><name>001</name><sym>Flag, Blue</sym></wpt><wpt lat="10.318054" lon="123.930017"><ele>21.153942</ele><time>2024-07-18T07:04:38Z</time><name>002</name><sym>Flag, Blue</sym></wpt><wpt lat="10.318136" lon="123.930084"><ele>18.954861</ele><time>2024-07-18T07:05:08Z</time><name>003</name><sym>Flag, Blue</sym></wpt><wpt lat="10.318237" lon="123.930125"><ele>20.535248</ele><time>2024-07-18T07:05:44Z</time><name>004</name><sym>Flag, Blue</sym></wpt><wpt lat="10.318266" lon="123.930139"><ele>19.487284</ele><time>2024-07-18T07:06:08Z</time><name>005</name><sym>Flag, Blue</sym></wpt><wpt lat="10.318299" lon="123.930160"><ele>18.639786</ele><time>2024-07-18T07:06:32Z</time><name>006</name><sym>Flag, Blue</sym></wpt><wpt lat="10.318335" lon="123.930188"><ele>20.119907</ele><time>2024-07-18T07:06:58Z</time><name>007</name><sym>Flag, Blue</sym></wpt><wpt lat="10.318353" lon="123.930222"><ele>21.367023</ele><time>2024-07-18T07:07:16Z</time><name>008</name><sym>Flag, Blue</sym></wpt><wpt lat="10.318401" lon="123.930254"><ele>19.868973</ele><time>2024-07-18T07:07:43Z</time><name>009</name><sym>Flag, Blue</sym></wpt><wpt lat="10.318425" lon="123.930257"><ele>18.610939</ele><time>2024-07-18T07:08:01Z</time><name>010</name><sym>Flag, Blue</sym></wpt><wpt lat="10.318456" lon="123.930273"><ele>18.004536</ele><time>2024-07-18T07:08:30Z</time><name>011</name><sym>Flag, Blue</sym></wpt><wpt lat="10.318499" lon="123.930286"><ele>19.647480</ele><time>2024-07-18T07:08:51Z</time><name>012</name><sym>Flag, Blue</sym></wpt><wpt lat="10.318723" lon="123.930427"><ele>17.901058</ele><time>2024-07-18T07:09:37Z</time><name>013</name><sym>Flag, Blue</sym></wpt><wpt lat="10.318792" lon="123.930472"><ele>17.164257</ele><time>2024-07-18T07:09:56Z</time><name>014</name><sym>Flag, Blue</sym></wpt><wpt lat="10.318821" lon="123.930494"><ele>19.670147</ele><time>2024-07-18T07:10:15Z</time><name>015</name><sym>Flag, Blue</sym></wpt><wpt lat="10.318900" lon="123.930520"><ele>20.872974</ele><time>2024-07-18T07:10:38Z</time><name>016</name><sym>Flag, Blue</sym></wpt><wpt lat="10.318946" lon="123.930574"><ele>19.910320</ele><time>2024-07-18T07:11:03Z</time><name>017</name><sym>Flag, Blue</sym></wpt><wpt lat="10.319014" lon="123.930618"><ele>17.737331</ele><time>2024-07-18T07:11:33Z</time><name>018</name><sym>Flag, Blue</sym></wpt><wpt lat="10.319059" lon="123.930638"><ele>17.893782</ele><time>2024-07-18T07:11:49Z</time><name>019</name><sym>Flag, Blue</sym></wpt><wpt lat="10.319111" lon="123.930715"><ele>18.484325</ele><time>2024-07-18T07:12:10Z</time><name>020</name><sym>Flag, Blue</sym></wpt><wpt lat="10.319179" lon="123.930739"><ele>19.292801</ele><time>2024-07-18T07:12:34Z</time><name>021</name><sym>Flag, Blue</sym></wpt><wpt lat="10.319170" lon="123.930808"><ele>19.148796</ele><time>2024-07-18T07:12:48Z</time><name>022</name><sym>Flag, Blue</sym></wpt><wpt lat="10.318931" lon="123.931249"><ele>18.000000</ele><time>2024-07-18T07:14:52Z</time><name>023</name><sym>Flag, Blue</sym></wpt><wpt lat="10.318917" lon="123.931332"><ele>19.092106</ele><time>2024-07-18T07:15:24Z</time><name>024</name><sym>Flag, Blue</sym></wpt><wpt lat="10.319104" lon="123.931186"><ele>15.490829</ele><time>2024-07-18T07:16:39Z</time><name>025</name><sym>Flag, Blue</sym></wpt><wpt lat="10.319017" lon="123.931317"><ele>13.114616</ele><time>2024-07-18T07:17:17Z</time><name>026</name><sym>Flag, Blue</sym></wpt><wpt lat="10.318938" lon="123.931445"><ele>12.774158</ele><time>2024-07-18T07:17:39Z</time><name>027</name><sym>Flag, Blue</sym></wpt><wpt lat="10.318443" lon="123.932108"><ele>18.842697</ele><time>2024-07-18T07:19:41Z</time><name>028</name><sym>Flag, Blue</sym></wpt><wpt lat="10.317563" lon="123.931758"><ele>18.419331</ele><time>2024-07-18T07:22:25Z</time><name>029</name><sym>Flag, Blue</sym></wpt><wpt lat="10.317500" lon="123.931735"><ele>18.598370</ele><time>2024-07-18T07:22:48Z</time><name>030</name><sym>Flag, Blue</sym></wpt><wpt lat="10.317056" lon="123.931424"><ele>19.305918</ele><time>2024-07-18T07:24:05Z</time><name>031</name><sym>Flag, Blue</sym></wpt><wpt lat="10.316279" lon="123.930910"><ele>19.788008</ele><time>2024-07-18T07:25:58Z</time><name>032</name><sym>Flag, Blue</sym></wpt><wpt lat="10.319373" lon="123.930996"><ele>19.117455</ele><time>2024-07-18T07:29:37Z</time><name>033</name><sym>Flag, Blue</sym></wpt><wpt lat="10.319368" lon="123.930959"><ele>20.396812</ele><time>2024-07-18T07:29:49Z</time><name>034</name><sym>Flag, Blue</sym></wpt><wpt lat="10.319459" lon="123.930968"><ele>18.930531</ele><time>2024-07-18T07:30:36Z</time><name>035</name><sym>Flag, Blue</sym></wpt><wpt lat="10.319493" lon="123.930942"><ele>18.834896</ele><time>2024-07-18T07:30:55Z</time><name>036</name><sym>Flag, Blue</sym></wpt><wpt lat="10.319510" lon="123.930943"><ele>17.269939</ele><time>2024-07-18T07:31:07Z</time><name>037</name><sym>Flag, Blue</sym></wpt><wpt lat="10.319608" lon="123.930957"><ele>17.997318</ele><time>2024-07-18T07:31:26Z</time><name>038</name><sym>Flag, Blue</sym></wpt><wpt lat="10.319654" lon="123.930955"><ele>20.112825</ele><time>2024-07-18T07:31:40Z</time><name>039</name><sym>Flag, Blue</sym></wpt><wpt lat="10.319697" lon="123.930972"><ele>20.559893</ele><time>2024-07-18T07:31:53Z</time><name>040</name><sym>Flag, Blue</sym></wpt><wpt lat="10.319766" lon="123.930999"><ele>23.316523</ele><time>2024-07-18T07:32:08Z</time><name>041</name><sym>Flag, Blue</sym></wpt><wpt lat="10.319806" lon="123.931036"><ele>23.358974</ele><time>2024-07-18T07:32:29Z</time><name>042</name><sym>Flag, Blue</sym></wpt><wpt lat="10.319795" lon="123.931076"><ele>22.908794</ele><time>2024-07-18T07:32:39Z</time><name>043</name><sym>Flag, Blue</sym></wpt><wpt lat="10.319833" lon="123.931072"><ele>22.114971</ele><time>2024-07-18T07:32:53Z</time><name>044</name><sym>Flag, Blue</sym></wpt><wpt lat="10.319907" lon="123.931148"><ele>21.157747</ele><time>2024-07-18T07:33:14Z</time><name>045</name><sym>Flag, Blue</sym></wpt><wpt lat="10.319960" lon="123.931179"><ele>19.078884</ele><time>2024-07-18T07:33:34Z</time><name>046</name><sym>Flag, Blue</sym></wpt><wpt lat="10.319990" lon="123.931201"><ele>18.459484</ele><time>2024-07-18T07:33:45Z</time><name>047</name><sym>Flag, Blue</sym></wpt><wpt lat="10.320029" lon="123.931234"><ele>17.218426</ele><time>2024-07-18T07:33:58Z</time><name>048</name><sym>Flag, Blue</sym></wpt><wpt lat="10.320050" lon="123.931250"><ele>17.081249</ele><time>2024-07-18T07:34:07Z</time><name>049</name><sym>Flag, Blue</sym></wpt><wpt lat="10.320067" lon="123.931259"><ele>17.465252</ele><time>2024-07-18T07:34:18Z</time><name>050</name><sym>Flag, Blue</sym></wpt><wpt lat="10.320072" lon="123.931283"><ele>15.733276</ele><time>2024-07-18T07:34:53Z</time><name>051</name><sym>Flag, Blue</sym></wpt><wpt lat="10.320112" lon="123.931301"><ele>13.101532</ele><time>2024-07-18T07:35:04Z</time><name>052</name><sym>Flag, Blue</sym></wpt><wpt lat="10.320124" lon="123.931325"><ele>12.396778</ele><time>2024-07-18T07:35:13Z</time><name>053</name><sym>Flag, Blue</sym></wpt><wpt lat="10.320142" lon="123.931334"><ele>12.563555</ele><time>2024-07-18T07:35:26Z</time><name>054</name><sym>Flag, Blue</sym></wpt><wpt lat="10.320162" lon="123.931371"><ele>14.816048</ele><time>2024-07-18T07:35:40Z</time><name>055</name><sym>Flag, Blue</sym></wpt><wpt lat="10.320190" lon="123.931398"><ele>14.719330</ele><time>2024-07-18T07:36:06Z</time><name>056</name><sym>Flag, Blue</sym></wpt><wpt lat="10.320208" lon="123.931417"><ele>14.904469</ele><time>2024-07-18T07:36:16Z</time><name>057</name><sym>Flag, Blue</sym></wpt><wpt lat="10.320219" lon="123.931451"><ele>14.564775</ele><time>2024-07-18T07:36:39Z</time><name>058</name><sym>Flag, Blue</sym></wpt><wpt lat="10.320254" lon="123.931463"><ele>13.824859</ele><time>2024-07-18T07:36:49Z</time><name>059</name><sym>Flag, Blue</sym></wpt><wpt lat="10.320280" lon="123.931467"><ele>13.377182</ele><time>2024-07-18T07:37:18Z</time><name>060</name><sym>Flag, Blue</sym></wpt><wpt lat="10.320299" lon="123.931479"><ele>13.038780</ele><time>2024-07-18T07:37:28Z</time><name>061</name><sym>Flag, Blue</sym></wpt><wpt lat="10.320323" lon="123.931503"><ele>12.798759</ele><time>2024-07-18T07:37:36Z</time><name>062</name><sym>Flag, Blue</sym></wpt><wpt lat="10.320335" lon="123.931514"><ele>11.142458</ele><time>2024-07-18T07:37:46Z</time><name>063</name><sym>Flag, Blue</sym></wpt><wpt lat="10.320353" lon="123.931526"><ele>10.830666</ele><time>2024-07-18T07:37:58Z</time><name>064</name><sym>Flag, Blue</sym></wpt><wpt lat="10.320382" lon="123.931574"><ele>12.958578</ele><time>2024-07-18T07:38:12Z</time><name>065</name><sym>Flag, Blue</sym></wpt><wpt lat="10.320406" lon="123.931596"><ele>10.230057</ele><time>2024-07-18T07:38:32Z</time><name>066</name><sym>Flag, Blue</sym></wpt><wpt lat="10.320417" lon="123.931600"><ele>9.423920</ele><time>2024-07-18T07:38:41Z</time><name>067</name><sym>Flag, Blue</sym></wpt><wpt lat="10.320479" lon="123.931665"><ele>9.528000</ele><time>2024-07-18T07:39:04Z</time><name>068</name><sym>Flag, Blue</sym></wpt><wpt lat="10.320505" lon="123.931696"><ele>15.484837</ele><time>2024-07-18T07:39:28Z</time><name>069</name><sym>Flag, Blue</sym></wpt><wpt lat="10.320533" lon="123.931702"><ele>15.675610</ele><time>2024-07-18T07:39:39Z</time><name>070</name><sym>Flag, Blue</sym></wpt><wpt lat="10.320581" lon="123.931725"><ele>14.383312</ele><time>2024-07-18T07:39:50Z</time><name>071</name><sym>Flag, Blue</sym></wpt><wpt lat="10.320590" lon="123.931681"><ele>10.853214</ele><time>2024-07-18T07:40:22Z</time><name>072</name><sym>Flag, Blue</sym></wpt><wpt lat="10.320650" lon="123.931748"><ele>5.867432</ele><time>2024-07-18T07:40:39Z</time><name>073</name><sym>Flag, Blue</sym></wpt><wpt lat="10.321919" lon="123.933034"><ele>16.810635</ele><time>2024-07-18T07:42:38Z</time><name>074</name><sym>Flag, Blue</sym></wpt><wpt lat="10.322017" lon="123.933112"><ele>14.786528</ele><time>2024-07-18T07:43:32Z</time><name>075</name><sym>Flag, Blue</sym></wpt><wpt lat="10.322031" lon="123.933121"><ele>15.716003</ele><time>2024-07-18T07:43:43Z</time><name>076</name><sym>Flag, Blue</sym></wpt><wpt lat="10.322055" lon="123.933145"><ele>16.115540</ele><time>2024-07-18T07:43:53Z</time><name>077</name><sym>Flag, Blue</sym></wpt><wpt lat="10.322101" lon="123.933185"><ele>16.764639</ele><time>2024-07-18T07:44:09Z</time><name>078</name><sym>Flag, Blue</sym></wpt><wpt lat="10.322150" lon="123.933232"><ele>15.445793</ele><time>2024-07-18T07:44:22Z</time><name>079</name><sym>Flag, Blue</sym></wpt><wpt lat="10.322283" lon="123.933349"><ele>14.464096</ele><time>2024-07-18T07:44:53Z</time><name>080</name><sym>Flag, Blue</sym></wpt><wpt lat="10.322369" lon="123.933441"><ele>12.872276</ele><time>2024-07-18T07:45:20Z</time><name>081</name><sym>Flag, Blue</sym></wpt><wpt lat="10.322539" lon="123.933600"><ele>12.838669</ele><time>2024-07-18T07:45:50Z</time><name>082</name><sym>Flag, Blue</sym></wpt><wpt lat="10.322602" lon="123.933642"><ele>14.221855</ele><time>2024-07-18T07:46:04Z</time><name>083</name><sym>Flag, Blue</sym></wpt><wpt lat="10.322626" lon="123.933686"><ele>15.154496</ele><time>2024-07-18T07:46:22Z</time><name>084</name><sym>Flag, Blue</sym></wpt><wpt lat="10.322912" lon="123.933951"><ele>20.991837</ele><time>2024-07-18T07:47:22Z</time><name>085</name><sym>Flag, Blue</sym></wpt><wpt lat="10.322944" lon="123.933985"><ele>22.601843</ele><time>2024-07-18T07:47:33Z</time><name>086</name><sym>Flag, Blue</sym></wpt><wpt lat="10.322963" lon="123.934020"><ele>24.908512</ele><time>2024-07-18T07:48:03Z</time><name>087</name><sym>Flag, Blue</sym></wpt><wpt lat="10.323029" lon="123.934051"><ele>27.286510</ele><time>2024-07-18T07:48:33Z</time><name>088</name><sym>Flag, Blue</sym></wpt><wpt lat="10.323043" lon="123.934060"><ele>25.912016</ele><time>2024-07-18T07:48:40Z</time><name>089</name><sym>Flag, Blue</sym></wpt><wpt lat="10.323127" lon="123.934180"><ele>21.052101</ele><time>2024-07-18T07:49:26Z</time><name>090</name><sym>Flag, Blue</sym></wpt><wpt lat="10.323267" lon="123.934296"><ele>20.556087</ele><time>2024-07-18T07:50:00Z</time><name>091</name><sym>Flag, Blue</sym></wpt><wpt lat="10.323471" lon="123.934499"><ele>21.688810</ele><time>2024-07-18T07:50:36Z</time><name>092</name><sym>Flag, Blue</sym></wpt><wpt lat="10.323490" lon="123.934610"><ele>20.919060</ele><time>2024-07-18T07:51:13Z</time><name>093</name><sym>Flag, Blue</sym></wpt><wpt lat="10.323445" lon="123.934673"><ele>21.195488</ele><time>2024-07-18T07:51:32Z</time><name>094</name><sym>Flag, Blue</sym></wpt><wpt lat="10.323383" lon="123.934706"><ele>20.927906</ele><time>2024-07-18T07:51:49Z</time><name>095</name><sym>Flag, Blue</sym></wpt><wpt lat="10.323339" lon="123.934754"><ele>22.307888</ele><time>2024-07-18T07:52:11Z</time><name>096</name><sym>Flag, Blue</sym></wpt></gpx>