<?xml version="1.0" encoding="UTF-8" standalone="no" ?><gpx xmlns="http://www.topografix.com/GPX/1/1" xmlns:gpxx="http://www.garmin.com/xmlschemas/GpxExtensions/v3" xmlns:wptx1="http://www.garmin.com/xmlschemas/WaypointExtension/v1" xmlns:gpxtpx="http://www.garmin.com/xmlschemas/TrackPointExtension/v1" creator="eTrex 22x" version="1.1" xmlns:xsi="http://www.w3.org/2001/XMLSchema-instance" xsi:schemaLocation="http://www.topografix.com/GPX/1/1 http://www.topografix.com/GPX/1/1/gpx.xsd http://www.garmin.com/xmlschemas/GpxExtensions/v3 http://www8.garmin.com/xmlschemas/GpxExtensionsv3.xsd http://www.garmin.com/xmlschemas/TrackStatsExtension/v1 http://www8.garmin.com/xmlschemas/TrackStatsExtension.xsd http://www.garmin.com/xmlschemas/WaypointExtension/v1 http://www8.garmin.com/xmlschemas/WaypointExtensionv1.xsd http://www.garmin.com/xmlschemas/TrackPointExtension/v1 http://www.garmin.com/xmlschemas/TrackPointExtensionv1.xsd"><metadata><link href="http://www.garmin.com"><text>Garmin International</text></link><time>2024-07-22T00:45:57Z</time></metadata><wpt lat="10.320793" lon="123.934443"><time>2024-07-22T00:45:57Z</time><name>200</name><sym>Flag, Blue</sym></wpt><wpt lat="10.326301" lon="123.940216"><ele>-14.764580</ele><time>2024-07-22T02:11:49Z</time><name>201</name><sym>Flag, Blue</sym></wpt><wpt lat="10.326231" lon="123.940179"><ele>-19.839275</ele><time>2024-07-22T02:13:02Z</time><name>202</name><sym>Flag, Blue</sym></wpt><wpt lat="10.326256" lon="123.940123"><ele>-18.996647</ele><time>2024-07-22T02:13:24Z</time><name>203</name><sym>Flag, Blue</sym></wpt><wpt lat="10.326182" lon="123.940048"><ele>-5.435726</ele><time>2024-07-22T02:13:46Z</time><name>204</name><sym>Flag, Blue</sym></wpt><wpt lat="10.325955" lon="123.939651"><ele>14.052635</ele><time>2024-07-22T02:15:48Z</time><name>205</name><sym>Flag, Blue</sym></wpt><wpt lat="10.325929" lon="123.939626"><ele>12.465965</ele><time>2024-07-22T02:16:43Z</time><name>206</name><sym>Flag, Blue</sym></wpt><wpt lat="10.325891" lon="123.939611"><ele>14.068962</ele><time>2024-07-22T02:17:10Z</time><name>207</name><sym>Flag, Blue</sym></wpt><wpt lat="10.325779" lon="123.939574"><ele>13.573685</ele><time>2024-07-22T02:17:40Z</time><name>208</name><sym>Flag, Blue</sym></wpt><wpt lat="10.325716" lon="123.939533"><ele>13.968175</ele><time>2024-07-22T02:18:10Z</time><name>209</name><sym>Flag, Blue</sym></wpt><wpt lat="10.325701" lon="123.939529"><ele>11.956310</ele><time>2024-07-22T02:18:33Z</time><name>210</name><sym>Flag, Blue</sym></wpt><wpt lat="10.325640" lon="123.939535"><ele>14.425705</ele><time>2024-07-22T02:19:45Z</time><name>211</name><sym>Flag, Blue</sym></wpt><wpt lat="10.325619" lon="123.939517"><ele>15.339043</ele><time>2024-07-22T02:22:31Z</time><name>212</name><sym>Flag, Blue</sym></wpt><wpt lat="10.325607" lon="123.939532"><ele>16.279911</ele><time>2024-07-22T02:23:12Z</time><name>213</name><sym>Flag, Blue</sym></wpt><wpt lat="10.325581" lon="123.939517"><ele>15.932680</ele><time>2024-07-22T02:23:34Z</time><name>214</name><sym>Flag, Blue</sym></wpt><wpt lat="10.325498" lon="123.939457"><ele>17.461918</ele><time>2024-07-22T02:24:06Z</time><name>215</name><sym>Flag, Blue</sym></wpt><wpt lat="10.325493" lon="123.939399"><ele>17.761927</ele><time>2024-07-22T02:24:28Z</time><name>216</name><sym>Flag, Blue</sym></wpt><wpt lat="10.325494" lon="123.939403"><ele>16.538010</ele><time>2024-07-22T02:24:47Z</time><name>217</name><sym>Flag, Blue</sym></wpt><wpt lat="10.325502" lon="123.939339"><ele>18.263260</ele><time>2024-07-22T02:26:01Z</time><name>218</name><sym>Flag, Blue</sym></wpt><wpt lat="10.325530" lon="123.939297"><ele>16.970314</ele><time>2024-07-22T02:27:08Z</time><name>219</name><sym>Flag, Blue</sym></wpt><wpt lat="10.325577" lon="123.939195"><ele>16.654270</ele><time>2024-07-22T02:27:40Z</time><name>220</name><sym>Flag, Blue</sym></wpt><wpt lat="10.325609" lon="123.939095"><ele>15.721012</ele><time>2024-07-22T02:28:12Z</time><name>221</name><sym>Flag, Blue</sym></wpt><wpt lat="10.325777" lon="123.938710"><ele>14.927418</ele><time>2024-07-22T02:29:18Z</time><name>222</name><sym>Flag, Blue</sym></wpt><wpt lat="10.325806" lon="123.938616"><ele>16.277937</ele><time>2024-07-22T02:29:55Z</time><name>223</name><sym>Flag, Blue</sym></wpt><wpt lat="10.325824" lon="123.938555"><ele>16.008778</ele><time>2024-07-22T02:30:19Z</time><name>224</name><sym>Flag, Blue</sym></wpt><wpt lat="10.325459" lon="123.939611"><ele>14.068298</ele><time>2024-07-22T02:34:36Z</time><name>225</name><sym>Flag, Blue</sym></wpt><wpt lat="10.325602" lon="123.939651"><ele>14.411049</ele><time>2024-07-22T02:35:27Z</time><name>226</name><sym>Flag, Blue</sym></wpt><wpt lat="10.326715" lon="123.940076"><ele>14.528313</ele><time>2024-07-22T02:39:26Z</time><name>227</name><sym>Flag, Blue</sym></wpt><wpt lat="10.326720" lon="123.940091"><ele>19.048820</ele><time>2024-07-22T02:40:01Z</time><name>228</name><sym>Flag, Blue</sym></wpt><wpt lat="10.326697" lon="123.940032"><ele>17.984341</ele><time>2024-07-22T02:40:52Z</time><name>229</name><sym>Flag, Blue</sym></wpt><wpt lat="10.326490" lon="123.939816"><ele>17.162283</ele><time>2024-07-22T02:41:52Z</time><name>230</name><sym>Flag, Blue</sym></wpt><wpt lat="10.326476" lon="123.939763"><time>2024-07-22T02:44:05Z</time><name>231</name><sym>Flag, Blue</sym></wpt><wpt lat="10.326468" lon="123.939749"><ele>12.985928</ele><time>2024-07-22T02:45:25Z</time><name>232</name><sym>Flag, Blue</sym></wpt><wpt lat="10.326487" lon="123.939766"><ele>13.673794</ele><time>2024-07-22T02:46:26Z</time><name>233</name><sym>Flag, Blue</sym></wpt><wpt lat="10.326684" lon="123.939571"><ele>11.813194</ele><time>2024-07-22T02:47:49Z</time><name>234</name><sym>Flag, Blue</sym></wpt><wpt lat="10.326725" lon="123.939604"><ele>14.746704</ele><time>2024-07-22T02:48:08Z</time><name>235</name><sym>Flag, Blue</sym></wpt><wpt lat="10.327184" lon="123.939634"><ele>15.339199</ele><time>2024-07-22T02:52:10Z</time><name>236</name><sym>Flag, Blue</sym></wpt><wpt lat="10.327346" lon="123.939579"><ele>15.917691</ele><time>2024-07-22T02:53:50Z</time><name>237</name><sym>Flag, Blue</sym></wpt><wpt lat="10.328841" lon="123.941472"><ele>29.695202</ele><time>2024-07-22T03:07:23Z</time><name>238</name><sym>Flag, Blue</sym></wpt><wpt lat="10.329301" lon="123.940723"><ele>17.212528</ele><time>2024-07-22T03:11:33Z</time><name>239</name><sym>Flag, Blue</sym></wpt><wpt lat="10.329271" lon="123.940673"><ele>18.571125</ele><time>2024-07-22T03:12:32Z</time><name>240</name><sym>Flag, Blue</sym></wpt><wpt lat="10.329352" lon="123.940561"><ele>16.793858</ele><time>2024-07-22T03:13:25Z</time><name>241</name><sym>Flag, Blue</sym></wpt><wpt lat="10.329372" lon="123.940507"><ele>16.538097</ele><time>2024-07-22T03:13:53Z</time><name>242</name><sym>Flag, Blue</sym></wpt><wpt lat="10.329173" lon="123.941670"><time>2024-07-22T05:21:10Z</time><name>243</name><sym>Flag, Blue</sym></wpt><wpt lat="10.322572" lon="123.935572"><ele>17.197811</ele><time>2024-07-22T05:22:22Z</time><name>244</name><sym>Flag, Blue</sym></wpt><wpt lat="10.322673" lon="123.935471"><ele>16.821739</ele><time>2024-07-22T05:22:46Z</time><name>245</name><sym>Flag, Blue</sym></wpt><wpt lat="10.322737" lon="123.935402"><ele>17.917629</ele><time>2024-07-22T05:22:59Z</time><name>246</name><sym>Flag, Blue</sym></wpt><wpt lat="10.322976" lon="123.935260"><ele>18.780775</ele><time>2024-07-22T05:24:09Z</time><name>247</name><sym>Flag, Blue</sym></wpt><wpt lat="10.323558" lon="123.934803"><ele>16.696199</ele><time>2024-07-22T05:25:48Z</time><name>248</name><sym>Flag, Blue</sym></wpt><wpt lat="10.323619" lon="123.934754"><ele>16.170593</ele><time>2024-07-22T05:26:20Z</time><name>249</name><sym>Flag, Blue</sym></wpt><wpt lat="10.323615" lon="123.934771"><ele>15.599861</ele><time>2024-07-22T05:26:34Z</time><name>250</name><sym>Flag, Blue</sym></wpt><wpt lat="10.323741" lon="123.934763"><ele>15.599038</ele><time>2024-07-22T05:27:13Z</time><name>251</name><sym>Flag, Blue</sym></wpt><wpt lat="10.323884" lon="123.934957"><ele>13.069397</ele><time>2024-07-22T05:27:43Z</time><name>252</name><sym>Flag, Blue</sym></wpt><wpt lat="10.323891" lon="123.934996"><ele>13.951120</ele><time>2024-07-22T05:28:11Z</time><name>253</name><sym>Flag, Blue</sym></wpt><wpt lat="10.323957" lon="123.935085"><ele>14.196963</ele><time>2024-07-22T05:28:32Z</time><name>254</name><sym>Flag, Blue</sym></wpt><wpt lat="10.323977" lon="123.935103"><ele>16.445232</ele><time>2024-07-22T05:28:46Z</time><name>255</name><sym>Flag, Blue</sym></wpt><wpt lat="10.324048" lon="123.935200"><ele>16.070677</ele><time>2024-07-22T05:29:02Z</time><name>256</name><sym>Flag, Blue</sym></wpt><wpt lat="10.324070" lon="123.935214"><ele>16.549614</ele><time>2024-07-22T05:29:14Z</time><name>257</name><sym>Flag, Blue</sym></wpt><wpt lat="10.324081" lon="123.935233"><ele>16.244667</ele><time>2024-07-22T05:29:20Z</time><name>258</name><sym>Flag, Blue</sym></wpt><wpt lat="10.324093" lon="123.935238"><ele>15.011193</ele><time>2024-07-22T05:29:27Z</time><name>259</name><sym>Flag, Blue</sym></wpt><wpt lat="10.324109" lon="123.935253"><ele>14.410833</ele><time>2024-07-22T05:29:34Z</time><name>260</name><sym>Flag, Blue</sym></wpt><wpt lat="10.324112" lon="123.935264"><ele>13.682472</ele><time>2024-07-22T05:29:40Z</time><name>261</name><sym>Flag, Blue</sym></wpt><wpt lat="10.324130" lon="123.935294"><ele>13.511012</ele><time>2024-07-22T05:29:47Z</time><name>262</name><sym>Flag, Blue</sym></wpt><wpt lat="10.324143" lon="123.935306"><ele>13.597589</ele><time>2024-07-22T05:29:54Z</time><name>263</name><sym>Flag, Blue</sym></wpt><wpt lat="10.324164" lon="123.935331"><ele>13.286330</ele><time>2024-07-22T05:30:01Z</time><name>264</name><sym>Flag, Blue</sym></wpt><wpt lat="10.324176" lon="123.935341"><ele>12.821491</ele><time>2024-07-22T05:30:07Z</time><name>265</name><sym>Flag, Blue</sym></wpt><wpt lat="10.324190" lon="123.935369"><ele>12.834679</ele><time>2024-07-22T05:30:15Z</time><name>266</name><sym>Flag, Blue</sym></wpt><wpt lat="10.324206" lon="123.935387"><ele>13.143760</ele><time>2024-07-22T05:30:22Z</time><name>267</name><sym>Flag, Blue</sym></wpt><wpt lat="10.324197" lon="123.935356"><ele>15.919548</ele><time>2024-07-22T05:30:54Z</time><name>268</name><sym>Flag, Blue</sym></wpt><wpt lat="10.324269" lon="123.935462"><ele>14.387740</ele><time>2024-07-22T05:31:51Z</time><name>269</name><sym>Flag, Blue</sym></wpt><wpt lat="10.324369" lon="123.935587"><ele>14.025246</ele><time>2024-07-22T05:32:48Z</time><name>270</name><sym>Flag, Blue</sym></wpt><wpt lat="10.324411" lon="123.935669"><ele>13.922241</ele><time>2024-07-22T05:33:27Z</time><name>271</name><sym>Flag, Blue</sym></wpt><wpt lat="10.324490" lon="123.935750"><ele>15.045370</ele><time>2024-07-22T05:33:54Z</time><name>272</name><sym>Flag, Blue</sym></wpt><wpt lat="10.324505" lon="123.935773"><ele>13.604671</ele><time>2024-07-22T05:34:11Z</time><name>273</name><sym>Flag, Blue</sym></wpt><wpt lat="10.324526" lon="123.935809"><ele>14.066290</ele><time>2024-07-22T05:34:26Z</time><name>274</name><sym>Flag, Blue</sym></wpt><wpt lat="10.324563" lon="123.935823"><ele>15.029849</ele><time>2024-07-22T05:34:48Z</time><name>275</name><sym>Flag, Blue</sym></wpt><wpt lat="10.324670" lon="123.936053"><ele>15.139701</ele><time>2024-07-22T05:35:34Z</time><name>276</name><sym>Flag, Blue</sym></wpt><wpt lat="10.324608" lon="123.936143"><ele>14.109449</ele><time>2024-07-22T05:36:04Z</time><name>277</name><sym>Flag, Blue</sym></wpt><wpt lat="10.324560" lon="123.936214"><ele>16.525860</ele><time>2024-07-22T05:37:07Z</time><name>278</name><sym>Flag, Blue</sym></wpt><wpt lat="10.324350" lon="123.936410"><ele>21.632187</ele><time>2024-07-22T05:37:58Z</time><name>279</name><sym>Flag, Blue</sym></wpt><wpt lat="10.324307" lon="123.936451"><ele>18.094717</ele><time>2024-07-22T05:38:20Z</time><name>280</name><sym>Flag, Blue</sym></wpt><wpt lat="10.324120" lon="123.936568"><ele>15.536344</ele><time>2024-07-22T05:38:56Z</time><name>281</name><sym>Flag, Blue</sym></wpt><wpt lat="10.324076" lon="123.936605"><ele>16.638641</ele><time>2024-07-22T05:39:07Z</time><name>282</name><sym>Flag, Blue</sym></wpt><wpt lat="10.324030" lon="123.936648"><ele>15.650574</ele><time>2024-07-22T05:39:25Z</time><name>283</name><sym>Flag, Blue</sym></wpt><wpt lat="10.324010" lon="123.936670"><ele>15.282084</ele><time>2024-07-22T05:39:35Z</time><name>284</name><sym>Flag, Blue</sym></wpt><wpt lat="10.323989" lon="123.936688"><ele>15.292856</ele><time>2024-07-22T05:39:53Z</time><name>285</name><sym>Flag, Blue</sym></wpt><wpt lat="10.323953" lon="123.936711"><ele>16.913902</ele><time>2024-07-22T05:40:35Z</time><name>286</name><sym>Flag, Blue</sym></wpt><wpt lat="10.323924" lon="123.936729"><ele>16.688042</ele><time>2024-07-22T05:40:42Z</time><name>287</name><sym>Flag, Blue</sym></wpt><wpt lat="10.323908" lon="123.936734"><ele>15.993141</ele><time>2024-07-22T05:41:01Z</time><name>288</name><sym>Flag, Blue</sym></wpt><wpt lat="10.323811" lon="123.936824"><ele>13.567211</ele><time>2024-07-22T05:41:24Z</time><name>289</name><sym>Flag, Blue</sym></wpt><wpt lat="10.323776" lon="123.936849"><ele>16.031162</ele><time>2024-07-22T05:41:38Z</time><name>290</name><sym>Flag, Blue</sym></wpt><wpt lat="10.323758" lon="123.936859"><ele>17.786644</ele><time>2024-07-22T05:41:52Z</time><name>291</name><sym>Flag, Blue</sym></wpt><wpt lat="10.323710" lon="123.936914"><ele>18.164433</ele><time>2024-07-22T05:42:10Z</time><name>292</name><sym>Flag, Blue</sym></wpt><wpt lat="10.323663" lon="123.936949"><ele>15.753217</ele><time>2024-07-22T05:42:27Z</time><name>293</name><sym>Flag, Blue</sym></wpt><wpt lat="10.323569" lon="123.937002"><ele>17.321579</ele><time>2024-07-22T05:43:00Z</time><name>294</name><sym>Flag, Blue</sym></wpt><wpt lat="10.323543" lon="123.937029"><ele>16.483471</ele><time>2024-07-22T05:43:16Z</time><name>295</name><sym>Flag, Blue</sym></wpt><wpt lat="10.323530" lon="123.937043"><ele>16.113510</ele><time>2024-07-22T05:43:28Z</time><name>296</name><sym>Flag, Blue</sym></wpt><wpt lat="10.323520" lon="123.937056"><ele>14.705677</ele><time>2024-07-22T05:43:41Z</time><name>297</name><sym>Flag, Blue</sym></wpt><wpt lat="10.323434" lon="123.937136"><ele>12.419589</ele><time>2024-07-22T05:44:08Z</time><name>298</name><sym>Flag, Blue</sym></wpt><wpt lat="10.323315" lon="123.937213"><ele>11.624893</ele><time>2024-07-22T05:44:31Z</time><name>299</name><sym>Flag, Blue</sym></wpt><wpt lat="10.323324" lon="123.937545"><ele>15.714905</ele><time>2024-07-22T05:45:49Z</time><name>300</name><sym>Flag, Blue</sym></wpt><wpt lat="10.323340" lon="123.937596"><ele>16.663120</ele><time>2024-07-22T05:46:03Z</time><name>301</name><sym>Flag, Blue</sym></wpt><wpt lat="10.323339" lon="123.937570"><ele>18.424377</ele><time>2024-07-22T05:46:22Z</time><name>302</name><sym>Flag, Blue</sym></wpt><wpt lat="10.323651" lon="123.937073"><ele>12.182548</ele><time>2024-07-22T05:47:25Z</time><name>303</name><sym>Flag, Blue</sym></wpt><wpt lat="10.323825" lon="123.936939"><ele>14.419734</ele><time>2024-07-22T05:48:27Z</time><name>304</name><sym>Flag, Blue</sym></wpt><wpt lat="10.324271" lon="123.936601"><ele>15.095694</ele><time>2024-07-22T05:50:21Z</time><name>305</name><sym>Flag, Blue</sym></wpt><wpt lat="10.324722" lon="123.936206"><ele>17.696087</ele><time>2024-07-22T05:51:32Z</time><name>306</name><sym>Flag, Blue</sym></wpt><wpt lat="10.325258" lon="123.936512"><ele>14.020109</ele><time>2024-07-22T05:53:05Z</time><name>307</name><sym>Flag, Blue</sym></wpt><wpt lat="10.325225" lon="123.936535"><ele>15.910244</ele><time>2024-07-22T05:53:33Z</time><name>308</name><sym>Flag, Blue</sym></wpt><wpt lat="10.325146" lon="123.936675"><ele>18.267588</ele><time>2024-07-22T05:54:15Z</time><name>309</name><sym>Flag, Blue</sym></wpt><wpt lat="10.325483" lon="123.936832"><ele>20.586674</ele><time>2024-07-22T05:55:12Z</time><name>310</name><sym>Flag, Blue</sym></wpt><wpt lat="10.325461" lon="123.936817"><ele>21.566341</ele><time>2024-07-22T05:55:40Z</time><name>311</name><sym>Flag, Blue</sym></wpt><wpt lat="10.325550" lon="123.936900"><ele>18.537243</ele><time>2024-07-22T05:56:01Z</time><name>312</name><sym>Flag, Blue</sym></wpt><wpt lat="10.325621" lon="123.936949"><ele>17.305403</ele><time>2024-07-22T05:56:34Z</time><name>313</name><sym>Flag, Blue</sym></wpt><wpt lat="10.325618" lon="123.936972"><ele>18.736835</ele><time>2024-07-22T05:56:50Z</time><name>314</name><sym>Flag, Blue</sym></wpt><wpt lat="10.325639" lon="123.937000"><ele>17.429941</ele><time>2024-07-22T05:57:49Z</time><name>315</name><sym>Flag, Blue</sym></wpt><wpt lat="10.325673" lon="123.937011"><ele>21.349163</ele><time>2024-07-22T05:58:05Z</time><name>316</name><sym>Flag, Blue</sym></wpt><wpt lat="10.325663" lon="123.937030"><ele>24.221508</ele><time>2024-07-22T05:58:29Z</time><name>317</name><sym>Flag, Blue</sym></wpt><wpt lat="10.325665" lon="123.937052"><ele>27.147551</ele><time>2024-07-22T05:58:45Z</time><name>318</name><sym>Flag, Blue</sym></wpt><wpt lat="10.325692" lon="123.937067"><ele>29.288654</ele><time>2024-07-22T05:59:00Z</time><name>319</name><sym>Flag, Blue</sym></wpt><wpt lat="10.325742" lon="123.937092"><ele>28.947222</ele><time>2024-07-22T05:59:14Z</time><name>320</name><sym>Flag, Blue</sym></wpt><wpt lat="10.325757" lon="123.937113"><ele>27.329796</ele><time>2024-07-22T05:59:35Z</time><name>321</name><sym>Flag, Blue</sym></wpt><wpt lat="10.325740" lon="123.937112"><ele>25.636406</ele><time>2024-07-22T05:59:49Z</time><name>322</name><sym>Flag, Blue</sym></wpt><wpt lat="10.325760" lon="123.937138"><ele>23.926577</ele><time>2024-07-22T06:00:02Z</time><name>323</name><sym>Flag, Blue</sym></wpt><wpt lat="10.325761" lon="123.937130"><ele>23.660234</ele><time>2024-07-22T06:00:14Z</time><name>324</name><sym>Flag, Blue</sym></wpt><wpt lat="10.325766" lon="123.937145"><ele>24.580200</ele><time>2024-07-22T06:00:32Z</time><name>325</name><sym>Flag, Blue</sym></wpt><wpt lat="10.325764" lon="123.937227"><ele>19.765461</ele><time>2024-07-22T06:01:09Z</time><name>326</name><sym>Flag, Blue</sym></wpt><wpt lat="10.325796" lon="123.937225"><ele>19.136749</ele><time>2024-07-22T06:01:37Z</time><name>327</name><sym>Flag, Blue</sym></wpt><wpt lat="10.325814" lon="123.937379"><ele>20.742786</ele><time>2024-07-22T06:02:21Z</time><name>328</name><sym>Flag, Blue</sym></wpt><wpt lat="10.325837" lon="123.937399"><ele>20.002832</ele><time>2024-07-22T06:02:50Z</time><name>329</name><sym>Flag, Blue</sym></wpt><wpt lat="10.325837" lon="123.937421"><ele>20.700018</ele><time>2024-07-22T06:03:05Z</time><name>330</name><sym>Flag, Blue</sym></wpt><wpt lat="10.325857" lon="123.937426"><ele>21.772209</ele><time>2024-07-22T06:03:37Z</time><name>331</name><sym>Flag, Blue</sym></wpt><wpt lat="10.325863" lon="123.937509"><ele>23.822912</ele><time>2024-07-22T06:04:17Z</time><name>332</name><sym>Flag, Blue</sym></wpt><wpt lat="10.325866" lon="123.937651"><ele>21.562550</ele><time>2024-07-22T06:04:58Z</time><name>333</name><sym>Flag, Blue</sym></wpt><wpt lat="10.325835" lon="123.937652"><ele>21.317104</ele><time>2024-07-22T06:05:12Z</time><name>334</name><sym>Flag, Blue</sym></wpt><wpt lat="10.325703" lon="123.937555"><ele>16.375229</ele><time>2024-07-22T06:06:13Z</time><name>335</name><sym>Flag, Blue</sym></wpt><wpt lat="10.325733" lon="123.937528"><ele>14.735710</ele><time>2024-07-22T06:06:26Z</time><name>336</name><sym>Flag, Blue</sym></wpt><wpt lat="10.325752" lon="123.937540"><ele>14.437236</ele><time>2024-07-22T06:06:41Z</time><name>337</name><sym>Flag, Blue</sym></wpt><wpt lat="10.325769" lon="123.937541"><ele>14.243226</ele><time>2024-07-22T06:06:59Z</time><name>338</name><sym>Flag, Blue</sym></wpt><wpt lat="10.325784" lon="123.937566"><ele>12.300858</ele><time>2024-07-22T06:07:11Z</time><name>339</name><sym>Flag, Blue</sym></wpt><wpt lat="10.325784" lon="123.937618"><ele>13.757448</ele><time>2024-07-22T06:07:23Z</time><name>340</name><sym>Flag, Blue</sym></wpt><wpt lat="10.325761" lon="123.937643"><ele>15.063053</ele><time>2024-07-22T06:07:36Z</time><name>341</name><sym>Flag, Blue</sym></wpt><wpt lat="10.325737" lon="123.937664"><ele>18.121874</ele><time>2024-07-22T06:07:49Z</time><name>342</name><sym>Flag, Blue</sym></wpt><wpt lat="10.325718" lon="123.937861"><ele>17.476107</ele><time>2024-07-22T06:08:14Z</time><name>343</name><sym>Flag, Blue</sym></wpt><wpt lat="10.325714" lon="123.937925"><ele>14.898510</ele><time>2024-07-22T06:08:30Z</time><name>344</name><sym>Flag, Blue</sym></wpt><wpt lat="10.325704" lon="123.937941"><ele>14.205445</ele><time>2024-07-22T06:08:43Z</time><name>345</name><sym>Flag, Blue</sym></wpt><wpt lat="10.325709" lon="123.937949"><ele>14.796351</ele><time>2024-07-22T06:08:54Z</time><name>346</name><sym>Flag, Blue</sym></wpt><wpt lat="10.325719" lon="123.938010"><ele>11.936584</ele><time>2024-07-22T06:09:14Z</time><name>347</name><sym>Flag, Blue</sym></wpt><wpt lat="10.325709" lon="123.938055"><ele>11.031719</ele><time>2024-07-22T06:09:26Z</time><name>348</name><sym>Flag, Blue</sym></wpt><wpt lat="10.325698" lon="123.938070"><ele>11.728569</ele><time>2024-07-22T06:09:38Z</time><name>349</name><sym>Flag, Blue</sym></wpt><wpt lat="10.325671" lon="123.938099"><ele>12.502726</ele><time>2024-07-22T06:09:50Z</time><name>350</name><sym>Flag, Blue</sym></wpt><wpt lat="10.325674" lon="123.938133"><ele>12.226185</ele><time>2024-07-22T06:10:10Z</time><name>351</name><sym>Flag, Blue</sym></wpt><wpt lat="10.325658" lon="123.938158"><ele>13.937836</ele><time>2024-07-22T06:10:31Z</time><name>352</name><sym>Flag, Blue</sym></wpt><wpt lat="10.325643" lon="123.938156"><ele>15.374821</ele><time>2024-07-22T06:10:46Z</time><name>353</name><sym>Flag, Blue</sym></wpt><wpt lat="10.325625" lon="123.938183"><ele>13.533912</ele><time>2024-07-22T06:11:00Z</time><name>354</name><sym>Flag, Blue</sym></wpt><wpt lat="10.325630" lon="123.938204"><ele>13.821091</ele><time>2024-07-22T06:11:29Z</time><name>355</name><sym>Flag, Blue</sym></wpt><wpt lat="10.325621" lon="123.938215"><ele>12.725929</ele><time>2024-07-22T06:11:38Z</time><name>356</name><sym>Flag, Blue</sym></wpt><wpt lat="10.325629" lon="123.938209"><ele>10.625877</ele><time>2024-07-22T06:11:56Z</time><name>357</name><sym>Flag, Blue</sym></wpt><wpt lat="10.325597" lon="123.938285"><ele>10.374900</ele><time>2024-07-22T06:12:26Z</time><name>358</name><sym>Flag, Blue</sym></wpt><wpt lat="10.325576" lon="123.938316"><ele>10.233606</ele><time>2024-07-22T06:12:39Z</time><name>359</name><sym>Flag, Blue</sym></wpt><wpt lat="10.325571" lon="123.938357"><ele>10.747025</ele><time>2024-07-22T06:13:01Z</time><name>360</name><sym>Flag, Blue</sym></wpt><wpt lat="10.325825" lon="123.938118"><ele>10.705193</ele><time>2024-07-22T06:14:09Z</time><name>361</name><sym>Flag, Blue</sym></wpt><wpt lat="10.325816" lon="123.938111"><ele>11.889913</ele><time>2024-07-22T06:14:38Z</time><name>362</name><sym>Flag, Blue</sym></wpt><wpt lat="10.325806" lon="123.938163"><ele>12.408229</ele><time>2024-07-22T06:14:54Z</time><name>363</name><sym>Flag, Blue</sym></wpt><wpt lat="10.325800" lon="123.938209"><ele>12.753891</ele><time>2024-07-22T06:15:12Z</time><name>364</name><sym>Flag, Blue</sym></wpt><wpt lat="10.325770" lon="123.938279"><ele>11.186795</ele><time>2024-07-22T06:15:31Z</time><name>365</name><sym>Flag, Blue</sym></wpt><wpt lat="10.325722" lon="123.938373"><ele>11.264462</ele><time>2024-07-22T06:15:57Z</time><name>366</name><sym>Flag, Blue</sym></wpt><wpt lat="10.325722" lon="123.938376"><ele>10.877502</ele><time>2024-07-22T06:16:12Z</time><name>367</name><sym>Flag, Blue</sym></wpt><wpt lat="10.325708" lon="123.938419"><ele>10.653813</ele><time>2024-07-22T06:16:30Z</time><name>368</name><sym>Flag, Blue</sym></wpt><wpt lat="10.325686" lon="123.938457"><ele>11.289886</ele><time>2024-07-22T06:16:45Z</time><name>369</name><sym>Flag, Blue</sym></wpt><wpt lat="10.325662" lon="123.938479"><ele>10.494218</ele><time>2024-07-22T06:17:15Z</time><name>370</name><sym>Flag, Blue</sym></wpt><wpt lat="10.325651" lon="123.938526"><ele>9.876101</ele><time>2024-07-22T06:17:34Z</time><name>371</name><sym>Flag, Blue</sym></wpt><wpt lat="10.325593" lon="123.938688"><ele>11.365396</ele><time>2024-07-22T06:17:59Z</time><name>372</name><sym>Flag, Blue</sym></wpt><wpt lat="10.325583" lon="123.938754"><ele>8.910023</ele><time>2024-07-22T06:18:18Z</time><name>373</name><sym>Flag, Blue</sym></wpt><wpt lat="10.325580" lon="123.938762"><ele>8.774692</ele><time>2024-07-22T06:18:26Z</time><name>374</name><sym>Flag, Blue</sym></wpt><wpt lat="10.325518" lon="123.938921"><ele>8.518761</ele><time>2024-07-22T06:18:56Z</time><name>375</name><sym>Flag, Blue</sym></wpt><wpt lat="10.325518" lon="123.938938"><ele>10.433136</ele><time>2024-07-22T06:19:14Z</time><name>376</name><sym>Flag, Blue</sym></wpt><wpt lat="10.325485" lon="123.938972"><ele>9.356358</ele><time>2024-07-22T06:19:33Z</time><name>377</name><sym>Flag, Blue</sym></wpt><wpt lat="10.325478" lon="123.939052"><ele>9.808216</ele><time>2024-07-22T06:19:47Z</time><name>378</name><sym>Flag, Blue</sym></wpt><wpt lat="10.325416" lon="123.939195"><ele>10.223164</ele><time>2024-07-22T06:20:14Z</time><name>379</name><sym>Flag, Blue</sym></wpt><wpt lat="10.325402" lon="123.939197"><ele>12.375458</ele><time>2024-07-22T06:20:24Z</time><name>380</name><sym>Flag, Blue</sym></wpt><wpt lat="10.325379" lon="123.939248"><ele>11.579153</ele><time>2024-07-22T06:20:36Z</time><name>381</name><sym>Flag, Blue</sym></wpt></gpx>