<?xml version="1.0" encoding="UTF-8" standalone="no" ?><gpx xmlns="http://www.topografix.com/GPX/1/1" xmlns:gpxx="http://www.garmin.com/xmlschemas/GpxExtensions/v3" xmlns:wptx1="http://www.garmin.com/xmlschemas/WaypointExtension/v1" xmlns:gpxtpx="http://www.garmin.com/xmlschemas/TrackPointExtension/v1" creator="eTrex 22x" version="1.1" xmlns:xsi="http://www.w3.org/2001/XMLSchema-instance" xsi:schemaLocation="http://www.topografix.com/GPX/1/1 http://www.topografix.com/GPX/1/1/gpx.xsd http://www.garmin.com/xmlschemas/GpxExtensions/v3 http://www8.garmin.com/xmlschemas/GpxExtensionsv3.xsd http://www.garmin.com/xmlschemas/TrackStatsExtension/v1 http://www8.garmin.com/xmlschemas/TrackStatsExtension.xsd http://www.garmin.com/xmlschemas/WaypointExtension/v1 http://www8.garmin.com/xmlschemas/WaypointExtensionv1.xsd http://www.garmin.com/xmlschemas/TrackPointExtension/v1 http://www.garmin.com/xmlschemas/TrackPointExtensionv1.xsd"><metadata><link href="http://www.garmin.com"><text>Garmin International</text></link><time>2024-07-19T06:59:16Z</time></metadata><wpt lat="10.326646" lon="123.940511"><ele>13.972618</ele><time>2024-07-19T06:59:16Z</time><name>097</name><sym>Flag, Blue</sym></wpt><wpt lat="10.322109" lon="123.934676"><ele>20.593719</ele><time>2024-07-19T07:16:12Z</time><name>098</name><sym>Flag, Blue</sym></wpt><wpt lat="10.322119" lon="123.934673"><ele>20.071899</ele><time>2024-07-19T07:16:20Z</time><name>099</name><sym>Flag, Blue</sym></wpt><wpt lat="10.322115" lon="123.934683"><ele>18.926216</ele><time>2024-07-19T07:16:24Z</time><name>100</name><sym>Flag, Blue</sym></wpt><wpt lat="10.322195" lon="123.934600"><ele>17.313156</ele><time>2024-07-19T07:17:03Z</time><name>101</name><sym>Flag, Blue</sym></wpt><wpt lat="10.322193" lon="123.934571"><ele>19.649796</ele><time>2024-07-19T07:17:31Z</time><name>102</name><sym>Flag, Blue</sym></wpt><wpt lat="10.322240" lon="123.934662"><ele>15.935219</ele><time>2024-07-19T07:18:39Z</time><name>103</name><sym>Flag, Blue</sym></wpt><wpt lat="10.322245" lon="123.934702"><ele>15.778950</ele><time>2024-07-19T07:19:11Z</time><name>104</name><sym>Flag, Blue</sym></wpt><wpt lat="10.322255" lon="123.934732"><ele>12.363924</ele><time>2024-07-19T07:19:24Z</time><name>105</name><sym>Flag, Blue</sym></wpt><wpt lat="10.322257" lon="123.934764"><ele>10.067269</ele><time>2024-07-19T07:19:45Z</time><name>106</name><sym>Flag, Blue</sym></wpt><wpt lat="10.322287" lon="123.934770"><ele>9.133060</ele><time>2024-07-19T07:19:55Z</time><name>107</name><sym>Flag, Blue</sym></wpt><wpt lat="10.322295" lon="123.934789"><ele>7.515893</ele><time>2024-07-19T07:20:06Z</time><name>108</name><sym>Flag, Blue</sym></wpt><wpt lat="10.322330" lon="123.934830"><ele>4.833279</ele><time>2024-07-19T07:20:35Z</time><name>109</name><sym>Flag, Blue</sym></wpt><wpt lat="10.322390" lon="123.934859"><ele>5.829796</ele><time>2024-07-19T07:20:56Z</time><name>110</name><sym>Flag, Blue</sym></wpt><wpt lat="10.322546" lon="123.934976"><ele>11.154230</ele><time>2024-07-19T07:21:40Z</time><name>111</name><sym>Flag, Blue</sym></wpt><wpt lat="10.322567" lon="123.934995"><ele>14.203341</ele><time>2024-07-19T07:22:27Z</time><name>112</name><sym>Flag, Blue</sym></wpt><wpt lat="10.320759" lon="123.934429"><ele>19.311445</ele><time>2024-07-19T07:28:49Z</time><name>113</name><sym>Flag, Blue</sym></wpt><wpt lat="10.320728" lon="123.934423"><ele>18.731258</ele><time>2024-07-19T07:29:08Z</time><name>114</name><sym>Flag, Blue</sym></wpt><wpt lat="10.320689" lon="123.934415"><ele>18.732609</ele><time>2024-07-19T07:29:21Z</time><name>115</name><sym>Flag, Blue</sym></wpt><wpt lat="10.320653" lon="123.934396"><ele>18.874653</ele><time>2024-07-19T07:29:28Z</time><name>116</name><sym>Flag, Blue</sym></wpt><wpt lat="10.320633" lon="123.934370"><ele>19.255516</ele><time>2024-07-19T07:29:36Z</time><name>117</name><sym>Flag, Blue</sym></wpt><wpt lat="10.320595" lon="123.934342"><ele>19.224102</ele><time>2024-07-19T07:29:45Z</time><name>118</name><sym>Flag, Blue</sym></wpt><wpt lat="10.320584" lon="123.934330"><ele>19.384541</ele><time>2024-07-19T07:29:51Z</time><name>119</name><sym>Flag, Blue</sym></wpt><wpt lat="10.320567" lon="123.934299"><ele>19.636250</ele><time>2024-07-19T07:29:58Z</time><name>120</name><sym>Flag, Blue</sym></wpt><wpt lat="10.320538" lon="123.934254"><ele>19.330557</ele><time>2024-07-19T07:30:13Z</time><name>121</name><sym>Flag, Blue</sym></wpt><wpt lat="10.320528" lon="123.934246"><ele>18.888973</ele><time>2024-07-19T07:30:20Z</time><name>122</name><sym>Flag, Blue</sym></wpt><wpt lat="10.320508" lon="123.934222"><ele>18.220016</ele><time>2024-07-19T07:30:26Z</time><name>123</name><sym>Flag, Blue</sym></wpt><wpt lat="10.320464" lon="123.934153"><ele>16.763046</ele><time>2024-07-19T07:30:38Z</time><name>124</name><sym>Flag, Blue</sym></wpt><wpt lat="10.320441" lon="123.934121"><ele>16.102680</ele><time>2024-07-19T07:30:50Z</time><name>125</name><sym>Flag, Blue</sym></wpt><wpt lat="10.320356" lon="123.934042"><ele>16.824270</ele><time>2024-07-19T07:32:02Z</time><name>126</name><sym>Flag, Blue</sym></wpt><wpt lat="10.320316" lon="123.934004"><ele>18.137754</ele><time>2024-07-19T07:32:19Z</time><name>127</name><sym>Flag, Blue</sym></wpt><wpt lat="10.320265" lon="123.933971"><ele>18.157059</ele><time>2024-07-19T07:32:30Z</time><name>128</name><sym>Flag, Blue</sym></wpt><wpt lat="10.320239" lon="123.933924"><ele>15.059998</ele><time>2024-07-19T07:32:48Z</time><name>129</name><sym>Flag, Blue</sym></wpt><wpt lat="10.320203" lon="123.933862"><ele>13.021554</ele><time>2024-07-19T07:33:03Z</time><name>130</name><sym>Flag, Blue</sym></wpt><wpt lat="10.320150" lon="123.933846"><ele>15.059258</ele><time>2024-07-19T07:33:11Z</time><name>131</name><sym>Flag, Blue</sym></wpt><wpt lat="10.320081" lon="123.933799"><ele>18.305590</ele><time>2024-07-19T07:33:28Z</time><name>132</name><sym>Flag, Blue</sym></wpt><wpt lat="10.320032" lon="123.933764"><ele>18.114878</ele><time>2024-07-19T07:33:38Z</time><name>133</name><sym>Flag, Blue</sym></wpt><wpt lat="10.320008" lon="123.933725"><ele>18.520527</ele><time>2024-07-19T07:33:45Z</time><name>134</name><sym>Flag, Blue</sym></wpt><wpt lat="10.319971" lon="123.933682"><ele>18.384010</ele><time>2024-07-19T07:33:58Z</time><name>135</name><sym>Flag, Blue</sym></wpt><wpt lat="10.319950" lon="123.933661"><ele>17.887911</ele><time>2024-07-19T07:34:05Z</time><name>136</name><sym>Flag, Blue</sym></wpt><wpt lat="10.319926" lon="123.933618"><ele>17.592577</ele><time>2024-07-19T07:34:16Z</time><name>137</name><sym>Flag, Blue</sym></wpt><wpt lat="10.319899" lon="123.933600"><ele>17.726246</ele><time>2024-07-19T07:34:29Z</time><name>138</name><sym>Flag, Blue</sym></wpt><wpt lat="10.319862" lon="123.933585"><ele>19.201244</ele><time>2024-07-19T07:34:45Z</time><name>139</name><sym>Flag, Blue</sym></wpt><wpt lat="10.319854" lon="123.933580"><ele>18.956676</ele><time>2024-07-19T07:34:53Z</time><name>140</name><sym>Flag, Blue</sym></wpt><wpt lat="10.319859" lon="123.933552"><ele>15.902062</ele><time>2024-07-19T07:35:19Z</time><name>141</name><sym>Flag, Blue</sym></wpt><wpt lat="10.319814" lon="123.933541"><ele>15.524561</ele><time>2024-07-19T07:35:47Z</time><name>142</name><sym>Flag, Blue</sym></wpt><wpt lat="10.319807" lon="123.933537"><ele>15.857544</ele><time>2024-07-19T07:35:53Z</time><name>143</name><sym>Flag, Blue</sym></wpt><wpt lat="10.319784" lon="123.933524"><ele>15.859451</ele><time>2024-07-19T07:35:59Z</time><name>144</name><sym>Flag, Blue</sym></wpt><wpt lat="10.319777" lon="123.933509"><ele>15.329121</ele><time>2024-07-19T07:36:05Z</time><name>145</name><sym>Flag, Blue</sym></wpt><wpt lat="10.319789" lon="123.933470"><ele>14.418398</ele><time>2024-07-19T07:36:33Z</time><name>146</name><sym>Flag, Blue</sym></wpt><wpt lat="10.319592" lon="123.933266"><ele>15.297421</ele><time>2024-07-19T07:37:25Z</time><name>147</name><sym>Flag, Blue</sym></wpt><wpt lat="10.319542" lon="123.933238"><ele>15.161381</ele><time>2024-07-19T07:37:46Z</time><name>148</name><sym>Flag, Blue</sym></wpt><wpt lat="10.319497" lon="123.933273"><ele>16.120779</ele><time>2024-07-19T07:38:04Z</time><name>149</name><sym>Flag, Blue</sym></wpt><wpt lat="10.319471" lon="123.933254"><ele>17.814018</ele><time>2024-07-19T07:38:15Z</time><name>150</name><sym>Flag, Blue</sym></wpt><wpt lat="10.319446" lon="123.933250"><ele>18.415464</ele><time>2024-07-19T07:38:25Z</time><name>151</name><sym>Flag, Blue</sym></wpt><wpt lat="10.319418" lon="123.933231"><ele>18.367619</ele><time>2024-07-19T07:38:30Z</time><name>152</name><sym>Flag, Blue</sym></wpt><wpt lat="10.319389" lon="123.933210"><ele>18.128880</ele><time>2024-07-19T07:38:42Z</time><name>153</name><sym>Flag, Blue</sym></wpt><wpt lat="10.319379" lon="123.933189"><ele>18.582317</ele><time>2024-07-19T07:38:47Z</time><name>154</name><sym>Flag, Blue</sym></wpt><wpt lat="10.319362" lon="123.933172"><ele>18.605267</ele><time>2024-07-19T07:38:53Z</time><name>155</name><sym>Flag, Blue</sym></wpt><wpt lat="10.319319" lon="123.933151"><ele>19.167175</ele><time>2024-07-19T07:39:06Z</time><name>156</name><sym>Flag, Blue</sym></wpt><wpt lat="10.319306" lon="123.933135"><ele>19.556675</ele><time>2024-07-19T07:39:12Z</time><name>157</name><sym>Flag, Blue</sym></wpt><wpt lat="10.319284" lon="123.933111"><ele>19.385004</ele><time>2024-07-19T07:39:19Z</time><name>158</name><sym>Flag, Blue</sym></wpt><wpt lat="10.319264" lon="123.933093"><ele>19.309841</ele><time>2024-07-19T07:39:29Z</time><name>159</name><sym>Flag, Blue</sym></wpt><wpt lat="10.319223" lon="123.933075"><ele>18.709156</ele><time>2024-07-19T07:39:45Z</time><name>160</name><sym>Flag, Blue</sym></wpt><wpt lat="10.319600" lon="123.932367"><ele>16.051491</ele><time>2024-07-19T07:43:13Z</time><name>161</name><sym>Flag, Blue</sym></wpt><wpt lat="10.319587" lon="123.932364"><ele>14.554191</ele><time>2024-07-19T07:43:29Z</time><name>162</name><sym>Flag, Blue</sym></wpt><wpt lat="10.319608" lon="123.932383"><ele>14.123958</ele><time>2024-07-19T07:43:37Z</time><name>163</name><sym>Flag, Blue</sym></wpt><wpt lat="10.319685" lon="123.932417"><ele>13.049140</ele><time>2024-07-19T07:44:12Z</time><name>164</name><sym>Flag, Blue</sym></wpt><wpt lat="10.320455" lon="123.933200"><ele>9.594639</ele><time>2024-07-19T07:46:13Z</time><name>165</name><sym>Flag, Blue</sym></wpt><wpt lat="10.320489" lon="123.933211"><ele>9.726471</ele><time>2024-07-19T07:46:26Z</time><name>166</name><sym>Flag, Blue</sym></wpt><wpt lat="10.320558" lon="123.933254"><ele>9.435791</ele><time>2024-07-19T07:46:38Z</time><name>167</name><sym>Flag, Blue</sym></wpt><wpt lat="10.320711" lon="123.933367"><ele>7.743088</ele><time>2024-07-19T07:47:04Z</time><name>168</name><sym>Flag, Blue</sym></wpt><wpt lat="10.320722" lon="123.933387"><ele>8.249607</ele><time>2024-07-19T07:47:08Z</time><name>169</name><sym>Flag, Blue</sym></wpt><wpt lat="10.320723" lon="123.933387"><ele>7.953899</ele><time>2024-07-19T07:47:13Z</time><name>170</name><sym>Flag, Blue</sym></wpt><wpt lat="10.320752" lon="123.933410"><ele>8.447292</ele><time>2024-07-19T07:47:20Z</time><name>171</name><sym>Flag, Blue</sym></wpt><wpt lat="10.320768" lon="123.933445"><ele>11.629864</ele><time>2024-07-19T07:47:28Z</time><name>172</name><sym>Flag, Blue</sym></wpt><wpt lat="10.320806" lon="123.933483"><ele>12.171902</ele><time>2024-07-19T07:47:36Z</time><name>173</name><sym>Flag, Blue</sym></wpt><wpt lat="10.321101" lon="123.933750"><ele>18.081169</ele><time>2024-07-19T07:48:51Z</time><name>174</name><sym>Flag, Blue</sym></wpt><wpt lat="10.321129" lon="123.933783"><ele>17.207850</ele><time>2024-07-19T07:49:08Z</time><name>175</name><sym>Flag, Blue</sym></wpt><wpt lat="10.321202" lon="123.933810"><ele>17.825848</ele><time>2024-07-19T07:49:39Z</time><name>176</name><sym>Flag, Blue</sym></wpt><wpt lat="10.321219" lon="123.933835"><ele>17.984518</ele><time>2024-07-19T07:49:48Z</time><name>177</name><sym>Flag, Blue</sym></wpt><wpt lat="10.321233" lon="123.933854"><ele>18.418293</ele><time>2024-07-19T07:49:54Z</time><name>178</name><sym>Flag, Blue</sym></wpt><wpt lat="10.321241" lon="123.933900"><ele>17.791676</ele><time>2024-07-19T07:50:03Z</time><name>179</name><sym>Flag, Blue</sym></wpt><wpt lat="10.321230" lon="123.933947"><ele>19.008348</ele><time>2024-07-19T07:50:11Z</time><name>180</name><sym>Flag, Blue</sym></wpt><wpt lat="10.321250" lon="123.933995"><ele>24.497276</ele><time>2024-07-19T07:50:34Z</time><name>181</name><sym>Flag, Blue</sym></wpt><wpt lat="10.321227" lon="123.934041"><ele>26.353523</ele><time>2024-07-19T07:50:40Z</time><name>182</name><sym>Flag, Blue</sym></wpt><wpt lat="10.321221" lon="123.934108"><ele>28.672018</ele><time>2024-07-19T07:51:36Z</time><name>183</name><sym>Flag, Blue</sym></wpt><wpt lat="10.321186" lon="123.934121"><ele>29.054375</ele><time>2024-07-19T07:51:47Z</time><name>184</name><sym>Flag, Blue</sym></wpt><wpt lat="10.321168" lon="123.934121"><ele>27.834963</ele><time>2024-07-19T07:51:55Z</time><name>185</name><sym>Flag, Blue</sym></wpt><wpt lat="10.321150" lon="123.934129"><ele>25.439278</ele><time>2024-07-19T07:52:05Z</time><name>186</name><sym>Flag, Blue</sym></wpt><wpt lat="10.321137" lon="123.934154"><ele>25.712341</ele><time>2024-07-19T07:52:13Z</time><name>187</name><sym>Flag, Blue</sym></wpt><wpt lat="10.321114" lon="123.934179"><ele>24.373909</ele><time>2024-07-19T07:52:20Z</time><name>188</name><sym>Flag, Blue</sym></wpt><wpt lat="10.321084" lon="123.934207"><ele>23.798273</ele><time>2024-07-19T07:52:28Z</time><name>189</name><sym>Flag, Blue</sym></wpt><wpt lat="10.321023" lon="123.934244"><ele>23.443890</ele><time>2024-07-19T07:52:38Z</time><name>190</name><sym>Flag, Blue</sym></wpt><wpt lat="10.321013" lon="123.934265"><ele>22.554148</ele><time>2024-07-19T07:52:44Z</time><name>191</name><sym>Flag, Blue</sym></wpt><wpt lat="10.320969" lon="123.934280"><ele>22.870895</ele><time>2024-07-19T07:52:50Z</time><name>192</name><sym>Flag, Blue</sym></wpt><wpt lat="10.320938" lon="123.934300"><ele>21.117636</ele><time>2024-07-19T07:52:58Z</time><name>193</name><sym>Flag, Blue</sym></wpt><wpt lat="10.320915" lon="123.934333"><ele>20.758835</ele><time>2024-07-19T07:53:05Z</time><name>194</name><sym>Flag, Blue</sym></wpt><wpt lat="10.320883" lon="123.934360"><ele>21.401884</ele><time>2024-07-19T07:53:13Z</time><name>195</name><sym>Flag, Blue</sym></wpt><wpt lat="10.320833" lon="123.934393"><ele>21.542305</ele><time>2024-07-19T07:53:30Z</time><name>196</name><sym>Flag, Blue</sym></wpt><wpt lat="10.320767" lon="123.934392"><ele>18.252071</ele><time>2024-07-19T07:53:51Z</time><name>197</name><sym>Flag, Blue</sym></wpt><wpt lat="10.320730" lon="123.934382"><ele>17.933182</ele><time>2024-07-19T07:54:58Z</time><name>198</name><sym>Flag, Blue</sym></wpt><wpt lat="10.320703" lon="123.934377"><ele>18.022039</ele><time>2024-07-19T07:55:14Z</time><name>199</name><sym>Flag, Blue</sym></wpt></gpx>