<?xml version="1.0" encoding="UTF-8" standalone="no" ?><gpx xmlns="http://www.topografix.com/GPX/1/1" xmlns:gpxx="http://www.garmin.com/xmlschemas/GpxExtensions/v3" xmlns:wptx1="http://www.garmin.com/xmlschemas/WaypointExtension/v1" xmlns:gpxtpx="http://www.garmin.com/xmlschemas/TrackPointExtension/v1" creator="eTrex 22x" version="1.1" xmlns:xsi="http://www.w3.org/2001/XMLSchema-instance" xsi:schemaLocation="http://www.topografix.com/GPX/1/1 http://www.topografix.com/GPX/1/1/gpx.xsd http://www.garmin.com/xmlschemas/GpxExtensions/v3 http://www8.garmin.com/xmlschemas/GpxExtensionsv3.xsd http://www.garmin.com/xmlschemas/TrackStatsExtension/v1 http://www8.garmin.com/xmlschemas/TrackStatsExtension.xsd http://www.garmin.com/xmlschemas/WaypointExtension/v1 http://www8.garmin.com/xmlschemas/WaypointExtensionv1.xsd http://www.garmin.com/xmlschemas/TrackPointExtension/v1 http://www.garmin.com/xmlschemas/TrackPointExtensionv1.xsd"><metadata><link href="http://www.garmin.com"><text>Garmin International</text></link><time>2024-08-08T02:46:17Z</time></metadata><wpt lat="10.340677" lon="123.949399"><ele>22.683533</ele><time>2024-08-08T02:46:17Z</time><name>1795</name><sym>Flag, Blue</sym></wpt><wpt lat="10.340648" lon="123.949552"><ele>26.851360</ele><time>2024-08-08T02:47:16Z</time><name>1796</name><sym>Flag, Blue</sym></wpt><wpt lat="10.340485" lon="123.949696"><ele>25.316959</ele><time>2024-08-08T02:48:31Z</time><name>1797</name><sym>Flag, Blue</sym></wpt><wpt lat="10.340384" lon="123.949631"><ele>26.167107</ele><time>2024-08-08T02:49:10Z</time><name>1798</name><sym>Flag, Blue</sym></wpt><wpt lat="10.340321" lon="123.949558"><ele>24.650829</ele><time>2024-08-08T02:51:53Z</time><name>1799</name><sym>Flag, Blue</sym></wpt><wpt lat="10.340549" lon="123.949739"><ele>26.099155</ele><time>2024-08-08T02:52:56Z</time><name>1800</name><sym>Flag, Blue</sym></wpt><wpt lat="10.340551" lon="123.949781"><ele>26.248623</ele><time>2024-08-08T02:53:35Z</time><name>1801</name><sym>Flag, Blue</sym></wpt><wpt lat="10.340547" lon="123.949848"><ele>25.060238</ele><time>2024-08-08T02:54:05Z</time><name>1802</name><sym>Flag, Blue</sym></wpt><wpt lat="10.340510" lon="123.949941"><ele>25.801525</ele><time>2024-08-08T02:54:29Z</time><name>1803</name><sym>Flag, Blue</sym></wpt><wpt lat="10.340428" lon="123.950220"><ele>28.479378</ele><time>2024-08-08T02:55:04Z</time><name>1804</name><sym>Flag, Blue</sym></wpt><wpt lat="10.340221" lon="123.950749"><ele>19.867634</ele><time>2024-08-08T02:56:17Z</time><name>1805</name><sym>Flag, Blue</sym></wpt><wpt lat="10.340209" lon="123.950801"><ele>20.469791</ele><time>2024-08-08T02:56:36Z</time><name>1806</name><sym>Flag, Blue</sym></wpt><wpt lat="10.340080" lon="123.951191"><ele>23.441174</ele><time>2024-08-08T02:57:33Z</time><name>1807</name><sym>Flag, Blue</sym></wpt><wpt lat="10.340050" lon="123.951216"><ele>24.148808</ele><time>2024-08-08T02:57:47Z</time><name>1808</name><sym>Flag, Blue</sym></wpt><wpt lat="10.340042" lon="123.951247"><ele>23.453922</ele><time>2024-08-08T02:57:58Z</time><name>1809</name><sym>Flag, Blue</sym></wpt><wpt lat="10.340030" lon="123.951307"><ele>23.010136</ele><time>2024-08-08T02:58:10Z</time><name>1810</name><sym>Flag, Blue</sym></wpt><wpt lat="10.340005" lon="123.951411"><ele>22.926540</ele><time>2024-08-08T02:58:34Z</time><name>1811</name><sym>Flag, Blue</sym></wpt><wpt lat="10.339509" lon="123.952671"><ele>18.702419</ele><time>2024-08-08T03:01:14Z</time><name>1812</name><sym>Flag, Blue</sym></wpt><wpt lat="10.340009" lon="123.951796"><ele>19.692101</ele><time>2024-08-08T03:04:01Z</time><name>1813</name><sym>Flag, Blue</sym></wpt><wpt lat="10.340039" lon="123.951741"><ele>21.542114</ele><time>2024-08-08T03:04:26Z</time><name>1814</name><sym>Flag, Blue</sym></wpt><wpt lat="10.340160" lon="123.951606"><ele>22.896580</ele><time>2024-08-08T03:05:01Z</time><name>1815</name><sym>Flag, Blue</sym></wpt><wpt lat="10.340239" lon="123.951207"><ele>21.493679</ele><time>2024-08-08T03:05:49Z</time><name>1816</name><sym>Flag, Blue</sym></wpt><wpt lat="10.340244" lon="123.951206"><ele>21.161465</ele><time>2024-08-08T03:06:00Z</time><name>1817</name><sym>Flag, Blue</sym></wpt><wpt lat="10.340273" lon="123.951123"><ele>21.917301</ele><time>2024-08-08T03:06:20Z</time><name>1818</name><sym>Flag, Blue</sym></wpt><wpt lat="10.340286" lon="123.951090"><ele>22.523510</ele><time>2024-08-08T03:06:35Z</time><name>1819</name><sym>Flag, Blue</sym></wpt><wpt lat="10.340287" lon="123.951079"><ele>21.458202</ele><time>2024-08-08T03:07:09Z</time><name>1820</name><sym>Flag, Blue</sym></wpt><wpt lat="10.340322" lon="123.950987"><ele>21.931515</ele><time>2024-08-08T03:07:28Z</time><name>1821</name><sym>Flag, Blue</sym></wpt><wpt lat="10.340363" lon="123.950931"><ele>23.513355</ele><time>2024-08-08T03:07:44Z</time><name>1822</name><sym>Flag, Blue</sym></wpt><wpt lat="10.340491" lon="123.950527"><ele>26.150532</ele><time>2024-08-08T03:08:28Z</time><name>1823</name><sym>Flag, Blue</sym></wpt><wpt lat="10.340542" lon="123.950339"><ele>22.775326</ele><time>2024-08-08T03:09:05Z</time><name>1824</name><sym>Flag, Blue</sym></wpt><wpt lat="10.340569" lon="123.950266"><ele>22.472439</ele><time>2024-08-08T03:09:27Z</time><name>1825</name><sym>Flag, Blue</sym></wpt><wpt lat="10.340599" lon="123.950223"><ele>25.579273</ele><time>2024-08-08T03:09:51Z</time><name>1826</name><sym>Flag, Blue</sym></wpt><wpt lat="10.340608" lon="123.950196"><ele>24.628551</ele><time>2024-08-08T03:10:13Z</time><name>1827</name><sym>Flag, Blue</sym></wpt><wpt lat="10.340719" lon="123.949913"><ele>23.696194</ele><time>2024-08-08T03:10:59Z</time><name>1828</name><sym>Flag, Blue</sym></wpt><wpt lat="10.340725" lon="123.949902"><ele>25.200680</ele><time>2024-08-08T03:11:12Z</time><name>1829</name><sym>Flag, Blue</sym></wpt><wpt lat="10.340758" lon="123.949721"><ele>20.959515</ele><time>2024-08-08T03:11:44Z</time><name>1830</name><sym>Flag, Blue</sym></wpt><wpt lat="10.340785" lon="123.949608"><ele>22.669491</ele><time>2024-08-08T03:12:20Z</time><name>1831</name><sym>Flag, Blue</sym></wpt><wpt lat="10.340810" lon="123.949585"><ele>23.480095</ele><time>2024-08-08T03:12:58Z</time><name>1832</name><sym>Flag, Blue</sym></wpt><wpt lat="10.340794" lon="123.949497"><ele>28.106163</ele><time>2024-08-08T03:13:28Z</time><name>1833</name><sym>Flag, Blue</sym></wpt><wpt lat="10.340800" lon="123.949486"><ele>28.595337</ele><time>2024-08-08T03:13:41Z</time><name>1834</name><sym>Flag, Blue</sym></wpt><wpt lat="10.340872" lon="123.949398"><ele>27.902626</ele><time>2024-08-08T03:14:00Z</time><name>1835</name><sym>Flag, Blue</sym></wpt><wpt lat="10.340878" lon="123.949359"><ele>27.868546</ele><time>2024-08-08T03:14:19Z</time><name>1836</name><sym>Flag, Blue</sym></wpt><wpt lat="10.340955" lon="123.949113"><ele>34.261658</ele><time>2024-08-08T03:14:58Z</time><name>1837</name><sym>Flag, Blue</sym></wpt><wpt lat="10.340994" lon="123.949047"><ele>32.874779</ele><time>2024-08-08T03:15:23Z</time><name>1838</name><sym>Flag, Blue</sym></wpt><wpt lat="10.341015" lon="123.949004"><ele>32.471306</ele><time>2024-08-08T03:15:39Z</time><name>1839</name><sym>Flag, Blue</sym></wpt><wpt lat="10.341035" lon="123.948966"><ele>29.894501</ele><time>2024-08-08T03:15:55Z</time><name>1840</name><sym>Flag, Blue</sym></wpt><wpt lat="10.341018" lon="123.948914"><ele>29.577915</ele><time>2024-08-08T03:16:20Z</time><name>1841</name><sym>Flag, Blue</sym></wpt><wpt lat="10.341018" lon="123.948892"><ele>27.287189</ele><time>2024-08-08T03:16:35Z</time><name>1842</name><sym>Flag, Blue</sym></wpt><wpt lat="10.341055" lon="123.948803"><ele>27.016140</ele><time>2024-08-08T03:16:54Z</time><name>1843</name><sym>Flag, Blue</sym></wpt><wpt lat="10.341077" lon="123.948753"><ele>28.533077</ele><time>2024-08-08T03:17:13Z</time><name>1844</name><sym>Flag, Blue</sym></wpt><wpt lat="10.341087" lon="123.948686"><ele>28.777233</ele><time>2024-08-08T03:17:34Z</time><name>1845</name><sym>Flag, Blue</sym></wpt><wpt lat="10.341162" lon="123.948690"><ele>34.341648</ele><time>2024-08-08T03:18:02Z</time><name>1846</name><sym>Flag, Blue</sym></wpt><wpt lat="10.341333" lon="123.948813"><ele>27.032730</ele><time>2024-08-08T03:19:43Z</time><name>1847</name><sym>Flag, Blue</sym></wpt><wpt lat="10.341327" lon="123.948899"><ele>25.504917</ele><time>2024-08-08T03:20:08Z</time><name>1848</name><sym>Flag, Blue</sym></wpt><wpt lat="10.341307" lon="123.948889"><ele>24.886738</ele><time>2024-08-08T03:20:25Z</time><name>1849</name><sym>Flag, Blue</sym></wpt><wpt lat="10.341312" lon="123.948865"><ele>24.084278</ele><time>2024-08-08T03:20:44Z</time><name>1850</name><sym>Flag, Blue</sym></wpt><wpt lat="10.341323" lon="123.948770"><ele>23.060078</ele><time>2024-08-08T03:21:07Z</time><name>1851</name><sym>Flag, Blue</sym></wpt><wpt lat="10.341320" lon="123.948767"><ele>21.104660</ele><time>2024-08-08T03:21:18Z</time><name>1852</name><sym>Flag, Blue</sym></wpt><wpt lat="10.341313" lon="123.948773"><ele>20.346424</ele><time>2024-08-08T03:21:34Z</time><name>1853</name><sym>Flag, Blue</sym></wpt><wpt lat="10.341308" lon="123.948675"><ele>23.303085</ele><time>2024-08-08T03:22:07Z</time><name>1854</name><sym>Flag, Blue</sym></wpt><wpt lat="10.341302" lon="123.948618"><ele>26.548172</ele><time>2024-08-08T03:22:31Z</time><name>1855</name><sym>Flag, Blue</sym></wpt><wpt lat="10.341273" lon="123.948595"><ele>26.998337</ele><time>2024-08-08T03:22:53Z</time><name>1856</name><sym>Flag, Blue</sym></wpt><wpt lat="10.341220" lon="123.948593"><ele>28.074848</ele><time>2024-08-08T03:23:17Z</time><name>1857</name><sym>Flag, Blue</sym></wpt><wpt lat="10.341238" lon="123.948598"><ele>28.017559</ele><time>2024-08-08T03:23:31Z</time><name>1858</name><sym>Flag, Blue</sym></wpt><wpt lat="10.341202" lon="123.948607"><ele>29.178501</ele><time>2024-08-08T03:23:53Z</time><name>1859</name><sym>Flag, Blue</sym></wpt><wpt lat="10.341172" lon="123.948586"><ele>28.748253</ele><time>2024-08-08T03:24:14Z</time><name>1860</name><sym>Flag, Blue</sym></wpt><wpt lat="10.341180" lon="123.948561"><ele>29.028648</ele><time>2024-08-08T03:24:27Z</time><name>1861</name><sym>Flag, Blue</sym></wpt><wpt lat="10.341168" lon="123.948538"><ele>28.431122</ele><time>2024-08-08T03:24:46Z</time><name>1862</name><sym>Flag, Blue</sym></wpt><wpt lat="10.341213" lon="123.948539"><ele>27.229595</ele><time>2024-08-08T03:25:07Z</time><name>1863</name><sym>Flag, Blue</sym></wpt><wpt lat="10.341223" lon="123.948569"><ele>26.829594</ele><time>2024-08-08T03:25:21Z</time><name>1864</name><sym>Flag, Blue</sym></wpt><wpt lat="10.341273" lon="123.948563"><ele>26.745571</ele><time>2024-08-08T03:25:34Z</time><name>1865</name><sym>Flag, Blue</sym></wpt><wpt lat="10.341278" lon="123.948560"><ele>27.127048</ele><time>2024-08-08T03:25:49Z</time><name>1866</name><sym>Flag, Blue</sym></wpt><wpt lat="10.341282" lon="123.948558"><ele>28.313507</ele><time>2024-08-08T03:26:01Z</time><name>1867</name><sym>Flag, Blue</sym></wpt><wpt lat="10.341299" lon="123.948552"><ele>29.845718</ele><time>2024-08-08T03:26:15Z</time><name>1868</name><sym>Flag, Blue</sym></wpt><wpt lat="10.341277" lon="123.948553"><ele>31.469856</ele><time>2024-08-08T03:26:25Z</time><name>1869</name><sym>Flag, Blue</sym></wpt><wpt lat="10.341280" lon="123.948541"><ele>30.966583</ele><time>2024-08-08T03:26:38Z</time><name>1870</name><sym>Flag, Blue</sym></wpt><wpt lat="10.341275" lon="123.948522"><ele>28.232773</ele><time>2024-08-08T03:26:52Z</time><name>1871</name><sym>Flag, Blue</sym></wpt><wpt lat="10.341309" lon="123.948513"><ele>27.123531</ele><time>2024-08-08T03:27:05Z</time><name>1872</name><sym>Flag, Blue</sym></wpt><wpt lat="10.341329" lon="123.948507"><ele>28.833927</ele><time>2024-08-08T03:27:22Z</time><name>1873</name><sym>Flag, Blue</sym></wpt><wpt lat="10.341344" lon="123.948500"><ele>27.247456</ele><time>2024-08-08T03:27:34Z</time><name>1874</name><sym>Flag, Blue</sym></wpt><wpt lat="10.341322" lon="123.948494"><ele>27.648701</ele><time>2024-08-08T03:27:53Z</time><name>1875</name><sym>Flag, Blue</sym></wpt><wpt lat="10.341344" lon="123.948429"><ele>29.321484</ele><time>2024-08-08T03:28:21Z</time><name>1876</name><sym>Flag, Blue</sym></wpt><wpt lat="10.341349" lon="123.948420"><ele>28.850422</ele><time>2024-08-08T03:28:45Z</time><name>1877</name><sym>Flag, Blue</sym></wpt><wpt lat="10.341352" lon="123.948413"><ele>30.597946</ele><time>2024-08-08T03:28:58Z</time><name>1878</name><sym>Flag, Blue</sym></wpt><wpt lat="10.341356" lon="123.948416"><ele>30.806946</ele><time>2024-08-08T03:29:14Z</time><name>1879</name><sym>Flag, Blue</sym></wpt><wpt lat="10.341350" lon="123.948435"><ele>29.835587</ele><time>2024-08-08T03:29:27Z</time><name>1880</name><sym>Flag, Blue</sym></wpt><wpt lat="10.341332" lon="123.948456"><ele>29.277786</ele><time>2024-08-08T03:29:41Z</time><name>1881</name><sym>Flag, Blue</sym></wpt><wpt lat="10.341267" lon="123.948499"><ele>27.173935</ele><time>2024-08-08T03:30:07Z</time><name>1882</name><sym>Flag, Blue</sym></wpt><wpt lat="10.341259" lon="123.948483"><ele>26.637344</ele><time>2024-08-08T03:30:20Z</time><name>1883</name><sym>Flag, Blue</sym></wpt><wpt lat="10.341246" lon="123.948469"><ele>26.940430</ele><time>2024-08-08T03:30:33Z</time><name>1884</name><sym>Flag, Blue</sym></wpt><wpt lat="10.341247" lon="123.948490"><ele>25.278076</ele><time>2024-08-08T03:30:48Z</time><name>1885</name><sym>Flag, Blue</sym></wpt><wpt lat="10.341237" lon="123.948470"><ele>26.611240</ele><time>2024-08-08T03:31:05Z</time><name>1886</name><sym>Flag, Blue</sym></wpt><wpt lat="10.341221" lon="123.948485"><ele>27.133137</ele><time>2024-08-08T03:31:16Z</time><name>1887</name><sym>Flag, Blue</sym></wpt><wpt lat="10.341207" lon="123.948467"><ele>26.591511</ele><time>2024-08-08T03:31:32Z</time><name>1888</name><sym>Flag, Blue</sym></wpt><wpt lat="10.341224" lon="123.948433"><ele>24.583836</ele><time>2024-08-08T03:31:48Z</time><name>1889</name><sym>Flag, Blue</sym></wpt><wpt lat="10.341253" lon="123.948430"><ele>24.470951</ele><time>2024-08-08T03:32:00Z</time><name>1890</name><sym>Flag, Blue</sym></wpt><wpt lat="10.341271" lon="123.948412"><ele>24.515415</ele><time>2024-08-08T03:32:13Z</time><name>1891</name><sym>Flag, Blue</sym></wpt><wpt lat="10.341249" lon="123.948383"><ele>25.205601</ele><time>2024-08-08T03:32:35Z</time><name>1892</name><sym>Flag, Blue</sym></wpt><wpt lat="10.341220" lon="123.948395"><ele>25.836712</ele><time>2024-08-08T03:32:47Z</time><name>1893</name><sym>Flag, Blue</sym></wpt><wpt lat="10.341249" lon="123.948384"><ele>26.695950</ele><time>2024-08-08T03:32:59Z</time><name>1894</name><sym>Flag, Blue</sym></wpt><wpt lat="10.341329" lon="123.948353"><ele>23.966732</ele><time>2024-08-08T03:33:24Z</time><name>1895</name><sym>Flag, Blue</sym></wpt><wpt lat="10.341345" lon="123.948363"><ele>24.671436</ele><time>2024-08-08T03:33:45Z</time><name>1896</name><sym>Flag, Blue</sym></wpt><wpt lat="10.341373" lon="123.948355"><ele>25.688553</ele><time>2024-08-08T03:34:06Z</time><name>1897</name><sym>Flag, Blue</sym></wpt><wpt lat="10.341175" lon="123.948511"><ele>22.399017</ele><time>2024-08-08T03:35:02Z</time><name>1898</name><sym>Flag, Blue</sym></wpt><wpt lat="10.341160" lon="123.948557"><ele>23.189362</ele><time>2024-08-08T03:35:19Z</time><name>1899</name><sym>Flag, Blue</sym></wpt><wpt lat="10.341136" lon="123.948595"><ele>24.346069</ele><time>2024-08-08T03:35:44Z</time><name>1900</name><sym>Flag, Blue</sym></wpt><wpt lat="10.334375" lon="123.949957"><ele>36.514423</ele><time>2024-08-08T06:56:04Z</time><name>1901</name><sym>Flag, Blue</sym></wpt><wpt lat="10.333806" lon="123.949684"><ele>12.037582</ele><time>2024-08-08T06:58:28Z</time><name>1902</name><sym>Flag, Blue</sym></wpt><wpt lat="10.333817" lon="123.949737"><ele>18.654751</ele><time>2024-08-08T06:58:46Z</time><name>1903</name><sym>Flag, Blue</sym></wpt><wpt lat="10.333786" lon="123.949761"><ele>20.735455</ele><time>2024-08-08T06:59:11Z</time><name>1904</name><sym>Flag, Blue</sym></wpt><wpt lat="10.333732" lon="123.949758"><ele>24.565823</ele><time>2024-08-08T06:59:35Z</time><name>1905</name><sym>Flag, Blue</sym></wpt><wpt lat="10.333651" lon="123.949809"><ele>25.167271</ele><time>2024-08-08T06:59:53Z</time><name>1906</name><sym>Flag, Blue</sym></wpt><wpt lat="10.333669" lon="123.949728"><ele>34.326809</ele><time>2024-08-08T07:00:13Z</time><name>1907</name><sym>Flag, Blue</sym></wpt><wpt lat="10.333688" lon="123.949654"><ele>35.539959</ele><time>2024-08-08T07:00:54Z</time><name>1908</name><sym>Flag, Blue</sym></wpt><wpt lat="10.333695" lon="123.949658"><ele>31.833839</ele><time>2024-08-08T07:01:54Z</time><name>1909</name><sym>Flag, Blue</sym></wpt><wpt lat="10.333686" lon="123.949678"><ele>28.523018</ele><time>2024-08-08T07:02:08Z</time><name>1910</name><sym>Flag, Blue</sym></wpt><wpt lat="10.333680" lon="123.949637"><ele>29.752296</ele><time>2024-08-08T07:02:22Z</time><name>1911</name><sym>Flag, Blue</sym></wpt><wpt lat="10.333581" lon="123.949579"><ele>30.158054</ele><time>2024-08-08T07:02:50Z</time><name>1912</name><sym>Flag, Blue</sym></wpt><wpt lat="10.332988" lon="123.948740"><ele>23.566784</ele><time>2024-08-08T07:05:37Z</time><name>1913</name><sym>Flag, Blue</sym></wpt><wpt lat="10.333001" lon="123.948726"><ele>21.889065</ele><time>2024-08-08T07:06:20Z</time><name>1914</name><sym>Flag, Blue</sym></wpt><wpt lat="10.333139" lon="123.948770"><ele>26.730984</ele><time>2024-08-08T07:07:27Z</time><name>1915</name><sym>Flag, Blue</sym></wpt><wpt lat="10.334087" lon="123.947024"><ele>28.385437</ele><time>2024-08-08T07:12:13Z</time><name>1916</name><sym>Flag, Blue</sym></wpt><wpt lat="10.333987" lon="123.946932"><ele>26.363384</ele><time>2024-08-08T07:12:55Z</time><name>1917</name><sym>Flag, Blue</sym></wpt><wpt lat="10.333563" lon="123.946629"><ele>29.074608</ele><time>2024-08-08T07:14:55Z</time><name>1918</name><sym>Flag, Blue</sym></wpt><wpt lat="10.333455" lon="123.946601"><ele>30.377220</ele><time>2024-08-08T07:15:31Z</time><name>1919</name><sym>Flag, Blue</sym></wpt><wpt lat="10.333469" lon="123.946659"><ele>26.110073</ele><time>2024-08-08T07:16:23Z</time><name>1920</name><sym>Flag, Blue</sym></wpt><wpt lat="10.332712" lon="123.946300"><ele>20.546707</ele><time>2024-08-08T07:18:33Z</time><name>1921</name><sym>Flag, Blue</sym></wpt><wpt lat="10.332664" lon="123.946296"><ele>23.408539</ele><time>2024-08-08T07:18:47Z</time><name>1922</name><sym>Flag, Blue</sym></wpt><wpt lat="10.332619" lon="123.946283"><ele>28.176910</ele><time>2024-08-08T07:19:01Z</time><name>1923</name><sym>Flag, Blue</sym></wpt><wpt lat="10.332595" lon="123.946256"><ele>30.817642</ele><time>2024-08-08T07:19:16Z</time><name>1924</name><sym>Flag, Blue</sym></wpt><wpt lat="10.332506" lon="123.946197"><ele>34.434460</ele><time>2024-08-08T07:20:12Z</time><name>1925</name><sym>Flag, Blue</sym></wpt><wpt lat="10.332454" lon="123.946228"><ele>34.628979</ele><time>2024-08-08T07:20:31Z</time><name>1926</name><sym>Flag, Blue</sym></wpt><wpt lat="10.332435" lon="123.946234"><ele>32.857464</ele><time>2024-08-08T07:20:44Z</time><name>1927</name><sym>Flag, Blue</sym></wpt><wpt lat="10.331730" lon="123.945535"><ele>25.717793</ele><time>2024-08-08T07:23:49Z</time><name>1928</name><sym>Flag, Blue</sym></wpt><wpt lat="10.331815" lon="123.945381"><ele>24.983082</ele><time>2024-08-08T07:24:17Z</time><name>1929</name><sym>Flag, Blue</sym></wpt><wpt lat="10.331539" lon="123.945961"><ele>25.592918</ele><time>2024-08-08T07:26:39Z</time><name>1930</name><sym>Flag, Blue</sym></wpt><wpt lat="10.331505" lon="123.946043"><ele>27.178295</ele><time>2024-08-08T07:26:56Z</time><name>1931</name><sym>Flag, Blue</sym></wpt><wpt lat="10.331049" lon="123.946634"><ele>20.489433</ele><time>2024-08-08T07:28:40Z</time><name>1932</name><sym>Flag, Blue</sym></wpt><wpt lat="10.330940" lon="123.947293"><ele>28.701145</ele><time>2024-08-08T07:30:52Z</time><name>1933</name><sym>Flag, Blue</sym></wpt><wpt lat="10.330886" lon="123.947379"><ele>29.684544</ele><time>2024-08-08T07:31:13Z</time><name>1934</name><sym>Flag, Blue</sym></wpt><wpt lat="10.330805" lon="123.947513"><ele>30.281815</ele><time>2024-08-08T07:31:51Z</time><name>1935</name><sym>Flag, Blue</sym></wpt><wpt lat="10.329986" lon="123.946896"><ele>27.497559</ele><time>2024-08-08T07:35:40Z</time><name>1936</name><sym>Flag, Blue</sym></wpt><wpt lat="10.329946" lon="123.946864"><ele>28.849255</ele><time>2024-08-08T07:35:52Z</time><name>1937</name><sym>Flag, Blue</sym></wpt><wpt lat="10.329475" lon="123.947242"><ele>27.149658</ele><time>2024-08-08T07:37:49Z</time><name>1938</name><sym>Flag, Blue</sym></wpt><wpt lat="10.329457" lon="123.947239"><ele>27.106239</ele><time>2024-08-08T07:38:07Z</time><name>1939</name><sym>Flag, Blue</sym></wpt><wpt lat="10.328098" lon="123.946585"><ele>33.772797</ele><time>2024-08-08T07:42:32Z</time><name>1940</name><sym>Flag, Blue</sym></wpt><wpt lat="10.328092" lon="123.946585"><ele>33.686699</ele><time>2024-08-08T07:42:41Z</time><name>1941</name><sym>Flag, Blue</sym></wpt><wpt lat="10.328076" lon="123.946598"><ele>32.909672</ele><time>2024-08-08T07:42:54Z</time><name>1942</name><sym>Flag, Blue</sym></wpt><wpt lat="10.328076" lon="123.946584"><ele>31.994984</ele><time>2024-08-08T07:43:04Z</time><name>1943</name><sym>Flag, Blue</sym></wpt><wpt lat="10.328056" lon="123.946592"><ele>33.077229</ele><time>2024-08-08T07:43:15Z</time><name>1944</name><sym>Flag, Blue</sym></wpt><wpt lat="10.328050" lon="123.946590"><ele>33.503956</ele><time>2024-08-08T07:43:27Z</time><name>1945</name><sym>Flag, Blue</sym></wpt><wpt lat="10.328040" lon="123.946587"><ele>32.790226</ele><time>2024-08-08T07:43:39Z</time><name>1946</name><sym>Flag, Blue</sym></wpt><wpt lat="10.328042" lon="123.946584"><ele>32.132587</ele><time>2024-08-08T07:43:48Z</time><name>1947</name><sym>Flag, Blue</sym></wpt><wpt lat="10.328040" lon="123.946576"><ele>31.820217</ele><time>2024-08-08T07:43:56Z</time><name>1948</name><sym>Flag, Blue</sym></wpt></gpx>