<?xml version="1.0" encoding="UTF-8" standalone="no" ?><gpx xmlns="http://www.topografix.com/GPX/1/1" xmlns:gpxx="http://www.garmin.com/xmlschemas/GpxExtensions/v3" xmlns:wptx1="http://www.garmin.com/xmlschemas/WaypointExtension/v1" xmlns:gpxtpx="http://www.garmin.com/xmlschemas/TrackPointExtension/v1" creator="eTrex 22x" version="1.1" xmlns:xsi="http://www.w3.org/2001/XMLSchema-instance" xsi:schemaLocation="http://www.topografix.com/GPX/1/1 http://www.topografix.com/GPX/1/1/gpx.xsd http://www.garmin.com/xmlschemas/GpxExtensions/v3 http://www8.garmin.com/xmlschemas/GpxExtensionsv3.xsd http://www.garmin.com/xmlschemas/TrackStatsExtension/v1 http://www8.garmin.com/xmlschemas/TrackStatsExtension.xsd http://www.garmin.com/xmlschemas/WaypointExtension/v1 http://www8.garmin.com/xmlschemas/WaypointExtensionv1.xsd http://www.garmin.com/xmlschemas/TrackPointExtension/v1 http://www.garmin.com/xmlschemas/TrackPointExtensionv1.xsd"><metadata><link href="http://www.garmin.com"><text>Garmin International</text></link><time>2024-10-03T03:02:52Z</time></metadata><wpt lat="10.360877" lon="123.927159"><ele>36.669399</ele><time>2024-10-03T03:02:52Z</time><name>265</name><sym>Flag, Blue</sym></wpt><wpt lat="10.360852" lon="123.927197"><ele>35.660858</ele><time>2024-10-03T03:03:11Z</time><name>266</name><sym>Flag, Blue</sym></wpt><wpt lat="10.360842" lon="123.927209"><ele>36.362640</ele><time>2024-10-03T03:03:24Z</time><name>267</name><sym>Flag, Blue</sym></wpt><wpt lat="10.360843" lon="123.927203"><ele>35.944916</ele><time>2024-10-03T03:03:37Z</time><name>268</name><sym>Flag, Blue</sym></wpt><wpt lat="10.360842" lon="123.927190"><ele>36.060928</ele><time>2024-10-03T03:03:50Z</time><name>269</name><sym>Flag, Blue</sym></wpt><wpt lat="10.360837" lon="123.927194"><ele>35.645493</ele><time>2024-10-03T03:04:08Z</time><name>270</name><sym>Flag, Blue</sym></wpt><wpt lat="10.360834" lon="123.927206"><ele>36.027786</ele><time>2024-10-03T03:04:20Z</time><name>271</name><sym>Flag, Blue</sym></wpt><wpt lat="10.360836" lon="123.927191"><ele>36.104317</ele><time>2024-10-03T03:04:31Z</time><name>272</name><sym>Flag, Blue</sym></wpt><wpt lat="10.361368" lon="123.927168"><ele>30.937813</ele><time>2024-10-03T03:06:48Z</time><name>273</name><sym>Flag, Blue</sym></wpt><wpt lat="10.361375" lon="123.927167"><ele>30.170490</ele><time>2024-10-03T03:07:06Z</time><name>274</name><sym>Flag, Blue</sym></wpt><wpt lat="10.361406" lon="123.927179"><ele>30.293957</ele><time>2024-10-03T03:07:23Z</time><name>275</name><sym>Flag, Blue</sym></wpt><wpt lat="10.361419" lon="123.927188"><ele>32.410816</ele><time>2024-10-03T03:07:32Z</time><name>276</name><sym>Flag, Blue</sym></wpt><wpt lat="10.361418" lon="123.927192"><ele>31.836910</ele><time>2024-10-03T03:07:44Z</time><name>277</name><sym>Flag, Blue</sym></wpt><wpt lat="10.361434" lon="123.927178"><ele>31.130535</ele><time>2024-10-03T03:07:57Z</time><name>278</name><sym>Flag, Blue</sym></wpt><wpt lat="10.361439" lon="123.927179"><ele>31.017632</ele><time>2024-10-03T03:08:06Z</time><name>279</name><sym>Flag, Blue</sym></wpt><wpt lat="10.361457" lon="123.927172"><ele>31.972054</ele><time>2024-10-03T03:08:22Z</time><name>280</name><sym>Flag, Blue</sym></wpt><wpt lat="10.361469" lon="123.927146"><ele>33.134560</ele><time>2024-10-03T03:08:34Z</time><name>281</name><sym>Flag, Blue</sym></wpt><wpt lat="10.361476" lon="123.927134"><ele>32.739487</ele><time>2024-10-03T03:08:46Z</time><name>282</name><sym>Flag, Blue</sym></wpt><wpt lat="10.361476" lon="123.927109"><ele>31.507095</ele><time>2024-10-03T03:09:07Z</time><name>283</name><sym>Flag, Blue</sym></wpt><wpt lat="10.361471" lon="123.927110"><ele>31.455292</ele><time>2024-10-03T03:09:24Z</time><name>284</name><sym>Flag, Blue</sym></wpt><wpt lat="10.361599" lon="123.927021"><ele>28.846313</ele><time>2024-10-03T03:09:57Z</time><name>285</name><sym>Flag, Blue</sym></wpt><wpt lat="10.361753" lon="123.926869"><ele>28.067410</ele><time>2024-10-03T03:11:01Z</time><name>286</name><sym>Flag, Blue</sym></wpt><wpt lat="10.361764" lon="123.926833"><ele>27.514061</ele><time>2024-10-03T03:11:22Z</time><name>287</name><sym>Flag, Blue</sym></wpt><wpt lat="10.361762" lon="123.926788"><ele>27.900780</ele><time>2024-10-03T03:11:42Z</time><name>288</name><sym>Flag, Blue</sym></wpt><wpt lat="10.361751" lon="123.926776"><ele>30.461922</ele><time>2024-10-03T03:12:05Z</time><name>289</name><sym>Flag, Blue</sym></wpt><wpt lat="10.361655" lon="123.926896"><ele>27.434326</ele><time>2024-10-03T03:12:36Z</time><name>290</name><sym>Flag, Blue</sym></wpt><wpt lat="10.361678" lon="123.926908"><ele>28.902473</ele><time>2024-10-03T03:12:51Z</time><name>291</name><sym>Flag, Blue</sym></wpt><wpt lat="10.361600" lon="123.926949"><ele>28.490280</ele><time>2024-10-03T03:13:19Z</time><name>292</name><sym>Flag, Blue</sym></wpt><wpt lat="10.361596" lon="123.926962"><ele>28.976257</ele><time>2024-10-03T03:13:31Z</time><name>293</name><sym>Flag, Blue</sym></wpt><wpt lat="10.361554" lon="123.926985"><ele>29.670181</ele><time>2024-10-03T03:13:53Z</time><name>294</name><sym>Flag, Blue</sym></wpt><wpt lat="10.361557" lon="123.926989"><ele>29.036133</ele><time>2024-10-03T03:14:07Z</time><name>295</name><sym>Flag, Blue</sym></wpt><wpt lat="10.361532" lon="123.927000"><ele>29.601112</ele><time>2024-10-03T03:14:20Z</time><name>296</name><sym>Flag, Blue</sym></wpt><wpt lat="10.361455" lon="123.927046"><ele>28.667656</ele><time>2024-10-03T03:14:40Z</time><name>297</name><sym>Flag, Blue</sym></wpt><wpt lat="10.361055" lon="123.927027"><ele>27.908852</ele><time>2024-10-03T03:15:52Z</time><name>298</name><sym>Flag, Blue</sym></wpt><wpt lat="10.360904" lon="123.927077"><ele>30.278252</ele><time>2024-10-03T03:16:27Z</time><name>299</name><sym>Flag, Blue</sym></wpt><wpt lat="10.360712" lon="123.927027"><ele>34.454037</ele><time>2024-10-03T03:17:55Z</time><name>300</name><sym>Flag, Blue</sym></wpt><wpt lat="10.360725" lon="123.926999"><ele>36.116356</ele><time>2024-10-03T03:18:10Z</time><name>301</name><sym>Flag, Blue</sym></wpt><wpt lat="10.360673" lon="123.926951"><ele>36.527336</ele><time>2024-10-03T03:18:38Z</time><name>302</name><sym>Flag, Blue</sym></wpt><wpt lat="10.360657" lon="123.926915"><ele>37.971397</ele><time>2024-10-03T03:18:59Z</time><name>303</name><sym>Flag, Blue</sym></wpt><wpt lat="10.360673" lon="123.926898"><ele>39.101089</ele><time>2024-10-03T03:19:13Z</time><name>304</name><sym>Flag, Blue</sym></wpt><wpt lat="10.360654" lon="123.926907"><ele>40.087021</ele><time>2024-10-03T03:19:29Z</time><name>305</name><sym>Flag, Blue</sym></wpt><wpt lat="10.360634" lon="123.926899"><ele>39.515816</ele><time>2024-10-03T03:19:44Z</time><name>306</name><sym>Flag, Blue</sym></wpt><wpt lat="10.360669" lon="123.926791"><ele>41.539230</ele><time>2024-10-03T03:20:41Z</time><name>307</name><sym>Flag, Blue</sym></wpt><wpt lat="10.360531" lon="123.926757"><ele>37.628910</ele><time>2024-10-03T03:21:07Z</time><name>308</name><sym>Flag, Blue</sym></wpt><wpt lat="10.360550" lon="123.926735"><ele>37.783520</ele><time>2024-10-03T03:21:35Z</time><name>309</name><sym>Flag, Blue</sym></wpt><wpt lat="10.360512" lon="123.926700"><ele>37.155499</ele><time>2024-10-03T03:21:55Z</time><name>310</name><sym>Flag, Blue</sym></wpt><wpt lat="10.360509" lon="123.926696"><ele>37.020496</ele><time>2024-10-03T03:22:05Z</time><name>311</name><sym>Flag, Blue</sym></wpt><wpt lat="10.360527" lon="123.926694"><ele>39.706036</ele><time>2024-10-03T03:22:39Z</time><name>312</name><sym>Flag, Blue</sym></wpt><wpt lat="10.360450" lon="123.926485"><ele>34.561932</ele><time>2024-10-03T03:23:23Z</time><name>313</name><sym>Flag, Blue</sym></wpt><wpt lat="10.359330" lon="123.925556"><ele>33.675987</ele><time>2024-10-03T03:25:42Z</time><name>314</name><sym>Flag, Blue</sym></wpt><wpt lat="10.359303" lon="123.925530"><ele>33.475800</ele><time>2024-10-03T03:25:58Z</time><name>315</name><sym>Flag, Blue</sym></wpt><wpt lat="10.359125" lon="123.925559"><ele>32.329250</ele><time>2024-10-03T03:26:42Z</time><name>316</name><sym>Flag, Blue</sym></wpt><wpt lat="10.359112" lon="123.925568"><ele>32.336376</ele><time>2024-10-03T03:26:52Z</time><name>317</name><sym>Flag, Blue</sym></wpt><wpt lat="10.359106" lon="123.925578"><ele>33.124187</ele><time>2024-10-03T03:27:03Z</time><name>318</name><sym>Flag, Blue</sym></wpt><wpt lat="10.359090" lon="123.925587"><ele>34.862576</ele><time>2024-10-03T03:27:12Z</time><name>319</name><sym>Flag, Blue</sym></wpt><wpt lat="10.359057" lon="123.925593"><ele>37.177898</ele><time>2024-10-03T03:27:24Z</time><name>320</name><sym>Flag, Blue</sym></wpt><wpt lat="10.359043" lon="123.925603"><ele>37.901394</ele><time>2024-10-03T03:27:36Z</time><name>321</name><sym>Flag, Blue</sym></wpt><wpt lat="10.358992" lon="123.925628"><ele>37.444225</ele><time>2024-10-03T03:27:47Z</time><name>322</name><sym>Flag, Blue</sym></wpt><wpt lat="10.358960" lon="123.925640"><ele>37.527267</ele><time>2024-10-03T03:28:04Z</time><name>323</name><sym>Flag, Blue</sym></wpt><wpt lat="10.358923" lon="123.925674"><ele>37.068474</ele><time>2024-10-03T03:28:19Z</time><name>324</name><sym>Flag, Blue</sym></wpt><wpt lat="10.358734" lon="123.925796"><ele>38.670670</ele><time>2024-10-03T03:28:52Z</time><name>325</name><sym>Flag, Blue</sym></wpt><wpt lat="10.358559" lon="123.925859"><ele>36.074154</ele><time>2024-10-03T03:29:26Z</time><name>326</name><sym>Flag, Blue</sym></wpt><wpt lat="10.358564" lon="123.925868"><ele>36.219326</ele><time>2024-10-03T03:29:44Z</time><name>327</name><sym>Flag, Blue</sym></wpt><wpt lat="10.358549" lon="123.925872"><ele>36.419216</ele><time>2024-10-03T03:29:53Z</time><name>328</name><sym>Flag, Blue</sym></wpt><wpt lat="10.358543" lon="123.925877"><ele>35.864834</ele><time>2024-10-03T03:30:03Z</time><name>329</name><sym>Flag, Blue</sym></wpt><wpt lat="10.358441" lon="123.925930"><ele>35.422604</ele><time>2024-10-03T03:30:26Z</time><name>330</name><sym>Flag, Blue</sym></wpt><wpt lat="10.358389" lon="123.925948"><ele>36.941219</ele><time>2024-10-03T03:30:56Z</time><name>331</name><sym>Flag, Blue</sym></wpt><wpt lat="10.358365" lon="123.925971"><ele>37.272240</ele><time>2024-10-03T03:31:14Z</time><name>332</name><sym>Flag, Blue</sym></wpt><wpt lat="10.358248" lon="123.926051"><ele>40.048332</ele><time>2024-10-03T03:31:46Z</time><name>333</name><sym>Flag, Blue</sym></wpt><wpt lat="10.357655" lon="123.926495"><ele>34.548882</ele><time>2024-10-03T03:33:04Z</time><name>334</name><sym>Flag, Blue</sym></wpt><wpt lat="10.356594" lon="123.924983"><ele>34.362606</ele><time>2024-10-03T03:35:35Z</time><name>335</name><sym>Flag, Blue</sym></wpt><wpt lat="10.355539" lon="123.923410"><ele>60.808952</ele><time>2024-10-03T03:37:35Z</time><name>336</name><sym>Flag, Blue</sym></wpt><wpt lat="10.355567" lon="123.923431"><ele>57.956596</ele><time>2024-10-03T03:37:45Z</time><name>337</name><sym>Flag, Blue</sym></wpt><wpt lat="10.355588" lon="123.923388"><ele>54.851540</ele><time>2024-10-03T03:37:56Z</time><name>338</name><sym>Flag, Blue</sym></wpt><wpt lat="10.355587" lon="123.923355"><ele>53.613358</ele><time>2024-10-03T03:38:08Z</time><name>339</name><sym>Flag, Blue</sym></wpt><wpt lat="10.355575" lon="123.923343"><ele>53.473831</ele><time>2024-10-03T03:38:16Z</time><name>340</name><sym>Flag, Blue</sym></wpt><wpt lat="10.355567" lon="123.923325"><ele>53.530724</ele><time>2024-10-03T03:38:24Z</time><name>341</name><sym>Flag, Blue</sym></wpt><wpt lat="10.355566" lon="123.923300"><ele>52.567520</ele><time>2024-10-03T03:38:32Z</time><name>342</name><sym>Flag, Blue</sym></wpt><wpt lat="10.355562" lon="123.923270"><ele>52.556595</ele><time>2024-10-03T03:38:43Z</time><name>343</name><sym>Flag, Blue</sym></wpt><wpt lat="10.355312" lon="123.922216"><ele>54.226078</ele><time>2024-10-03T03:40:38Z</time><name>344</name><sym>Flag, Blue</sym></wpt><wpt lat="10.355314" lon="123.922204"><ele>54.016598</ele><time>2024-10-03T03:40:46Z</time><name>345</name><sym>Flag, Blue</sym></wpt><wpt lat="10.355323" lon="123.922195"><ele>53.712543</ele><time>2024-10-03T03:40:53Z</time><name>346</name><sym>Flag, Blue</sym></wpt><wpt lat="10.355330" lon="123.922180"><ele>53.871265</ele><time>2024-10-03T03:41:00Z</time><name>347</name><sym>Flag, Blue</sym></wpt><wpt lat="10.355335" lon="123.922176"><ele>54.604408</ele><time>2024-10-03T03:41:07Z</time><name>348</name><sym>Flag, Blue</sym></wpt><wpt lat="10.355319" lon="123.922177"><ele>54.868904</ele><time>2024-10-03T03:41:14Z</time><name>349</name><sym>Flag, Blue</sym></wpt><wpt lat="10.355314" lon="123.922175"><ele>56.163307</ele><time>2024-10-03T03:41:32Z</time><name>350</name><sym>Flag, Blue</sym></wpt><wpt lat="10.355314" lon="123.922176"><ele>56.295074</ele><time>2024-10-03T03:41:42Z</time><name>351</name><sym>Flag, Blue</sym></wpt><wpt lat="10.355323" lon="123.922160"><ele>54.793129</ele><time>2024-10-03T03:41:59Z</time><name>352</name><sym>Flag, Blue</sym></wpt><wpt lat="10.355315" lon="123.922148"><ele>55.261795</ele><time>2024-10-03T03:42:07Z</time><name>353</name><sym>Flag, Blue</sym></wpt><wpt lat="10.355303" lon="123.922113"><ele>57.557785</ele><time>2024-10-03T03:42:19Z</time><name>354</name><sym>Flag, Blue</sym></wpt><wpt lat="10.355312" lon="123.922098"><ele>59.164841</ele><time>2024-10-03T03:42:29Z</time><name>355</name><sym>Flag, Blue</sym></wpt><wpt lat="10.355301" lon="123.922095"><ele>59.923279</ele><time>2024-10-03T03:42:38Z</time><name>356</name><sym>Flag, Blue</sym></wpt><wpt lat="10.355286" lon="123.922089"><ele>60.358955</ele><time>2024-10-03T03:42:47Z</time><name>357</name><sym>Flag, Blue</sym></wpt><wpt lat="10.355288" lon="123.922067"><ele>61.430046</ele><time>2024-10-03T03:43:01Z</time><name>358</name><sym>Flag, Blue</sym></wpt><wpt lat="10.355259" lon="123.922039"><ele>63.112652</ele><time>2024-10-03T03:43:19Z</time><name>359</name><sym>Flag, Blue</sym></wpt><wpt lat="10.355267" lon="123.921983"><ele>63.682308</ele><time>2024-10-03T03:43:34Z</time><name>360</name><sym>Flag, Blue</sym></wpt><wpt lat="10.355272" lon="123.921955"><ele>65.484024</ele><time>2024-10-03T03:43:43Z</time><name>361</name><sym>Flag, Blue</sym></wpt><wpt lat="10.355266" lon="123.921942"><ele>66.161362</ele><time>2024-10-03T03:43:54Z</time><name>362</name><sym>Flag, Blue</sym></wpt><wpt lat="10.355282" lon="123.921912"><ele>65.780792</ele><time>2024-10-03T03:44:06Z</time><name>363</name><sym>Flag, Blue</sym></wpt><wpt lat="10.355251" lon="123.921827"><ele>62.480068</ele><time>2024-10-03T03:44:33Z</time><name>364</name><sym>Flag, Blue</sym></wpt><wpt lat="10.355237" lon="123.921778"><ele>60.907635</ele><time>2024-10-03T03:44:48Z</time><name>365</name><sym>Flag, Blue</sym></wpt><wpt lat="10.355228" lon="123.921782"><ele>59.789303</ele><time>2024-10-03T03:44:58Z</time><name>366</name><sym>Flag, Blue</sym></wpt><wpt lat="10.355062" lon="123.921517"><ele>47.752663</ele><time>2024-10-03T03:45:36Z</time><name>367</name><sym>Flag, Blue</sym></wpt><wpt lat="10.354947" lon="123.921398"><ele>38.562099</ele><time>2024-10-03T03:46:13Z</time><name>368</name><sym>Flag, Blue</sym></wpt><wpt lat="10.354991" lon="123.920731"><ele>29.776035</ele><time>2024-10-03T03:47:33Z</time><name>369</name><sym>Flag, Blue</sym></wpt><wpt lat="10.355814" lon="123.919978"><ele>36.137402</ele><time>2024-10-03T03:48:37Z</time><name>370</name><sym>Flag, Blue</sym></wpt><wpt lat="10.355141" lon="123.920492"><ele>41.109955</ele><time>2024-10-03T03:50:27Z</time><name>371</name><sym>Flag, Blue</sym></wpt><wpt lat="10.355076" lon="123.920571"><ele>42.126270</ele><time>2024-10-03T03:50:54Z</time><name>372</name><sym>Flag, Blue</sym></wpt><wpt lat="10.354998" lon="123.920524"><ele>44.240986</ele><time>2024-10-03T03:51:36Z</time><name>373</name><sym>Flag, Blue</sym></wpt><wpt lat="10.354980" lon="123.920507"><ele>44.291355</ele><time>2024-10-03T03:51:47Z</time><name>374</name><sym>Flag, Blue</sym></wpt><wpt lat="10.354941" lon="123.920489"><ele>43.895817</ele><time>2024-10-03T03:51:56Z</time><name>375</name><sym>Flag, Blue</sym></wpt><wpt lat="10.354862" lon="123.920422"><ele>42.372730</ele><time>2024-10-03T03:52:13Z</time><name>376</name><sym>Flag, Blue</sym></wpt><wpt lat="10.354799" lon="123.920397"><ele>41.563343</ele><time>2024-10-03T03:52:25Z</time><name>377</name><sym>Flag, Blue</sym></wpt><wpt lat="10.354785" lon="123.920382"><ele>44.221790</ele><time>2024-10-03T03:52:41Z</time><name>378</name><sym>Flag, Blue</sym></wpt><wpt lat="10.354614" lon="123.921014"><ele>37.647903</ele><time>2024-10-03T03:54:05Z</time><name>379</name><sym>Flag, Blue</sym></wpt><wpt lat="10.353190" lon="123.922330"><ele>48.430428</ele><time>2024-10-03T03:56:26Z</time><name>380</name><sym>Flag, Blue</sym></wpt><wpt lat="10.351711" lon="123.923584"><ele>46.885330</ele><time>2024-10-03T03:57:37Z</time><name>381</name><sym>Flag, Blue</sym></wpt><wpt lat="10.350683" lon="123.924368"><ele>40.635128</ele><time>2024-10-03T05:07:33Z</time><name>382</name><sym>Flag, Blue</sym></wpt><wpt lat="10.350626" lon="123.924414"><ele>41.021244</ele><time>2024-10-03T05:07:58Z</time><name>383</name><sym>Flag, Blue</sym></wpt><wpt lat="10.349141" lon="123.925554"><ele>42.391033</ele><time>2024-10-03T05:09:08Z</time><name>384</name><sym>Flag, Blue</sym></wpt><wpt lat="10.349147" lon="123.925606"><ele>41.612537</ele><time>2024-10-03T05:09:24Z</time><name>385</name><sym>Flag, Blue</sym></wpt><wpt lat="10.348936" lon="123.925793"><ele>42.866749</ele><time>2024-10-03T05:09:45Z</time><name>386</name><sym>Flag, Blue</sym></wpt><wpt lat="10.347042" lon="123.927127"><ele>36.805847</ele><time>2024-10-03T05:10:54Z</time><name>387</name><sym>Flag, Blue</sym></wpt><wpt lat="10.346467" lon="123.926870"><ele>36.826698</ele><time>2024-10-03T05:11:23Z</time><name>388</name><sym>Flag, Blue</sym></wpt><wpt lat="10.346440" lon="123.926870"><ele>37.309738</ele><time>2024-10-03T05:11:34Z</time><name>389</name><sym>Flag, Blue</sym></wpt><wpt lat="10.345475" lon="123.926541"><ele>35.670338</ele><time>2024-10-03T05:12:27Z</time><name>390</name><sym>Flag, Blue</sym></wpt><wpt lat="10.345665" lon="123.926627"><ele>37.589329</ele><time>2024-10-03T05:12:57Z</time><name>391</name><sym>Flag, Blue</sym></wpt><wpt lat="10.345676" lon="123.926609"><ele>37.903355</ele><time>2024-10-03T05:13:07Z</time><name>392</name><sym>Flag, Blue</sym></wpt><wpt lat="10.347302" lon="123.927707"><ele>31.971764</ele><time>2024-10-03T05:14:56Z</time><name>393</name><sym>Flag, Blue</sym></wpt><wpt lat="10.347193" lon="123.927706"><ele>28.466393</ele><time>2024-10-03T05:15:28Z</time><name>394</name><sym>Flag, Blue</sym></wpt><wpt lat="10.347198" lon="123.927718"><ele>30.355965</ele><time>2024-10-03T05:15:49Z</time><name>395</name><sym>Flag, Blue</sym></wpt><wpt lat="10.347293" lon="123.927476"><ele>35.895966</ele><time>2024-10-03T05:16:20Z</time><name>396</name><sym>Flag, Blue</sym></wpt><wpt lat="10.346871" lon="123.927455"><ele>39.873192</ele><time>2024-10-03T05:19:32Z</time><name>397</name><sym>Flag, Blue</sym></wpt><wpt lat="10.346852" lon="123.927498"><ele>40.280357</ele><time>2024-10-03T05:19:43Z</time><name>398</name><sym>Flag, Blue</sym></wpt><wpt lat="10.346827" lon="123.927498"><ele>40.325661</ele><time>2024-10-03T05:19:53Z</time><name>399</name><sym>Flag, Blue</sym></wpt><wpt lat="10.346874" lon="123.927753"><ele>36.248848</ele><time>2024-10-03T05:20:30Z</time><name>400</name><sym>Flag, Blue</sym></wpt><wpt lat="10.346829" lon="123.927759"><ele>35.872620</ele><time>2024-10-03T05:20:42Z</time><name>401</name><sym>Flag, Blue</sym></wpt><wpt lat="10.347239" lon="123.927902"><ele>35.086243</ele><time>2024-10-03T05:21:43Z</time><name>402</name><sym>Flag, Blue</sym></wpt><wpt lat="10.347249" lon="123.927886"><ele>36.070320</ele><time>2024-10-03T05:21:55Z</time><name>403</name><sym>Flag, Blue</sym></wpt><wpt lat="10.346794" lon="123.927709"><ele>36.898907</ele><time>2024-10-03T05:23:12Z</time><name>404</name><sym>Flag, Blue</sym></wpt><wpt lat="10.346779" lon="123.927711"><ele>37.148502</ele><time>2024-10-03T05:23:21Z</time><name>405</name><sym>Flag, Blue</sym></wpt><wpt lat="10.346759" lon="123.927713"><ele>36.970188</ele><time>2024-10-03T05:23:31Z</time><name>406</name><sym>Flag, Blue</sym></wpt><wpt lat="10.346739" lon="123.927668"><ele>36.335377</ele><time>2024-10-03T05:23:45Z</time><name>407</name><sym>Flag, Blue</sym></wpt><wpt lat="10.346746" lon="123.927394"><ele>25.862713</ele><time>2024-10-03T05:24:41Z</time><name>408</name><sym>Flag, Blue</sym></wpt><wpt lat="10.346730" lon="123.927405"><ele>27.949715</ele><time>2024-10-03T05:24:53Z</time><name>409</name><sym>Flag, Blue</sym></wpt><wpt lat="10.346722" lon="123.927404"><ele>28.311699</ele><time>2024-10-03T05:25:01Z</time><name>410</name><sym>Flag, Blue</sym></wpt><wpt lat="10.346742" lon="123.927353"><ele>31.920799</ele><time>2024-10-03T05:25:14Z</time><name>411</name><sym>Flag, Blue</sym></wpt><wpt lat="10.346764" lon="123.927336"><ele>37.174385</ele><time>2024-10-03T05:25:32Z</time><name>412</name><sym>Flag, Blue</sym></wpt><wpt lat="10.346761" lon="123.927332"><ele>39.650414</ele><time>2024-10-03T05:25:41Z</time><name>413</name><sym>Flag, Blue</sym></wpt><wpt lat="10.346749" lon="123.927318"><ele>41.056747</ele><time>2024-10-03T05:25:47Z</time><name>414</name><sym>Flag, Blue</sym></wpt><wpt lat="10.346736" lon="123.927311"><ele>42.965431</ele><time>2024-10-03T05:25:57Z</time><name>415</name><sym>Flag, Blue</sym></wpt><wpt lat="10.347078" lon="123.927216"><ele>38.121445</ele><time>2024-10-03T05:28:44Z</time><name>416</name><sym>Flag, Blue</sym></wpt><wpt lat="10.347072" lon="123.927211"><ele>36.640575</ele><time>2024-10-03T05:29:04Z</time><name>417</name><sym>Flag, Blue</sym></wpt><wpt lat="10.347128" lon="123.927214"><ele>43.576046</ele><time>2024-10-03T05:29:22Z</time><name>418</name><sym>Flag, Blue</sym></wpt><wpt lat="10.347437" lon="123.927611"><ele>35.720268</ele><time>2024-10-03T05:36:30Z</time><name>419</name><sym>Flag, Blue</sym></wpt><wpt lat="10.347210" lon="123.928270"><ele>36.217678</ele><time>2024-10-03T05:42:06Z</time><name>420</name><sym>Flag, Blue</sym></wpt><wpt lat="10.349439" lon="123.927943"><ele>30.495228</ele><time>2024-10-03T05:43:54Z</time><name>421</name><sym>Flag, Blue</sym></wpt><wpt lat="10.349602" lon="123.927861"><ele>32.132061</ele><time>2024-10-03T05:44:13Z</time><name>422</name><sym>Flag, Blue</sym></wpt><wpt lat="10.348245" lon="123.926513"><ele>39.096786</ele><time>2024-10-03T05:46:19Z</time><name>423</name><sym>Flag, Blue</sym></wpt><wpt lat="10.347833" lon="123.925347"><ele>41.947834</ele><time>2024-10-03T05:51:28Z</time><name>424</name><sym>Flag, Blue</sym></wpt><wpt lat="10.347849" lon="123.925224"><ele>38.012604</ele><time>2024-10-03T05:52:07Z</time><name>425</name><sym>Flag, Blue</sym></wpt><wpt lat="10.347861" lon="123.925222"><ele>38.570976</ele><time>2024-10-03T05:52:29Z</time><name>426</name><sym>Flag, Blue</sym></wpt><wpt lat="10.347839" lon="123.925251"><ele>38.065144</ele><time>2024-10-03T05:52:54Z</time><name>427</name><sym>Flag, Blue</sym></wpt><wpt lat="10.347815" lon="123.925270"><ele>38.099918</ele><time>2024-10-03T05:53:08Z</time><name>428</name><sym>Flag, Blue</sym></wpt><wpt lat="10.347775" lon="123.925280"><ele>38.448277</ele><time>2024-10-03T05:53:19Z</time><name>429</name><sym>Flag, Blue</sym></wpt><wpt lat="10.347525" lon="123.925507"><ele>33.347229</ele><time>2024-10-03T05:53:59Z</time><name>430</name><sym>Flag, Blue</sym></wpt><wpt lat="10.347526" lon="123.925557"><ele>32.987076</ele><time>2024-10-03T05:54:17Z</time><name>431</name><sym>Flag, Blue</sym></wpt><wpt lat="10.347445" lon="123.925607"><ele>35.474487</ele><time>2024-10-03T05:54:32Z</time><name>432</name><sym>Flag, Blue</sym></wpt><wpt lat="10.347584" lon="123.925761"><ele>38.881344</ele><time>2024-10-03T05:55:19Z</time><name>433</name><sym>Flag, Blue</sym></wpt><wpt lat="10.347676" lon="123.925872"><ele>39.328541</ele><time>2024-10-03T05:55:33Z</time><name>434</name><sym>Flag, Blue</sym></wpt><wpt lat="10.347701" lon="123.925830"><ele>42.177837</ele><time>2024-10-03T05:55:54Z</time><name>435</name><sym>Flag, Blue</sym></wpt><wpt lat="10.347682" lon="123.925848"><ele>44.733082</ele><time>2024-10-03T05:56:09Z</time><name>436</name><sym>Flag, Blue</sym></wpt><wpt lat="10.347680" lon="123.925871"><ele>45.711559</ele><time>2024-10-03T05:56:19Z</time><name>437</name><sym>Flag, Blue</sym></wpt><wpt lat="10.347690" lon="123.925872"><ele>45.093105</ele><time>2024-10-03T05:56:33Z</time><name>438</name><sym>Flag, Blue</sym></wpt><wpt lat="10.347689" lon="123.925891"><ele>45.743008</ele><time>2024-10-03T05:56:44Z</time><name>439</name><sym>Flag, Blue</sym></wpt><wpt lat="10.347690" lon="123.925930"><ele>44.484379</ele><time>2024-10-03T05:56:54Z</time><name>440</name><sym>Flag, Blue</sym></wpt><wpt lat="10.347706" lon="123.925957"><ele>44.635487</ele><time>2024-10-03T05:57:14Z</time><name>441</name><sym>Flag, Blue</sym></wpt><wpt lat="10.347746" lon="123.925682"><ele>37.474506</ele><time>2024-10-03T05:58:10Z</time><name>442</name><sym>Flag, Blue</sym></wpt><wpt lat="10.348057" lon="123.925229"><ele>30.444794</ele><time>2024-10-03T05:59:40Z</time><name>443</name><sym>Flag, Blue</sym></wpt><wpt lat="10.348001" lon="123.925170"><ele>33.281425</ele><time>2024-10-03T06:00:14Z</time><name>444</name><sym>Flag, Blue</sym></wpt><wpt lat="10.347937" lon="123.925190"><ele>16.450325</ele><time>2024-10-03T06:01:47Z</time><name>445</name><sym>Flag, Blue</sym></wpt><wpt lat="10.347771" lon="123.925058"><ele>32.330265</ele><time>2024-10-03T06:02:44Z</time><name>446</name><sym>Flag, Blue</sym></wpt><wpt lat="10.347713" lon="123.925044"><ele>34.940826</ele><time>2024-10-03T06:03:19Z</time><name>447</name><sym>Flag, Blue</sym></wpt><wpt lat="10.347744" lon="123.925007"><ele>39.934063</ele><time>2024-10-03T06:03:55Z</time><name>448</name><sym>Flag, Blue</sym></wpt><wpt lat="10.347783" lon="123.924987"><ele>42.380337</ele><time>2024-10-03T06:04:12Z</time><name>449</name><sym>Flag, Blue</sym></wpt><wpt lat="10.347893" lon="123.925068"><ele>43.490101</ele><time>2024-10-03T06:04:46Z</time><name>450</name><sym>Flag, Blue</sym></wpt><wpt lat="10.347912" lon="123.925054"><ele>45.395283</ele><time>2024-10-03T06:04:59Z</time><name>451</name><sym>Flag, Blue</sym></wpt><wpt lat="10.348633" lon="123.926213"><ele>41.519165</ele><time>2024-10-03T06:15:07Z</time><name>452</name><sym>Flag, Blue</sym></wpt><wpt lat="10.348743" lon="123.926096"><ele>40.364586</ele><time>2024-10-03T06:15:35Z</time><name>453</name><sym>Flag, Blue</sym></wpt><wpt lat="10.348775" lon="123.926074"><ele>40.797981</ele><time>2024-10-03T06:15:49Z</time><name>454</name><sym>Flag, Blue</sym></wpt><wpt lat="10.348853" lon="123.926030"><ele>40.196747</ele><time>2024-10-03T06:16:16Z</time><name>455</name><sym>Flag, Blue</sym></wpt><wpt lat="10.348880" lon="123.926004"><ele>40.819984</ele><time>2024-10-03T06:16:28Z</time><name>456</name><sym>Flag, Blue</sym></wpt><wpt lat="10.349221" lon="123.925672"><ele>40.268757</ele><time>2024-10-03T06:16:56Z</time><name>457</name><sym>Flag, Blue</sym></wpt><wpt lat="10.350488" lon="123.924636"><ele>38.343670</ele><time>2024-10-03T06:18:01Z</time><name>458</name><sym>Flag, Blue</sym></wpt><wpt lat="10.350809" lon="123.924485"><ele>36.320789</ele><time>2024-10-03T06:18:28Z</time><name>459</name><sym>Flag, Blue</sym></wpt><wpt lat="10.351196" lon="123.924498"><ele>35.793533</ele><time>2024-10-03T06:18:47Z</time><name>460</name><sym>Flag, Blue</sym></wpt><wpt lat="10.351810" lon="123.924443"><ele>36.014397</ele><time>2024-10-03T06:19:12Z</time><name>461</name><sym>Flag, Blue</sym></wpt><wpt lat="10.351939" lon="123.924450"><ele>35.979900</ele><time>2024-10-03T06:19:22Z</time><name>462</name><sym>Flag, Blue</sym></wpt><wpt lat="10.352015" lon="123.924443"><ele>35.746616</ele><time>2024-10-03T06:19:32Z</time><name>463</name><sym>Flag, Blue</sym></wpt><wpt lat="10.353940" lon="123.924601"><ele>35.899994</ele><time>2024-10-03T06:20:25Z</time><name>464</name><sym>Flag, Blue</sym></wpt><wpt lat="10.353933" lon="123.924603"><ele>35.643097</ele><time>2024-10-03T06:20:33Z</time><name>465</name><sym>Flag, Blue</sym></wpt><wpt lat="10.353997" lon="123.924610"><ele>37.871014</ele><time>2024-10-03T06:20:47Z</time><name>466</name><sym>Flag, Blue</sym></wpt><wpt lat="10.354144" lon="123.924618"><ele>39.660038</ele><time>2024-10-03T06:21:06Z</time><name>467</name><sym>Flag, Blue</sym></wpt><wpt lat="10.354280" lon="123.924629"><ele>39.607471</ele><time>2024-10-03T06:21:22Z</time><name>468</name><sym>Flag, Blue</sym></wpt><wpt lat="10.354307" lon="123.924630"><ele>40.471611</ele><time>2024-10-03T06:21:35Z</time><name>469</name><sym>Flag, Blue</sym></wpt><wpt lat="10.354433" lon="123.924606"><ele>41.268456</ele><time>2024-10-03T06:21:51Z</time><name>470</name><sym>Flag, Blue</sym></wpt><wpt lat="10.354559" lon="123.924580"><ele>41.138489</ele><time>2024-10-03T06:22:10Z</time><name>471</name><sym>Flag, Blue</sym></wpt><wpt lat="10.354777" lon="123.924475"><ele>40.470982</ele><time>2024-10-03T06:22:31Z</time><name>472</name><sym>Flag, Blue</sym></wpt><wpt lat="10.354810" lon="123.924468"><ele>39.603008</ele><time>2024-10-03T06:22:40Z</time><name>473</name><sym>Flag, Blue</sym></wpt><wpt lat="10.354996" lon="123.924356"><ele>38.883396</ele><time>2024-10-03T06:23:03Z</time><name>474</name><sym>Flag, Blue</sym></wpt><wpt lat="10.355054" lon="123.924322"><ele>38.164505</ele><time>2024-10-03T06:23:15Z</time><name>475</name><sym>Flag, Blue</sym></wpt><wpt lat="10.355178" lon="123.924278"><ele>38.551842</ele><time>2024-10-03T06:23:28Z</time><name>476</name><sym>Flag, Blue</sym></wpt><wpt lat="10.352838" lon="123.924503"><ele>34.899902</ele><time>2024-10-03T06:24:55Z</time><name>477</name><sym>Flag, Blue</sym></wpt><wpt lat="10.352303" lon="123.924433"><ele>38.694134</ele><time>2024-10-03T06:25:24Z</time><name>478</name><sym>Flag, Blue</sym></wpt><wpt lat="10.352200" lon="123.924419"><ele>37.779190</ele><time>2024-10-03T06:25:38Z</time><name>479</name><sym>Flag, Blue</sym></wpt><wpt lat="10.350814" lon="123.924404"><ele>38.406219</ele><time>2024-10-03T06:26:30Z</time><name>480</name><sym>Flag, Blue</sym></wpt><wpt lat="10.350842" lon="123.924382"><ele>38.605606</ele><time>2024-10-03T06:26:39Z</time><name>481</name><sym>Flag, Blue</sym></wpt><wpt lat="10.350944" lon="123.924296"><ele>38.598141</ele><time>2024-10-03T06:26:56Z</time><name>482</name><sym>Flag, Blue</sym></wpt><wpt lat="10.350977" lon="123.924266"><ele>39.670528</ele><time>2024-10-03T06:27:06Z</time><name>483</name><sym>Flag, Blue</sym></wpt><wpt lat="10.350999" lon="123.924227"><ele>40.344315</ele><time>2024-10-03T06:27:17Z</time><name>484</name><sym>Flag, Blue</sym></wpt><wpt lat="10.352354" lon="123.923132"><ele>41.576927</ele><time>2024-10-03T06:28:09Z</time><name>485</name><sym>Flag, Blue</sym></wpt><wpt lat="10.352380" lon="123.923103"><ele>42.144142</ele><time>2024-10-03T06:28:18Z</time><name>486</name><sym>Flag, Blue</sym></wpt><wpt lat="10.352406" lon="123.923093"><ele>42.348499</ele><time>2024-10-03T06:28:30Z</time><name>487</name><sym>Flag, Blue</sym></wpt><wpt lat="10.352416" lon="123.923067"><ele>42.263206</ele><time>2024-10-03T06:28:39Z</time><name>488</name><sym>Flag, Blue</sym></wpt><wpt lat="10.352543" lon="123.922965"><ele>42.847363</ele><time>2024-10-03T06:28:55Z</time><name>489</name><sym>Flag, Blue</sym></wpt><wpt lat="10.352568" lon="123.922939"><ele>44.343422</ele><time>2024-10-03T06:29:12Z</time><name>490</name><sym>Flag, Blue</sym></wpt><wpt lat="10.352583" lon="123.922933"><ele>43.783043</ele><time>2024-10-03T06:29:22Z</time><name>491</name><sym>Flag, Blue</sym></wpt><wpt lat="10.352632" lon="123.922906"><ele>43.580009</ele><time>2024-10-03T06:29:33Z</time><name>492</name><sym>Flag, Blue</sym></wpt><wpt lat="10.353364" lon="123.922282"><ele>42.741798</ele><time>2024-10-03T06:30:11Z</time><name>493</name><sym>Flag, Blue</sym></wpt><wpt lat="10.350926" lon="123.924020"><ele>36.759525</ele><time>2024-10-03T06:31:57Z</time><name>494</name><sym>Flag, Blue</sym></wpt><wpt lat="10.350664" lon="123.923688"><ele>25.374893</ele><time>2024-10-03T06:33:15Z</time><name>495</name><sym>Flag, Blue</sym></wpt></gpx>