<?xml version="1.0" encoding="UTF-8" standalone="no" ?><gpx xmlns="http://www.topografix.com/GPX/1/1" xmlns:gpxx="http://www.garmin.com/xmlschemas/GpxExtensions/v3" xmlns:wptx1="http://www.garmin.com/xmlschemas/WaypointExtension/v1" xmlns:gpxtpx="http://www.garmin.com/xmlschemas/TrackPointExtension/v1" creator="eTrex 22x" version="1.1" xmlns:xsi="http://www.w3.org/2001/XMLSchema-instance" xsi:schemaLocation="http://www.topografix.com/GPX/1/1 http://www.topografix.com/GPX/1/1/gpx.xsd http://www.garmin.com/xmlschemas/GpxExtensions/v3 http://www8.garmin.com/xmlschemas/GpxExtensionsv3.xsd http://www.garmin.com/xmlschemas/TrackStatsExtension/v1 http://www8.garmin.com/xmlschemas/TrackStatsExtension.xsd http://www.garmin.com/xmlschemas/WaypointExtension/v1 http://www8.garmin.com/xmlschemas/WaypointExtensionv1.xsd http://www.garmin.com/xmlschemas/TrackPointExtension/v1 http://www.garmin.com/xmlschemas/TrackPointExtensionv1.xsd"><metadata><link href="http://www.garmin.com"><text>Garmin International</text></link><time>2024-07-12T05:27:36Z</time></metadata><wpt lat="10.324598" lon="123.941741"><ele>-8.905468</ele><time>2024-07-12T05:27:36Z</time><name>1974</name><sym>Flag, Blue</sym></wpt><wpt lat="10.324639" lon="123.941718"><ele>-7.788361</ele><time>2024-07-12T05:28:35Z</time><name>1975</name><sym>Flag, Blue</sym></wpt><wpt lat="10.324466" lon="123.941853"><ele>21.220673</ele><time>2024-07-12T05:36:36Z</time><name>1976</name><sym>Flag, Blue</sym></wpt><wpt lat="10.324495" lon="123.941816"><ele>20.586845</ele><time>2024-07-12T05:40:46Z</time><name>1977</name><sym>Flag, Blue</sym></wpt><wpt lat="10.324521" lon="123.941787"><ele>20.991394</ele><time>2024-07-12T05:42:12Z</time><name>1978</name><sym>Flag, Blue</sym></wpt><wpt lat="10.324504" lon="123.941770"><ele>23.533791</ele><time>2024-07-12T05:46:07Z</time><name>1979</name><sym>Flag, Blue</sym></wpt><wpt lat="10.324529" lon="123.941746"><ele>24.349747</ele><time>2024-07-12T05:46:47Z</time><name>1980</name><sym>Flag, Blue</sym></wpt><wpt lat="10.324514" lon="123.941733"><ele>29.255074</ele><time>2024-07-12T05:48:22Z</time><name>1981</name><sym>Flag, Blue</sym></wpt><wpt lat="10.324547" lon="123.941712"><ele>25.081711</ele><time>2024-07-12T05:48:57Z</time><name>1982</name><sym>Flag, Blue</sym></wpt><wpt lat="10.324546" lon="123.941677"><ele>24.090420</ele><time>2024-07-12T05:49:38Z</time><name>1983</name><sym>Flag, Blue</sym></wpt><wpt lat="10.324584" lon="123.941596"><ele>25.468994</ele><time>2024-07-12T05:51:01Z</time><name>1984</name><sym>Flag, Blue</sym></wpt><wpt lat="10.324610" lon="123.941616"><ele>21.487144</ele><time>2024-07-12T05:52:22Z</time><name>1985</name><sym>Flag, Blue</sym></wpt><wpt lat="10.324623" lon="123.941568"><ele>21.692211</ele><time>2024-07-12T05:53:24Z</time><name>1986</name><sym>Flag, Blue</sym></wpt><wpt lat="10.324632" lon="123.941542"><ele>25.191395</ele><time>2024-07-12T05:54:12Z</time><name>1987</name><sym>Flag, Blue</sym></wpt><wpt lat="10.324650" lon="123.941534"><ele>25.426426</ele><time>2024-07-12T05:54:53Z</time><name>1988</name><sym>Flag, Blue</sym></wpt><wpt lat="10.324699" lon="123.941499"><ele>22.525635</ele><time>2024-07-12T05:55:55Z</time><name>1989</name><sym>Flag, Blue</sym></wpt><wpt lat="10.324721" lon="123.941507"><ele>22.982723</ele><time>2024-07-12T05:56:49Z</time><name>1990</name><sym>Flag, Blue</sym></wpt><wpt lat="10.324878" lon="123.941637"><ele>16.430550</ele><time>2024-07-12T05:58:43Z</time><name>1991</name><sym>Flag, Blue</sym></wpt><wpt lat="10.324877" lon="123.941593"><ele>20.417557</ele><time>2024-07-12T05:59:19Z</time><name>1992</name><sym>Flag, Blue</sym></wpt><wpt lat="10.324927" lon="123.941589"><ele>19.913361</ele><time>2024-07-12T06:00:23Z</time><name>1993</name><sym>Flag, Blue</sym></wpt><wpt lat="10.324880" lon="123.941563"><ele>19.109261</ele><time>2024-07-12T06:01:03Z</time><name>1994</name><sym>Flag, Blue</sym></wpt><wpt lat="10.324841" lon="123.941514"><ele>24.396164</ele><time>2024-07-12T06:02:35Z</time><name>1995</name><sym>Flag, Blue</sym></wpt><wpt lat="10.324820" lon="123.941562"><time>2024-07-12T06:07:11Z</time><name>1996</name><sym>Flag, Blue</sym></wpt><wpt lat="10.324883" lon="123.941505"><ele>5.844200</ele><time>2024-07-12T06:08:44Z</time><name>1997</name><sym>Flag, Blue</sym></wpt></gpx>