<?xml version="1.0" encoding="UTF-8" standalone="no" ?><gpx xmlns="http://www.topografix.com/GPX/1/1" xmlns:gpxx="http://www.garmin.com/xmlschemas/GpxExtensions/v3" xmlns:wptx1="http://www.garmin.com/xmlschemas/WaypointExtension/v1" xmlns:gpxtpx="http://www.garmin.com/xmlschemas/TrackPointExtension/v1" creator="Oregon 750" version="1.1" xmlns:xsi="http://www.w3.org/2001/XMLSchema-instance" xsi:schemaLocation="http://www.topografix.com/GPX/1/1 http://www.topografix.com/GPX/1/1/gpx.xsd http://www.garmin.com/xmlschemas/GpxExtensions/v3 http://www8.garmin.com/xmlschemas/GpxExtensionsv3.xsd http://www.garmin.com/xmlschemas/TrackStatsExtension/v1 http://www8.garmin.com/xmlschemas/TrackStatsExtension.xsd http://www.garmin.com/xmlschemas/WaypointExtension/v1 http://www8.garmin.com/xmlschemas/WaypointExtensionv1.xsd http://www.garmin.com/xmlschemas/TrackPointExtension/v1 http://www.garmin.com/xmlschemas/TrackPointExtensionv1.xsd"><metadata><link href="http://www.garmin.com"><text>Garmin International</text></link><time>2024-07-17T07:55:52Z</time></metadata><wpt lat="10.324744" lon="123.942872"><ele>-36.081783</ele><time>2024-07-17T07:55:52Z</time><name>2778</name><sym>Flag, Blue</sym></wpt><wpt lat="10.324854" lon="123.942819"><ele>-36.081783</ele><time>2024-07-17T07:58:13Z</time><name>2779</name><sym>Flag, Blue</sym></wpt><wpt lat="10.324842" lon="123.942835"><ele>-36.081783</ele><time>2024-07-17T07:58:31Z</time><name>2780</name><sym>Flag, Blue</sym></wpt><wpt lat="10.324731" lon="123.943266"><ele>-36.081783</ele><time>2024-07-17T08:08:05Z</time><name>2781</name><sym>Flag, Blue</sym></wpt><wpt lat="10.324804" lon="123.942840"><ele>-36.081783</ele><time>2024-07-17T08:09:43Z</time><name>2782</name><sym>Flag, Blue</sym></wpt><wpt lat="10.324878" lon="123.942884"><ele>-36.081783</ele><time>2024-07-17T08:10:41Z</time><name>2783</name><sym>Flag, Blue</sym></wpt><wpt lat="10.324910" lon="123.942921"><ele>-36.081783</ele><time>2024-07-17T08:11:17Z</time><name>2784</name><sym>Flag, Blue</sym></wpt><wpt lat="10.324951" lon="123.942910"><ele>-36.081783</ele><time>2024-07-17T08:11:46Z</time><name>2785</name><sym>Flag, Blue</sym></wpt><wpt lat="10.325259" lon="123.943070"><ele>-36.081783</ele><time>2024-07-17T08:13:57Z</time><name>2786</name><sym>Flag, Blue</sym></wpt><wpt lat="10.325224" lon="123.943087"><ele>-36.081783</ele><time>2024-07-17T08:14:34Z</time><name>2787</name><sym>Flag, Blue</sym></wpt><wpt lat="10.325293" lon="123.943143"><ele>-36.081783</ele><time>2024-07-17T08:15:17Z</time><name>2788</name><sym>Flag, Blue</sym></wpt><wpt lat="10.325309" lon="123.943150"><ele>-36.081783</ele><time>2024-07-17T08:15:24Z</time><name>2789</name><sym>Flag, Blue</sym></wpt><wpt lat="10.325358" lon="123.943184"><ele>-36.081783</ele><time>2024-07-17T08:16:51Z</time><name>2790</name><sym>Flag, Blue</sym></wpt><wpt lat="10.325372" lon="123.943191"><ele>-36.081783</ele><time>2024-07-17T08:17:18Z</time><name>2791</name><sym>Flag, Blue</sym></wpt><wpt lat="10.325478" lon="123.943174"><ele>-36.081783</ele><time>2024-07-17T08:18:30Z</time><name>2792</name><sym>Flag, Blue</sym></wpt><wpt lat="10.325513" lon="123.943259"><ele>-35.447296</ele><time>2024-07-17T08:20:33Z</time><name>2793</name><sym>Flag, Blue</sym></wpt><wpt lat="10.325545" lon="123.943218"><ele>-35.447296</ele><time>2024-07-17T08:21:01Z</time><name>2794</name><sym>Flag, Blue</sym></wpt><wpt lat="10.325566" lon="123.943222"><ele>-35.447296</ele><time>2024-07-17T08:21:26Z</time><name>2795</name><sym>Flag, Blue</sym></wpt><wpt lat="10.325596" lon="123.943229"><ele>-35.447296</ele><time>2024-07-17T08:21:47Z</time><name>2796</name><sym>Flag, Blue</sym></wpt><wpt lat="10.325614" lon="123.943210"><ele>-35.447296</ele><time>2024-07-17T08:21:59Z</time><name>2797</name><sym>Flag, Blue</sym></wpt><wpt lat="10.325734" lon="123.943208"><ele>-35.447296</ele><time>2024-07-17T08:23:00Z</time><name>2798</name><sym>Flag, Blue</sym></wpt><wpt lat="10.325785" lon="123.943252"><ele>-35.447296</ele><time>2024-07-17T08:23:27Z</time><name>2799</name><sym>Flag, Blue</sym></wpt><wpt lat="10.326261" lon="123.943508"><ele>-35.447296</ele><time>2024-07-17T08:25:18Z</time><name>2800</name><sym>Flag, Blue</sym></wpt><wpt lat="10.326266" lon="123.943526"><ele>-35.447296</ele><time>2024-07-17T08:26:04Z</time><name>2801</name><sym>Flag, Blue</sym></wpt><wpt lat="10.325629" lon="123.943257"><ele>-34.476906</ele><time>2024-07-17T08:28:11Z</time><name>2802</name><sym>Flag, Blue</sym></wpt><wpt lat="10.325640" lon="123.943254"><ele>-34.476906</ele><time>2024-07-17T08:29:13Z</time><name>2803</name><sym>Flag, Blue</sym></wpt><wpt lat="10.325538" lon="123.943199"><ele>-34.476906</ele><time>2024-07-17T08:30:24Z</time><name>2804</name><sym>Flag, Blue</sym></wpt><wpt lat="10.325431" lon="123.943162"><ele>-34.476906</ele><time>2024-07-17T08:30:53Z</time><name>2805</name><sym>Flag, Blue</sym></wpt><wpt lat="10.325315" lon="123.943078"><ele>-34.476906</ele><time>2024-07-17T08:32:11Z</time><name>2806</name><sym>Flag, Blue</sym></wpt><wpt lat="10.325077" lon="123.942958"><ele>-34.476906</ele><time>2024-07-17T08:32:58Z</time><name>2807</name><sym>Flag, Blue</sym></wpt></gpx>