<?xml version="1.0" encoding="UTF-8" standalone="no" ?><gpx xmlns="http://www.topografix.com/GPX/1/1" xmlns:gpxx="http://www.garmin.com/xmlschemas/GpxExtensions/v3" xmlns:wptx1="http://www.garmin.com/xmlschemas/WaypointExtension/v1" xmlns:gpxtpx="http://www.garmin.com/xmlschemas/TrackPointExtension/v1" creator="Oregon 750" version="1.1" xmlns:xsi="http://www.w3.org/2001/XMLSchema-instance" xsi:schemaLocation="http://www.topografix.com/GPX/1/1 http://www.topografix.com/GPX/1/1/gpx.xsd http://www.garmin.com/xmlschemas/GpxExtensions/v3 http://www8.garmin.com/xmlschemas/GpxExtensionsv3.xsd http://www.garmin.com/xmlschemas/TrackStatsExtension/v1 http://www8.garmin.com/xmlschemas/TrackStatsExtension.xsd http://www.garmin.com/xmlschemas/WaypointExtension/v1 http://www8.garmin.com/xmlschemas/WaypointExtensionv1.xsd http://www.garmin.com/xmlschemas/TrackPointExtension/v1 http://www.garmin.com/xmlschemas/TrackPointExtensionv1.xsd"><metadata><link href="http://www.garmin.com"><text>Garmin International</text></link><time>2024-07-15T07:01:03Z</time></metadata><wpt lat="10.320196" lon="123.934047"><ele>-16.524654</ele><time>2024-07-15T07:01:03Z</time><name>2319</name><sym>Flag, Blue</sym></wpt><wpt lat="10.320261" lon="123.934096"><ele>-16.524654</ele><time>2024-07-15T07:01:26Z</time><name>2320</name><sym>Flag, Blue</sym></wpt><wpt lat="10.320333" lon="123.934156"><ele>-16.524654</ele><time>2024-07-15T07:01:46Z</time><name>2321</name><sym>Flag, Blue</sym></wpt><wpt lat="10.320375" lon="123.934201"><ele>-16.524654</ele><time>2024-07-15T07:02:08Z</time><name>2322</name><sym>Flag, Blue</sym></wpt><wpt lat="10.320449" lon="123.934267"><ele>-16.524654</ele><time>2024-07-15T07:02:31Z</time><name>2323</name><sym>Flag, Blue</sym></wpt><wpt lat="10.320449" lon="123.934308"><ele>-16.524654</ele><time>2024-07-15T07:02:51Z</time><name>2324</name><sym>Flag, Blue</sym></wpt><wpt lat="10.320517" lon="123.934383"><ele>-16.524654</ele><time>2024-07-15T07:03:24Z</time><name>2325</name><sym>Flag, Blue</sym></wpt><wpt lat="10.320545" lon="123.934378"><ele>-16.524654</ele><time>2024-07-15T07:03:37Z</time><name>2326</name><sym>Flag, Blue</sym></wpt><wpt lat="10.320589" lon="123.934407"><ele>-16.524654</ele><time>2024-07-15T07:03:49Z</time><name>2327</name><sym>Flag, Blue</sym></wpt><wpt lat="10.320590" lon="123.934430"><ele>-16.524654</ele><time>2024-07-15T07:04:04Z</time><name>2328</name><sym>Flag, Blue</sym></wpt><wpt lat="10.320653" lon="123.934523"><ele>-16.524654</ele><time>2024-07-15T07:04:29Z</time><name>2329</name><sym>Flag, Blue</sym></wpt><wpt lat="10.320667" lon="123.934543"><ele>-16.524654</ele><time>2024-07-15T07:04:41Z</time><name>2330</name><sym>Flag, Blue</sym></wpt><wpt lat="10.320680" lon="123.934563"><ele>-16.524654</ele><time>2024-07-15T07:04:52Z</time><name>2331</name><sym>Flag, Blue</sym></wpt><wpt lat="10.320700" lon="123.934585"><ele>-16.524654</ele><time>2024-07-15T07:05:08Z</time><name>2332</name><sym>Flag, Blue</sym></wpt><wpt lat="10.320712" lon="123.934604"><ele>-16.524654</ele><time>2024-07-15T07:05:20Z</time><name>2333</name><sym>Flag, Blue</sym></wpt><wpt lat="10.320567" lon="123.934484"><ele>-16.524654</ele><time>2024-07-15T07:06:59Z</time><name>2334</name><sym>Flag, Blue</sym></wpt><wpt lat="10.320748" lon="123.934708"><ele>-16.524654</ele><time>2024-07-15T07:07:55Z</time><name>2335</name><sym>Flag, Blue</sym></wpt><wpt lat="10.320816" lon="123.934698"><ele>-16.524654</ele><time>2024-07-15T07:08:42Z</time><name>2336</name><sym>Flag, Blue</sym></wpt><wpt lat="10.320826" lon="123.934700"><ele>-16.524654</ele><time>2024-07-15T07:08:51Z</time><name>2337</name><sym>Flag, Blue</sym></wpt><wpt lat="10.321035" lon="123.934857"><ele>-16.524654</ele><time>2024-07-15T07:10:17Z</time><name>2338</name><sym>Flag, Blue</sym></wpt><wpt lat="10.321043" lon="123.934906"><ele>-16.524654</ele><time>2024-07-15T07:10:25Z</time><name>2339</name><sym>Flag, Blue</sym></wpt><wpt lat="10.321058" lon="123.934953"><ele>-16.524654</ele><time>2024-07-15T07:10:35Z</time><name>2340</name><sym>Flag, Blue</sym></wpt><wpt lat="10.321120" lon="123.935004"><ele>-16.524654</ele><time>2024-07-15T07:10:47Z</time><name>2341</name><sym>Flag, Blue</sym></wpt><wpt lat="10.321150" lon="123.935013"><ele>-16.524654</ele><time>2024-07-15T07:10:55Z</time><name>2342</name><sym>Flag, Blue</sym></wpt><wpt lat="10.321185" lon="123.935034"><ele>-16.524654</ele><time>2024-07-15T07:11:05Z</time><name>2343</name><sym>Flag, Blue</sym></wpt><wpt lat="10.321201" lon="123.935068"><ele>-16.524654</ele><time>2024-07-15T07:11:18Z</time><name>2344</name><sym>Flag, Blue</sym></wpt><wpt lat="10.321237" lon="123.935086"><ele>-16.524654</ele><time>2024-07-15T07:11:55Z</time><name>2345</name><sym>Flag, Blue</sym></wpt><wpt lat="10.321284" lon="123.935160"><ele>-16.524654</ele><time>2024-07-15T07:12:11Z</time><name>2346</name><sym>Flag, Blue</sym></wpt><wpt lat="10.321341" lon="123.935202"><ele>-16.524654</ele><time>2024-07-15T07:12:23Z</time><name>2347</name><sym>Flag, Blue</sym></wpt><wpt lat="10.321373" lon="123.935252"><ele>-16.524654</ele><time>2024-07-15T07:12:33Z</time><name>2348</name><sym>Flag, Blue</sym></wpt><wpt lat="10.321441" lon="123.935295"><ele>-16.524654</ele><time>2024-07-15T07:12:46Z</time><name>2349</name><sym>Flag, Blue</sym></wpt><wpt lat="10.321471" lon="123.935322"><ele>-16.524654</ele><time>2024-07-15T07:13:15Z</time><name>2350</name><sym>Flag, Blue</sym></wpt><wpt lat="10.321508" lon="123.935267"><ele>-16.524654</ele><time>2024-07-15T07:14:02Z</time><name>2351</name><sym>Flag, Blue</sym></wpt><wpt lat="10.321542" lon="123.935375"><ele>-16.524654</ele><time>2024-07-15T07:14:27Z</time><name>2352</name><sym>Flag, Blue</sym></wpt><wpt lat="10.321564" lon="123.935396"><ele>-16.524654</ele><time>2024-07-15T07:14:34Z</time><name>2353</name><sym>Flag, Blue</sym></wpt><wpt lat="10.321597" lon="123.935398"><ele>-16.524654</ele><time>2024-07-15T07:14:41Z</time><name>2354</name><sym>Flag, Blue</sym></wpt><wpt lat="10.321616" lon="123.935437"><ele>-16.524654</ele><time>2024-07-15T07:14:48Z</time><name>2355</name><sym>Flag, Blue</sym></wpt><wpt lat="10.321646" lon="123.935454"><ele>-16.524654</ele><time>2024-07-15T07:14:55Z</time><name>2356</name><sym>Flag, Blue</sym></wpt><wpt lat="10.321687" lon="123.935501"><ele>-16.524654</ele><time>2024-07-15T07:15:04Z</time><name>2357</name><sym>Flag, Blue</sym></wpt><wpt lat="10.321690" lon="123.935528"><ele>-16.524654</ele><time>2024-07-15T07:15:12Z</time><name>2358</name><sym>Flag, Blue</sym></wpt><wpt lat="10.321715" lon="123.935604"><ele>-16.524654</ele><time>2024-07-15T07:15:23Z</time><name>2359</name><sym>Flag, Blue</sym></wpt><wpt lat="10.321728" lon="123.935642"><ele>-16.524654</ele><time>2024-07-15T07:15:33Z</time><name>2360</name><sym>Flag, Blue</sym></wpt><wpt lat="10.321746" lon="123.935713"><ele>-16.524654</ele><time>2024-07-15T07:16:02Z</time><name>2361</name><sym>Flag, Blue</sym></wpt><wpt lat="10.321762" lon="123.935718"><ele>-16.524654</ele><time>2024-07-15T07:16:15Z</time><name>2362</name><sym>Flag, Blue</sym></wpt><wpt lat="10.321698" lon="123.935698"><ele>-16.524654</ele><time>2024-07-15T07:16:49Z</time><name>2363</name><sym>Flag, Blue</sym></wpt><wpt lat="10.321699" lon="123.935937"><ele>-16.524654</ele><time>2024-07-15T07:18:42Z</time><name>2364</name><sym>Flag, Blue</sym></wpt><wpt lat="10.321712" lon="123.935945"><ele>-16.524654</ele><time>2024-07-15T07:18:51Z</time><name>2365</name><sym>Flag, Blue</sym></wpt><wpt lat="10.321750" lon="123.935969"><ele>-16.524654</ele><time>2024-07-15T07:19:04Z</time><name>2366</name><sym>Flag, Blue</sym></wpt><wpt lat="10.321777" lon="123.935967"><ele>-16.524654</ele><time>2024-07-15T07:19:14Z</time><name>2367</name><sym>Flag, Blue</sym></wpt><wpt lat="10.321808" lon="123.935965"><ele>-16.524654</ele><time>2024-07-15T07:19:44Z</time><name>2368</name><sym>Flag, Blue</sym></wpt><wpt lat="10.321855" lon="123.936047"><ele>-16.524654</ele><time>2024-07-15T07:20:25Z</time><name>2369</name><sym>Flag, Blue</sym></wpt><wpt lat="10.321941" lon="123.936192"><ele>-16.524654</ele><time>2024-07-15T07:21:01Z</time><name>2370</name><sym>Flag, Blue</sym></wpt><wpt lat="10.321939" lon="123.936207"><ele>-16.524654</ele><time>2024-07-15T07:21:06Z</time><name>2371</name><sym>Flag, Blue</sym></wpt><wpt lat="10.321968" lon="123.936224"><ele>-16.524654</ele><time>2024-07-15T07:21:21Z</time><name>2372</name><sym>Flag, Blue</sym></wpt><wpt lat="10.321988" lon="123.936236"><ele>-16.524654</ele><time>2024-07-15T07:21:28Z</time><name>2373</name><sym>Flag, Blue</sym></wpt><wpt lat="10.322034" lon="123.936330"><ele>-16.524654</ele><time>2024-07-15T07:21:46Z</time><name>2374</name><sym>Flag, Blue</sym></wpt><wpt lat="10.322048" lon="123.936350"><ele>-16.524654</ele><time>2024-07-15T07:22:04Z</time><name>2375</name><sym>Flag, Blue</sym></wpt><wpt lat="10.322099" lon="123.936393"><ele>-16.524654</ele><time>2024-07-15T07:22:21Z</time><name>2376</name><sym>Flag, Blue</sym></wpt><wpt lat="10.322120" lon="123.936431"><ele>-16.524654</ele><time>2024-07-15T07:22:38Z</time><name>2377</name><sym>Flag, Blue</sym></wpt><wpt lat="10.322133" lon="123.936440"><ele>-16.524654</ele><time>2024-07-15T07:23:01Z</time><name>2378</name><sym>Flag, Blue</sym></wpt><wpt lat="10.322197" lon="123.936529"><ele>-16.524654</ele><time>2024-07-15T07:24:24Z</time><name>2379</name><sym>Flag, Blue</sym></wpt><wpt lat="10.322210" lon="123.936514"><ele>-16.524654</ele><time>2024-07-15T07:24:36Z</time><name>2380</name><sym>Flag, Blue</sym></wpt><wpt lat="10.322235" lon="123.936530"><ele>-16.524654</ele><time>2024-07-15T07:24:53Z</time><name>2381</name><sym>Flag, Blue</sym></wpt><wpt lat="10.322255" lon="123.936551"><ele>-16.524654</ele><time>2024-07-15T07:25:05Z</time><name>2382</name><sym>Flag, Blue</sym></wpt><wpt lat="10.322250" lon="123.936590"><ele>-16.524654</ele><time>2024-07-15T07:25:18Z</time><name>2383</name><sym>Flag, Blue</sym></wpt><wpt lat="10.322289" lon="123.936629"><ele>-16.524654</ele><time>2024-07-15T07:25:34Z</time><name>2384</name><sym>Flag, Blue</sym></wpt><wpt lat="10.322359" lon="123.936685"><ele>-16.524654</ele><time>2024-07-15T07:26:40Z</time><name>2385</name><sym>Flag, Blue</sym></wpt><wpt lat="10.322397" lon="123.936698"><ele>-16.524654</ele><time>2024-07-15T07:26:58Z</time><name>2386</name><sym>Flag, Blue</sym></wpt><wpt lat="10.322374" lon="123.936726"><ele>-15.768869</ele><time>2024-07-15T07:28:17Z</time><name>2387</name><sym>Flag, Blue</sym></wpt><wpt lat="10.322461" lon="123.936857"><ele>-15.768869</ele><time>2024-07-15T07:28:45Z</time><name>2388</name><sym>Flag, Blue</sym></wpt><wpt lat="10.322495" lon="123.936888"><ele>-15.768869</ele><time>2024-07-15T07:28:55Z</time><name>2389</name><sym>Flag, Blue</sym></wpt><wpt lat="10.322550" lon="123.936955"><ele>-15.768869</ele><time>2024-07-15T07:29:16Z</time><name>2390</name><sym>Flag, Blue</sym></wpt><wpt lat="10.322563" lon="123.936982"><ele>-15.768869</ele><time>2024-07-15T07:29:50Z</time><name>2391</name><sym>Flag, Blue</sym></wpt><wpt lat="10.322591" lon="123.936999"><ele>-15.768869</ele><time>2024-07-15T07:29:58Z</time><name>2392</name><sym>Flag, Blue</sym></wpt><wpt lat="10.322618" lon="123.937020"><ele>-15.768869</ele><time>2024-07-15T07:30:08Z</time><name>2393</name><sym>Flag, Blue</sym></wpt><wpt lat="10.322634" lon="123.937032"><ele>-15.768869</ele><time>2024-07-15T07:30:32Z</time><name>2394</name><sym>Flag, Blue</sym></wpt><wpt lat="10.322639" lon="123.937078"><ele>-15.768869</ele><time>2024-07-15T07:30:45Z</time><name>2395</name><sym>Flag, Blue</sym></wpt><wpt lat="10.322691" lon="123.937092"><ele>-15.759539</ele><time>2024-07-15T07:31:18Z</time><name>2396</name><sym>Flag, Blue</sym></wpt><wpt lat="10.322809" lon="123.937228"><ele>-15.759539</ele><time>2024-07-15T07:33:01Z</time><name>2397</name><sym>Flag, Blue</sym></wpt><wpt lat="10.322846" lon="123.937247"><ele>-15.759539</ele><time>2024-07-15T07:33:25Z</time><name>2398</name><sym>Flag, Blue</sym></wpt><wpt lat="10.322888" lon="123.937310"><ele>-15.759539</ele><time>2024-07-15T07:33:39Z</time><name>2399</name><sym>Flag, Blue</sym></wpt><wpt lat="10.322921" lon="123.937378"><ele>-16.729931</ele><time>2024-07-15T07:35:55Z</time><name>2400</name><sym>Flag, Blue</sym></wpt><wpt lat="10.323196" lon="123.938629"><ele>-16.729931</ele><time>2024-07-15T07:36:12Z</time><name>2401</name><sym>Flag, Blue</sym></wpt><wpt lat="10.323178" lon="123.938812"><ele>-16.729931</ele><time>2024-07-15T07:36:29Z</time><name>2402</name><sym>Flag, Blue</sym></wpt><wpt lat="10.323162" lon="123.938921"><ele>-16.729931</ele><time>2024-07-15T07:36:42Z</time><name>2403</name><sym>Flag, Blue</sym></wpt><wpt lat="10.323050" lon="123.939144"><ele>-16.729931</ele><time>2024-07-15T07:37:07Z</time><name>2404</name><sym>Flag, Blue</sym></wpt><wpt lat="10.323034" lon="123.939162"><ele>-16.720600</ele><time>2024-07-15T07:38:27Z</time><name>2405</name><sym>Flag, Blue</sym></wpt><wpt lat="10.322962" lon="123.939972"><ele>-16.729931</ele><time>2024-07-15T07:38:49Z</time><name>2406</name><sym>Flag, Blue</sym></wpt><wpt lat="10.322953" lon="123.939970"><ele>-16.729931</ele><time>2024-07-15T07:39:02Z</time><name>2407</name><sym>Flag, Blue</sym></wpt><wpt lat="10.322962" lon="123.939976"><ele>-16.729931</ele><time>2024-07-15T07:39:08Z</time><name>2408</name><sym>Flag, Blue</sym></wpt><wpt lat="10.322977" lon="123.939992"><ele>-16.729931</ele><time>2024-07-15T07:39:15Z</time><name>2409</name><sym>Flag, Blue</sym></wpt><wpt lat="10.323022" lon="123.940021"><ele>-16.729931</ele><time>2024-07-15T07:39:24Z</time><name>2410</name><sym>Flag, Blue</sym></wpt><wpt lat="10.323093" lon="123.940064"><ele>-16.729931</ele><time>2024-07-15T07:39:34Z</time><name>2411</name><sym>Flag, Blue</sym></wpt><wpt lat="10.323137" lon="123.940096"><ele>-16.729931</ele><time>2024-07-15T07:40:42Z</time><name>2412</name><sym>Flag, Blue</sym></wpt><wpt lat="10.323286" lon="123.940184"><ele>-16.720600</ele><time>2024-07-15T07:41:08Z</time><name>2413</name><sym>Flag, Blue</sym></wpt><wpt lat="10.323296" lon="123.940189"><ele>-16.720600</ele><time>2024-07-15T07:41:17Z</time><name>2414</name><sym>Flag, Blue</sym></wpt><wpt lat="10.323300" lon="123.940195"><ele>-16.720600</ele><time>2024-07-15T07:41:26Z</time><name>2415</name><sym>Flag, Blue</sym></wpt><wpt lat="10.323404" lon="123.940268"><ele>-16.720600</ele><time>2024-07-15T07:41:45Z</time><name>2416</name><sym>Flag, Blue</sym></wpt><wpt lat="10.323459" lon="123.940305"><ele>-16.720600</ele><time>2024-07-15T07:41:55Z</time><name>2417</name><sym>Flag, Blue</sym></wpt><wpt lat="10.323510" lon="123.940335"><ele>-16.720600</ele><time>2024-07-15T07:42:04Z</time><name>2418</name><sym>Flag, Blue</sym></wpt><wpt lat="10.323548" lon="123.940361"><ele>-16.720600</ele><time>2024-07-15T07:42:13Z</time><name>2419</name><sym>Flag, Blue</sym></wpt><wpt lat="10.323838" lon="123.940539"><ele>-16.720600</ele><time>2024-07-15T07:43:23Z</time><name>2420</name><sym>Flag, Blue</sym></wpt><wpt lat="10.323859" lon="123.940557"><ele>-16.720600</ele><time>2024-07-15T07:43:41Z</time><name>2421</name><sym>Flag, Blue</sym></wpt><wpt lat="10.323918" lon="123.940605"><ele>-16.720600</ele><time>2024-07-15T07:43:51Z</time><name>2422</name><sym>Flag, Blue</sym></wpt><wpt lat="10.324159" lon="123.940791"><ele>-16.720600</ele><time>2024-07-15T07:44:29Z</time><name>2423</name><sym>Flag, Blue</sym></wpt><wpt lat="10.324169" lon="123.940804"><ele>-16.720600</ele><time>2024-07-15T07:44:43Z</time><name>2424</name><sym>Flag, Blue</sym></wpt><wpt lat="10.323876" lon="123.942530"><ele>-18.017567</ele><time>2024-07-15T07:59:32Z</time><name>2425</name><sym>Flag, Blue</sym></wpt><wpt lat="10.323883" lon="123.942626"><ele>-18.017567</ele><time>2024-07-15T07:59:54Z</time><name>2426</name><sym>Flag, Blue</sym></wpt><wpt lat="10.323788" lon="123.942593"><ele>-18.017567</ele><time>2024-07-15T08:00:24Z</time><name>2427</name><sym>Flag, Blue</sym></wpt><wpt lat="10.323795" lon="123.942594"><ele>-18.017567</ele><time>2024-07-15T08:00:33Z</time><name>2428</name><sym>Flag, Blue</sym></wpt><wpt lat="10.323832" lon="123.942629"><ele>-18.017567</ele><time>2024-07-15T08:00:47Z</time><name>2429</name><sym>Flag, Blue</sym></wpt><wpt lat="10.323829" lon="123.942689"><ele>-18.017567</ele><time>2024-07-15T08:01:14Z</time><name>2430</name><sym>Flag, Blue</sym></wpt><wpt lat="10.323814" lon="123.942745"><ele>-18.017567</ele><time>2024-07-15T08:01:26Z</time><name>2431</name><sym>Flag, Blue</sym></wpt><wpt lat="10.323833" lon="123.942778"><ele>-18.017567</ele><time>2024-07-15T08:01:37Z</time><name>2432</name><sym>Flag, Blue</sym></wpt><wpt lat="10.323741" lon="123.942981"><ele>-18.017567</ele><time>2024-07-15T08:02:10Z</time><name>2433</name><sym>Flag, Blue</sym></wpt><wpt lat="10.323721" lon="123.943039"><ele>-18.017567</ele><time>2024-07-15T08:02:27Z</time><name>2434</name><sym>Flag, Blue</sym></wpt><wpt lat="10.323703" lon="123.943096"><ele>-18.017567</ele><time>2024-07-15T08:02:41Z</time><name>2435</name><sym>Flag, Blue</sym></wpt><wpt lat="10.323645" lon="123.943103"><ele>-18.026897</ele><time>2024-07-15T08:03:10Z</time><name>2436</name><sym>Flag, Blue</sym></wpt><wpt lat="10.323546" lon="123.943073"><ele>-18.026897</ele><time>2024-07-15T08:03:40Z</time><name>2437</name><sym>Flag, Blue</sym></wpt><wpt lat="10.323447" lon="123.943030"><ele>-18.026897</ele><time>2024-07-15T08:04:06Z</time><name>2438</name><sym>Flag, Blue</sym></wpt><wpt lat="10.323264" lon="123.942989"><ele>-18.026897</ele><time>2024-07-15T08:05:01Z</time><name>2439</name><sym>Flag, Blue</sym></wpt><wpt lat="10.323196" lon="123.943049"><ele>-18.026897</ele><time>2024-07-15T08:05:29Z</time><name>2440</name><sym>Flag, Blue</sym></wpt><wpt lat="10.323185" lon="123.943049"><ele>-18.026897</ele><time>2024-07-15T08:05:49Z</time><name>2441</name><sym>Flag, Blue</sym></wpt><wpt lat="10.323183" lon="123.943056"><ele>-18.026897</ele><time>2024-07-15T08:05:58Z</time><name>2442</name><sym>Flag, Blue</sym></wpt><wpt lat="10.323171" lon="123.943025"><ele>-18.026897</ele><time>2024-07-15T08:06:14Z</time><name>2443</name><sym>Flag, Blue</sym></wpt><wpt lat="10.323172" lon="123.943049"><ele>-18.026897</ele><time>2024-07-15T08:06:30Z</time><name>2444</name><sym>Flag, Blue</sym></wpt><wpt lat="10.323113" lon="123.943022"><ele>-18.026897</ele><time>2024-07-15T08:06:44Z</time><name>2445</name><sym>Flag, Blue</sym></wpt><wpt lat="10.323086" lon="123.943013"><ele>-18.026897</ele><time>2024-07-15T08:07:03Z</time><name>2446</name><sym>Flag, Blue</sym></wpt><wpt lat="10.323060" lon="123.942985"><ele>-18.026897</ele><time>2024-07-15T08:07:22Z</time><name>2447</name><sym>Flag, Blue</sym></wpt><wpt lat="10.323043" lon="123.942966"><ele>-18.026897</ele><time>2024-07-15T08:07:33Z</time><name>2448</name><sym>Flag, Blue</sym></wpt><wpt lat="10.323027" lon="123.942931"><ele>-18.026897</ele><time>2024-07-15T08:08:06Z</time><name>2449</name><sym>Flag, Blue</sym></wpt><wpt lat="10.322984" lon="123.942915"><ele>-18.026897</ele><time>2024-07-15T08:08:20Z</time><name>2450</name><sym>Flag, Blue</sym></wpt><wpt lat="10.322967" lon="123.942910"><ele>-18.026897</ele><time>2024-07-15T08:08:28Z</time><name>2451</name><sym>Flag, Blue</sym></wpt><wpt lat="10.322939" lon="123.942900"><ele>-18.026897</ele><time>2024-07-15T08:08:40Z</time><name>2452</name><sym>Flag, Blue</sym></wpt><wpt lat="10.322981" lon="123.942911"><ele>-18.026897</ele><time>2024-07-15T08:09:09Z</time><name>2453</name><sym>Flag, Blue</sym></wpt><wpt lat="10.323118" lon="123.942794"><ele>-18.026897</ele><time>2024-07-15T08:12:53Z</time><name>2454</name><sym>Flag, Blue</sym></wpt><wpt lat="10.323441" lon="123.942253"><ele>-18.026897</ele><time>2024-07-15T08:16:00Z</time><name>2455</name><sym>Flag, Blue</sym></wpt><wpt lat="10.323454" lon="123.942258"><ele>-18.026897</ele><time>2024-07-15T08:16:27Z</time><name>2456</name><sym>Flag, Blue</sym></wpt><wpt lat="10.323465" lon="123.942274"><ele>-18.026897</ele><time>2024-07-15T08:16:43Z</time><name>2457</name><sym>Flag, Blue</sym></wpt><wpt lat="10.323468" lon="123.942296"><ele>-18.026897</ele><time>2024-07-15T08:17:04Z</time><name>2458</name><sym>Flag, Blue</sym></wpt><wpt lat="10.323512" lon="123.942312"><ele>-18.026897</ele><time>2024-07-15T08:17:24Z</time><name>2459</name><sym>Flag, Blue</sym></wpt><wpt lat="10.323519" lon="123.942321"><ele>-18.026897</ele><time>2024-07-15T08:17:39Z</time><name>2460</name><sym>Flag, Blue</sym></wpt><wpt lat="10.323542" lon="123.942320"><ele>-18.026897</ele><time>2024-07-15T08:18:13Z</time><name>2461</name><sym>Flag, Blue</sym></wpt><wpt lat="10.323552" lon="123.942335"><ele>-18.017567</ele><time>2024-07-15T08:18:44Z</time><name>2462</name><sym>Flag, Blue</sym></wpt><wpt lat="10.323573" lon="123.942338"><ele>-18.017567</ele><time>2024-07-15T08:19:04Z</time><name>2463</name><sym>Flag, Blue</sym></wpt><wpt lat="10.323603" lon="123.942355"><ele>-18.017567</ele><time>2024-07-15T08:19:26Z</time><name>2464</name><sym>Flag, Blue</sym></wpt><wpt lat="10.323616" lon="123.942362"><ele>-18.017567</ele><time>2024-07-15T08:20:02Z</time><name>2465</name><sym>Flag, Blue</sym></wpt><wpt lat="10.323616" lon="123.942377"><ele>-18.017567</ele><time>2024-07-15T08:20:26Z</time><name>2466</name><sym>Flag, Blue</sym></wpt><wpt lat="10.323652" lon="123.942385"><ele>-18.017567</ele><time>2024-07-15T08:20:43Z</time><name>2467</name><sym>Flag, Blue</sym></wpt><wpt lat="10.323644" lon="123.942426"><ele>-18.017567</ele><time>2024-07-15T08:21:00Z</time><name>2468</name><sym>Flag, Blue</sym></wpt><wpt lat="10.323603" lon="123.942419"><ele>-18.017567</ele><time>2024-07-15T08:21:37Z</time><name>2469</name><sym>Flag, Blue</sym></wpt><wpt lat="10.323615" lon="123.942416"><ele>-18.017567</ele><time>2024-07-15T08:21:55Z</time><name>2470</name><sym>Flag, Blue</sym></wpt><wpt lat="10.323711" lon="123.942391"><ele>-18.017567</ele><time>2024-07-15T08:23:07Z</time><name>2471</name><sym>Flag, Blue</sym></wpt><wpt lat="10.323727" lon="123.942407"><ele>-18.017567</ele><time>2024-07-15T08:23:23Z</time><name>2472</name><sym>Flag, Blue</sym></wpt><wpt lat="10.323763" lon="123.942438"><ele>-18.017567</ele><time>2024-07-15T08:23:32Z</time><name>2473</name><sym>Flag, Blue</sym></wpt><wpt lat="10.323807" lon="123.942474"><ele>-18.017567</ele><time>2024-07-15T08:23:42Z</time><name>2474</name><sym>Flag, Blue</sym></wpt><wpt lat="10.323832" lon="123.942485"><ele>-18.017567</ele><time>2024-07-15T08:23:49Z</time><name>2475</name><sym>Flag, Blue</sym></wpt><wpt lat="10.323843" lon="123.942493"><ele>-18.017567</ele><time>2024-07-15T08:23:58Z</time><name>2476</name><sym>Flag, Blue</sym></wpt><wpt lat="10.323866" lon="123.942543"><ele>-18.017567</ele><time>2024-07-15T08:24:58Z</time><name>2477</name><sym>Flag, Blue</sym></wpt><wpt lat="10.323852" lon="123.942544"><ele>-42.258701</ele><time>2024-07-16T01:09:48Z</time><name>2478</name><sym>Flag, Blue</sym></wpt><wpt lat="10.323852" lon="123.942544"><ele>-38.321152</ele><time>2024-07-16T02:33:42Z</time><name>2479</name><sym>Flag, Blue</sym></wpt><wpt lat="10.324876" lon="123.944567"><ele>-35.932495</ele><time>2024-07-16T02:46:22Z</time><name>2480</name><sym>Flag, Blue</sym></wpt><wpt lat="10.324834" lon="123.944167"><ele>-35.932495</ele><time>2024-07-16T02:47:02Z</time><name>2481</name><sym>Flag, Blue</sym></wpt><wpt lat="10.324757" lon="123.944147"><ele>-35.932495</ele><time>2024-07-16T02:48:46Z</time><name>2482</name><sym>Flag, Blue</sym></wpt><wpt lat="10.324677" lon="123.944065"><ele>27163.166016</ele><time>2024-07-16T02:52:04Z</time><name>2483</name><sym>Flag, Blue</sym></wpt><wpt lat="10.324759" lon="123.943976"><ele>-35.932495</ele><time>2024-07-16T02:52:15Z</time><name>2484</name><sym>Flag, Blue</sym></wpt><wpt lat="10.324795" lon="123.943960"><ele>-35.932495</ele><time>2024-07-16T02:52:48Z</time><name>2485</name><sym>Flag, Blue</sym></wpt><wpt lat="10.324884" lon="123.943919"><ele>-35.932495</ele><time>2024-07-16T02:53:13Z</time><name>2486</name><sym>Flag, Blue</sym></wpt><wpt lat="10.324809" lon="123.943925"><ele>-35.932495</ele><time>2024-07-16T02:54:05Z</time><name>2487</name><sym>Flag, Blue</sym></wpt><wpt lat="10.324807" lon="123.943934"><ele>-35.932495</ele><time>2024-07-16T02:54:18Z</time><name>2488</name><sym>Flag, Blue</sym></wpt><wpt lat="10.324797" lon="123.943943"><ele>-35.932495</ele><time>2024-07-16T02:54:34Z</time><name>2489</name><sym>Flag, Blue</sym></wpt><wpt lat="10.324795" lon="123.943922"><ele>-35.932495</ele><time>2024-07-16T02:55:44Z</time><name>2490</name><sym>Flag, Blue</sym></wpt><wpt lat="10.324785" lon="123.943932"><ele>-35.932495</ele><time>2024-07-16T02:56:06Z</time><name>2491</name><sym>Flag, Blue</sym></wpt><wpt lat="10.324917" lon="123.943840"><ele>-35.493950</ele><time>2024-07-16T02:57:20Z</time><name>2492</name><sym>Flag, Blue</sym></wpt><wpt lat="10.324798" lon="123.944021"><ele>-35.493950</ele><time>2024-07-16T02:58:50Z</time><name>2493</name><sym>Flag, Blue</sym></wpt><wpt lat="10.324743" lon="123.944098"><ele>-35.493950</ele><time>2024-07-16T02:59:39Z</time><name>2494</name><sym>Flag, Blue</sym></wpt><wpt lat="10.324940" lon="123.944195"><ele>-35.493950</ele><time>2024-07-16T03:00:40Z</time><name>2495</name><sym>Flag, Blue</sym></wpt><wpt lat="10.325012" lon="123.944231"><ele>-35.493950</ele><time>2024-07-16T03:02:40Z</time><name>2496</name><sym>Flag, Blue</sym></wpt><wpt lat="10.325032" lon="123.944324"><ele>-35.493950</ele><time>2024-07-16T03:05:01Z</time><name>2497</name><sym>Flag, Blue</sym></wpt><wpt lat="10.325040" lon="123.944321"><ele>-35.493950</ele><time>2024-07-16T03:05:15Z</time><name>2498</name><sym>Flag, Blue</sym></wpt><wpt lat="10.325037" lon="123.944309"><ele>-35.493950</ele><time>2024-07-16T03:05:28Z</time><name>2499</name><sym>Flag, Blue</sym></wpt><wpt lat="10.325094" lon="123.944299"><ele>-35.493950</ele><time>2024-07-16T03:05:51Z</time><name>2500</name><sym>Flag, Blue</sym></wpt><wpt lat="10.325146" lon="123.944327"><ele>-35.493950</ele><time>2024-07-16T03:07:04Z</time><name>2501</name><sym>Flag, Blue</sym></wpt><wpt lat="10.325215" lon="123.944390"><ele>-35.493950</ele><time>2024-07-16T03:07:48Z</time><name>2502</name><sym>Flag, Blue</sym></wpt><wpt lat="10.325066" lon="123.944247"><ele>-35.493950</ele><time>2024-07-16T03:09:54Z</time><name>2503</name><sym>Flag, Blue</sym></wpt><wpt lat="10.325077" lon="123.944189"><ele>-35.493950</ele><time>2024-07-16T03:11:04Z</time><name>2504</name><sym>Flag, Blue</sym></wpt><wpt lat="10.325092" lon="123.944210"><ele>-35.493950</ele><time>2024-07-16T03:11:52Z</time><name>2505</name><sym>Flag, Blue</sym></wpt><wpt lat="10.325092" lon="123.944200"><ele>-35.493950</ele><time>2024-07-16T03:12:11Z</time><name>2506</name><sym>Flag, Blue</sym></wpt><wpt lat="10.325132" lon="123.944047"><ele>-35.493950</ele><time>2024-07-16T03:14:20Z</time><name>2507</name><sym>Flag, Blue</sym></wpt><wpt lat="10.325124" lon="123.944033"><ele>-35.493950</ele><time>2024-07-16T03:14:35Z</time><name>2508</name><sym>Flag, Blue</sym></wpt><wpt lat="10.325123" lon="123.943984"><ele>-35.493950</ele><time>2024-07-16T03:15:10Z</time><name>2509</name><sym>Flag, Blue</sym></wpt><wpt lat="10.325031" lon="123.943963"><ele>-35.493950</ele><time>2024-07-16T03:15:59Z</time><name>2510</name><sym>Flag, Blue</sym></wpt><wpt lat="10.325004" lon="123.943694"><ele>-35.493950</ele><time>2024-07-16T03:19:23Z</time><name>2511</name><sym>Flag, Blue</sym></wpt><wpt lat="10.325022" lon="123.943720"><ele>-35.493950</ele><time>2024-07-16T03:19:57Z</time><name>2512</name><sym>Flag, Blue</sym></wpt><wpt lat="10.325069" lon="123.943560"><ele>-35.493950</ele><time>2024-07-16T03:21:25Z</time><name>2513</name><sym>Flag, Blue</sym></wpt><wpt lat="10.325093" lon="123.943582"><ele>-35.493950</ele><time>2024-07-16T03:22:10Z</time><name>2514</name><sym>Flag, Blue</sym></wpt><wpt lat="10.325129" lon="123.943615"><ele>-35.493950</ele><time>2024-07-16T03:22:26Z</time><name>2515</name><sym>Flag, Blue</sym></wpt><wpt lat="10.325202" lon="123.943687"><ele>-35.493950</ele><time>2024-07-16T03:23:15Z</time><name>2516</name><sym>Flag, Blue</sym></wpt><wpt lat="10.325181" lon="123.943696"><ele>-35.493950</ele><time>2024-07-16T03:23:42Z</time><name>2517</name><sym>Flag, Blue</sym></wpt><wpt lat="10.325187" lon="123.943687"><ele>-35.493950</ele><time>2024-07-16T03:24:07Z</time><name>2518</name><sym>Flag, Blue</sym></wpt><wpt lat="10.325199" lon="123.943679"><ele>-35.493950</ele><time>2024-07-16T03:24:20Z</time><name>2519</name><sym>Flag, Blue</sym></wpt><wpt lat="10.325225" lon="123.943696"><ele>-35.493950</ele><time>2024-07-16T03:25:22Z</time><name>2520</name><sym>Flag, Blue</sym></wpt><wpt lat="10.325275" lon="123.943792"><ele>-35.493950</ele><time>2024-07-16T03:26:06Z</time><name>2521</name><sym>Flag, Blue</sym></wpt><wpt lat="10.325250" lon="123.943784"><ele>-35.493950</ele><time>2024-07-16T03:26:26Z</time><name>2522</name><sym>Flag, Blue</sym></wpt><wpt lat="10.325222" lon="123.943795"><ele>-35.493950</ele><time>2024-07-16T03:27:33Z</time><name>2523</name><sym>Flag, Blue</sym></wpt><wpt lat="10.325192" lon="123.943755"><ele>-35.493950</ele><time>2024-07-16T03:29:08Z</time><name>2524</name><sym>Flag, Blue</sym></wpt><wpt lat="10.325226" lon="123.943721"><ele>-35.493950</ele><time>2024-07-16T03:30:33Z</time><name>2525</name><sym>Flag, Blue</sym></wpt><wpt lat="10.324336" lon="123.943803"><ele>-35.493950</ele><time>2024-07-16T03:34:56Z</time><name>2526</name><sym>Flag, Blue</sym></wpt><wpt lat="10.324367" lon="123.943796"><ele>-35.493950</ele><time>2024-07-16T03:36:04Z</time><name>2527</name><sym>Flag, Blue</sym></wpt><wpt lat="10.324341" lon="123.943744"><ele>-35.493950</ele><time>2024-07-16T03:37:28Z</time><name>2528</name><sym>Flag, Blue</sym></wpt><wpt lat="10.324344" lon="123.943755"><ele>-35.493950</ele><time>2024-07-16T03:38:30Z</time><name>2529</name><sym>Flag, Blue</sym></wpt><wpt lat="10.324369" lon="123.943815"><ele>-35.493950</ele><time>2024-07-16T03:39:14Z</time><name>2530</name><sym>Flag, Blue</sym></wpt><wpt lat="10.324296" lon="123.943761"><ele>-35.493950</ele><time>2024-07-16T03:39:36Z</time><name>2531</name><sym>Flag, Blue</sym></wpt><wpt lat="10.324277" lon="123.943723"><ele>-35.493950</ele><time>2024-07-16T03:39:53Z</time><name>2532</name><sym>Flag, Blue</sym></wpt><wpt lat="10.324257" lon="123.943730"><ele>-35.493950</ele><time>2024-07-16T03:40:13Z</time><name>2533</name><sym>Flag, Blue</sym></wpt><wpt lat="10.324233" lon="123.943705"><ele>-35.493950</ele><time>2024-07-16T03:40:27Z</time><name>2534</name><sym>Flag, Blue</sym></wpt><wpt lat="10.324161" lon="123.943600"><ele>-35.493950</ele><time>2024-07-16T03:41:05Z</time><name>2535</name><sym>Flag, Blue</sym></wpt><wpt lat="10.324134" lon="123.943599"><ele>-35.493950</ele><time>2024-07-16T03:41:24Z</time><name>2536</name><sym>Flag, Blue</sym></wpt><wpt lat="10.324116" lon="123.943632"><ele>-35.493950</ele><time>2024-07-16T03:41:48Z</time><name>2537</name><sym>Flag, Blue</sym></wpt><wpt lat="10.324400" lon="123.943436"><ele>-35.493950</ele><time>2024-07-16T03:43:08Z</time><name>2538</name><sym>Flag, Blue</sym></wpt><wpt lat="10.324472" lon="123.943433"><ele>-35.493950</ele><time>2024-07-16T03:43:58Z</time><name>2539</name><sym>Flag, Blue</sym></wpt><wpt lat="10.324430" lon="123.943397"><ele>-35.493950</ele><time>2024-07-16T03:44:21Z</time><name>2540</name><sym>Flag, Blue</sym></wpt><wpt lat="10.324365" lon="123.943203"><ele>-35.493950</ele><time>2024-07-16T03:46:13Z</time><name>2541</name><sym>Flag, Blue</sym></wpt><wpt lat="10.324325" lon="123.943163"><ele>-35.493950</ele><time>2024-07-16T03:46:27Z</time><name>2542</name><sym>Flag, Blue</sym></wpt><wpt lat="10.324332" lon="123.943173"><ele>-35.493950</ele><time>2024-07-16T03:47:04Z</time><name>2543</name><sym>Flag, Blue</sym></wpt><wpt lat="10.324038" lon="123.943496"><ele>-35.493950</ele><time>2024-07-16T03:48:46Z</time><name>2544</name><sym>Flag, Blue</sym></wpt><wpt lat="10.323900" lon="123.943527"><ele>-35.493950</ele><time>2024-07-16T03:50:58Z</time><name>2545</name><sym>Flag, Blue</sym></wpt><wpt lat="10.323917" lon="123.943483"><ele>-35.493950</ele><time>2024-07-16T03:51:46Z</time><name>2546</name><sym>Flag, Blue</sym></wpt><wpt lat="10.323844" lon="123.943287"><ele>-35.493950</ele><time>2024-07-16T03:53:45Z</time><name>2547</name><sym>Flag, Blue</sym></wpt><wpt lat="10.323866" lon="123.943230"><ele>-35.493950</ele><time>2024-07-16T03:54:53Z</time><name>2548</name><sym>Flag, Blue</sym></wpt><wpt lat="10.323893" lon="123.943203"><ele>-35.493950</ele><time>2024-07-16T03:55:22Z</time><name>2549</name><sym>Flag, Blue</sym></wpt><wpt lat="10.323902" lon="123.943203"><ele>-35.493950</ele><time>2024-07-16T03:55:41Z</time><name>2550</name><sym>Flag, Blue</sym></wpt><wpt lat="10.323901" lon="123.943194"><ele>-35.493950</ele><time>2024-07-16T03:56:06Z</time><name>2551</name><sym>Flag, Blue</sym></wpt><wpt lat="10.323902" lon="123.943148"><ele>-35.493950</ele><time>2024-07-16T03:56:29Z</time><name>2552</name><sym>Flag, Blue</sym></wpt></gpx>