<?xml version="1.0" encoding="UTF-8" standalone="no" ?><gpx xmlns="http://www.topografix.com/GPX/1/1" xmlns:gpxx="http://www.garmin.com/xmlschemas/GpxExtensions/v3" xmlns:wptx1="http://www.garmin.com/xmlschemas/WaypointExtension/v1" xmlns:gpxtpx="http://www.garmin.com/xmlschemas/TrackPointExtension/v1" creator="Oregon 750" version="1.1" xmlns:xsi="http://www.w3.org/2001/XMLSchema-instance" xsi:schemaLocation="http://www.topografix.com/GPX/1/1 http://www.topografix.com/GPX/1/1/gpx.xsd http://www.garmin.com/xmlschemas/GpxExtensions/v3 http://www8.garmin.com/xmlschemas/GpxExtensionsv3.xsd http://www.garmin.com/xmlschemas/TrackStatsExtension/v1 http://www8.garmin.com/xmlschemas/TrackStatsExtension.xsd http://www.garmin.com/xmlschemas/WaypointExtension/v1 http://www8.garmin.com/xmlschemas/WaypointExtensionv1.xsd http://www.garmin.com/xmlschemas/TrackPointExtension/v1 http://www.garmin.com/xmlschemas/TrackPointExtensionv1.xsd"><metadata><link href="http://www.garmin.com"><text>Garmin International</text></link><time>2024-07-16T07:09:24Z</time></metadata><wpt lat="10.324167" lon="123.942046"><ele>-29.662270</ele><time>2024-07-16T07:09:24Z</time><name>2553</name><sym>Flag, Blue</sym></wpt><wpt lat="10.324147" lon="123.941964"><ele>-29.662270</ele><time>2024-07-16T07:10:35Z</time><name>2554</name><sym>Flag, Blue</sym></wpt><wpt lat="10.324155" lon="123.941967"><ele>-29.662270</ele><time>2024-07-16T07:11:06Z</time><name>2555</name><sym>Flag, Blue</sym></wpt><wpt lat="10.324093" lon="123.942036"><ele>-29.662270</ele><time>2024-07-16T07:12:37Z</time><name>2556</name><sym>Flag, Blue</sym></wpt><wpt lat="10.324102" lon="123.942048"><ele>-29.662270</ele><time>2024-07-16T07:13:15Z</time><name>2557</name><sym>Flag, Blue</sym></wpt><wpt lat="10.324050" lon="123.941987"><ele>-29.662270</ele><time>2024-07-16T07:14:10Z</time><name>2558</name><sym>Flag, Blue</sym></wpt><wpt lat="10.324038" lon="123.941983"><ele>-29.662270</ele><time>2024-07-16T07:14:27Z</time><name>2559</name><sym>Flag, Blue</sym></wpt><wpt lat="10.324018" lon="123.941984"><ele>-29.662270</ele><time>2024-07-16T07:16:13Z</time><name>2560</name><sym>Flag, Blue</sym></wpt><wpt lat="10.323978" lon="123.941973"><ele>-29.662270</ele><time>2024-07-16T07:17:06Z</time><name>2561</name><sym>Flag, Blue</sym></wpt><wpt lat="10.323943" lon="123.941935"><ele>-29.662270</ele><time>2024-07-16T07:17:45Z</time><name>2562</name><sym>Flag, Blue</sym></wpt><wpt lat="10.323956" lon="123.941939"><ele>-29.662270</ele><time>2024-07-16T07:18:17Z</time><name>2563</name><sym>Flag, Blue</sym></wpt><wpt lat="10.323893" lon="123.941899"><ele>-29.662270</ele><time>2024-07-16T07:19:43Z</time><name>2564</name><sym>Flag, Blue</sym></wpt><wpt lat="10.323853" lon="123.941887"><ele>-29.662270</ele><time>2024-07-16T07:20:36Z</time><name>2565</name><sym>Flag, Blue</sym></wpt><wpt lat="10.323837" lon="123.941874"><ele>-29.662270</ele><time>2024-07-16T07:21:25Z</time><name>2566</name><sym>Flag, Blue</sym></wpt><wpt lat="10.323827" lon="123.941856"><ele>-29.662270</ele><time>2024-07-16T07:22:13Z</time><name>2567</name><sym>Flag, Blue</sym></wpt><wpt lat="10.323813" lon="123.941848"><ele>-29.662270</ele><time>2024-07-16T07:22:49Z</time><name>2568</name><sym>Flag, Blue</sym></wpt><wpt lat="10.323829" lon="123.941830"><ele>-29.662270</ele><time>2024-07-16T07:23:34Z</time><name>2569</name><sym>Flag, Blue</sym></wpt><wpt lat="10.323789" lon="123.941817"><ele>-29.662270</ele><time>2024-07-16T07:24:26Z</time><name>2570</name><sym>Flag, Blue</sym></wpt><wpt lat="10.323865" lon="123.941711"><ele>-29.662270</ele><time>2024-07-16T07:25:34Z</time><name>2571</name><sym>Flag, Blue</sym></wpt><wpt lat="10.323868" lon="123.941692"><ele>-29.662270</ele><time>2024-07-16T07:26:10Z</time><name>2572</name><sym>Flag, Blue</sym></wpt><wpt lat="10.323762" lon="123.941764"><ele>-29.662270</ele><time>2024-07-16T07:27:11Z</time><name>2573</name><sym>Flag, Blue</sym></wpt><wpt lat="10.323752" lon="123.941805"><ele>-29.662270</ele><time>2024-07-16T07:27:45Z</time><name>2574</name><sym>Flag, Blue</sym></wpt><wpt lat="10.323756" lon="123.941716"><ele>-29.662270</ele><time>2024-07-16T07:28:31Z</time><name>2575</name><sym>Flag, Blue</sym></wpt><wpt lat="10.323724" lon="123.941642"><ele>-29.662270</ele><time>2024-07-16T07:29:16Z</time><name>2576</name><sym>Flag, Blue</sym></wpt><wpt lat="10.323601" lon="123.941650"><ele>-29.662270</ele><time>2024-07-16T07:31:01Z</time><name>2577</name><sym>Flag, Blue</sym></wpt><wpt lat="10.323553" lon="123.941600"><ele>-29.662270</ele><time>2024-07-16T07:31:38Z</time><name>2578</name><sym>Flag, Blue</sym></wpt><wpt lat="10.323576" lon="123.941526"><ele>-29.662270</ele><time>2024-07-16T07:33:42Z</time><name>2579</name><sym>Flag, Blue</sym></wpt><wpt lat="10.323527" lon="123.941520"><ele>-29.662270</ele><time>2024-07-16T07:35:06Z</time><name>2580</name><sym>Flag, Blue</sym></wpt><wpt lat="10.323523" lon="123.941535"><ele>-29.662270</ele><time>2024-07-16T07:35:24Z</time><name>2581</name><sym>Flag, Blue</sym></wpt><wpt lat="10.323501" lon="123.941532"><ele>-29.662270</ele><time>2024-07-16T07:35:47Z</time><name>2582</name><sym>Flag, Blue</sym></wpt><wpt lat="10.323514" lon="123.941544"><ele>-29.662270</ele><time>2024-07-16T07:36:21Z</time><name>2583</name><sym>Flag, Blue</sym></wpt><wpt lat="10.323499" lon="123.941506"><ele>-29.662270</ele><time>2024-07-16T07:37:19Z</time><name>2584</name><sym>Flag, Blue</sym></wpt><wpt lat="10.323522" lon="123.941518"><ele>-29.662270</ele><time>2024-07-16T07:38:12Z</time><name>2585</name><sym>Flag, Blue</sym></wpt><wpt lat="10.323394" lon="123.941305"><ele>-29.662270</ele><time>2024-07-16T07:39:37Z</time><name>2586</name><sym>Flag, Blue</sym></wpt><wpt lat="10.323422" lon="123.941197"><ele>-29.662270</ele><time>2024-07-16T07:40:06Z</time><name>2587</name><sym>Flag, Blue</sym></wpt><wpt lat="10.323960" lon="123.941100"><ele>-29.662270</ele><time>2024-07-16T07:41:36Z</time><name>2588</name><sym>Flag, Blue</sym></wpt><wpt lat="10.324002" lon="123.941072"><ele>-29.662270</ele><time>2024-07-16T07:42:16Z</time><name>2589</name><sym>Flag, Blue</sym></wpt><wpt lat="10.323998" lon="123.941091"><ele>-29.662270</ele><time>2024-07-16T07:43:03Z</time><name>2590</name><sym>Flag, Blue</sym></wpt><wpt lat="10.324070" lon="123.941131"><ele>-29.662270</ele><time>2024-07-16T07:44:06Z</time><name>2591</name><sym>Flag, Blue</sym></wpt><wpt lat="10.324073" lon="123.941158"><ele>-29.662270</ele><time>2024-07-16T07:44:23Z</time><name>2592</name><sym>Flag, Blue</sym></wpt><wpt lat="10.324119" lon="123.941277"><ele>-29.662270</ele><time>2024-07-16T07:45:28Z</time><name>2593</name><sym>Flag, Blue</sym></wpt><wpt lat="10.324127" lon="123.941347"><ele>-29.662270</ele><time>2024-07-16T07:45:50Z</time><name>2594</name><sym>Flag, Blue</sym></wpt><wpt lat="10.324305" lon="123.941373"><ele>-29.662270</ele><time>2024-07-16T07:46:54Z</time><name>2595</name><sym>Flag, Blue</sym></wpt><wpt lat="10.324301" lon="123.941380"><ele>-29.662270</ele><time>2024-07-16T07:47:30Z</time><name>2596</name><sym>Flag, Blue</sym></wpt><wpt lat="10.324260" lon="123.941485"><ele>-29.662270</ele><time>2024-07-16T07:48:12Z</time><name>2597</name><sym>Flag, Blue</sym></wpt><wpt lat="10.324211" lon="123.941596"><ele>-29.662270</ele><time>2024-07-16T07:49:05Z</time><name>2598</name><sym>Flag, Blue</sym></wpt><wpt lat="10.324165" lon="123.941687"><ele>-29.662270</ele><time>2024-07-16T07:49:38Z</time><name>2599</name><sym>Flag, Blue</sym></wpt><wpt lat="10.324144" lon="123.941796"><ele>-29.662270</ele><time>2024-07-16T07:50:14Z</time><name>2600</name><sym>Flag, Blue</sym></wpt><wpt lat="10.324132" lon="123.941664"><ele>-31.845652</ele><time>2024-07-16T07:53:15Z</time><name>2601</name><sym>Flag, Blue</sym></wpt><wpt lat="10.324374" lon="123.941250"><ele>-31.845652</ele><time>2024-07-16T07:56:55Z</time><name>2602</name><sym>Flag, Blue</sym></wpt><wpt lat="10.324357" lon="123.941262"><ele>-31.845652</ele><time>2024-07-16T07:57:20Z</time><name>2603</name><sym>Flag, Blue</sym></wpt><wpt lat="10.324324" lon="123.941229"><ele>-31.845652</ele><time>2024-07-16T07:57:47Z</time><name>2604</name><sym>Flag, Blue</sym></wpt><wpt lat="10.324316" lon="123.941215"><ele>-31.845652</ele><time>2024-07-16T07:58:18Z</time><name>2605</name><sym>Flag, Blue</sym></wpt><wpt lat="10.324328" lon="123.941208"><ele>-31.845652</ele><time>2024-07-16T07:58:39Z</time><name>2606</name><sym>Flag, Blue</sym></wpt><wpt lat="10.324287" lon="123.941199"><ele>-31.845652</ele><time>2024-07-16T07:59:59Z</time><name>2607</name><sym>Flag, Blue</sym></wpt><wpt lat="10.324225" lon="123.941153"><ele>-31.845652</ele><time>2024-07-16T08:01:09Z</time><name>2608</name><sym>Flag, Blue</sym></wpt><wpt lat="10.324208" lon="123.941155"><ele>-31.845652</ele><time>2024-07-16T08:01:26Z</time><name>2609</name><sym>Flag, Blue</sym></wpt><wpt lat="10.324180" lon="123.941123"><ele>-31.845652</ele><time>2024-07-16T08:02:14Z</time><name>2610</name><sym>Flag, Blue</sym></wpt><wpt lat="10.324161" lon="123.941115"><ele>-31.845652</ele><time>2024-07-16T08:03:05Z</time><name>2611</name><sym>Flag, Blue</sym></wpt><wpt lat="10.324090" lon="123.941136"><ele>-31.845652</ele><time>2024-07-16T08:04:01Z</time><name>2612</name><sym>Flag, Blue</sym></wpt><wpt lat="10.324084" lon="123.941077"><ele>-31.845652</ele><time>2024-07-16T08:04:21Z</time><name>2613</name><sym>Flag, Blue</sym></wpt><wpt lat="10.324048" lon="123.941010"><ele>-31.845652</ele><time>2024-07-16T08:05:04Z</time><name>2614</name><sym>Flag, Blue</sym></wpt><wpt lat="10.324041" lon="123.941010"><ele>-31.845652</ele><time>2024-07-16T08:05:13Z</time><name>2615</name><sym>Flag, Blue</sym></wpt><wpt lat="10.323952" lon="123.940996"><ele>-31.845652</ele><time>2024-07-16T08:05:43Z</time><name>2616</name><sym>Flag, Blue</sym></wpt><wpt lat="10.323936" lon="123.940996"><ele>-31.845652</ele><time>2024-07-16T08:05:59Z</time><name>2617</name><sym>Flag, Blue</sym></wpt><wpt lat="10.323901" lon="123.940975"><ele>-31.845652</ele><time>2024-07-16T08:06:26Z</time><name>2618</name><sym>Flag, Blue</sym></wpt><wpt lat="10.323861" lon="123.940968"><ele>-31.845652</ele><time>2024-07-16T08:06:49Z</time><name>2619</name><sym>Flag, Blue</sym></wpt><wpt lat="10.323848" lon="123.940934"><ele>-31.845652</ele><time>2024-07-16T08:07:33Z</time><name>2620</name><sym>Flag, Blue</sym></wpt><wpt lat="10.323787" lon="123.940902"><ele>-31.845652</ele><time>2024-07-16T08:08:04Z</time><name>2621</name><sym>Flag, Blue</sym></wpt><wpt lat="10.323725" lon="123.940839"><ele>-31.845652</ele><time>2024-07-16T08:08:45Z</time><name>2622</name><sym>Flag, Blue</sym></wpt><wpt lat="10.324154" lon="123.942084"><ele>-31.798998</ele><time>2024-07-16T08:14:32Z</time><name>2623</name><sym>Flag, Blue</sym></wpt><wpt lat="10.324076" lon="123.942180"><ele>-31.798998</ele><time>2024-07-16T08:15:24Z</time><name>2624</name><sym>Flag, Blue</sym></wpt><wpt lat="10.324021" lon="123.942246"><ele>-31.798998</ele><time>2024-07-16T08:16:13Z</time><name>2625</name><sym>Flag, Blue</sym></wpt><wpt lat="10.324008" lon="123.942263"><ele>-31.798998</ele><time>2024-07-16T08:16:34Z</time><name>2626</name><sym>Flag, Blue</sym></wpt><wpt lat="10.323951" lon="123.942390"><ele>-31.798998</ele><time>2024-07-16T08:17:21Z</time><name>2627</name><sym>Flag, Blue</sym></wpt><wpt lat="10.323949" lon="123.942391"><ele>-31.798998</ele><time>2024-07-16T08:17:28Z</time><name>2628</name><sym>Flag, Blue</sym></wpt><wpt lat="10.323972" lon="123.942422"><ele>-31.798998</ele><time>2024-07-16T08:18:40Z</time><name>2629</name><sym>Flag, Blue</sym></wpt><wpt lat="10.323956" lon="123.942193"><ele>-42.921181</ele><time>2024-07-17T01:59:23Z</time><name>2630</name><sym>Flag, Blue</sym></wpt><wpt lat="10.323932" lon="123.942202"><ele>-42.921181</ele><time>2024-07-17T01:59:43Z</time><name>2631</name><sym>Flag, Blue</sym></wpt><wpt lat="10.323945" lon="123.942148"><ele>-42.921181</ele><time>2024-07-17T02:00:37Z</time><name>2632</name><sym>Flag, Blue</sym></wpt><wpt lat="10.323725" lon="123.941926"><ele>-42.921181</ele><time>2024-07-17T02:02:26Z</time><name>2633</name><sym>Flag, Blue</sym></wpt><wpt lat="10.323711" lon="123.941939"><ele>-42.921181</ele><time>2024-07-17T02:02:41Z</time><name>2634</name><sym>Flag, Blue</sym></wpt><wpt lat="10.323699" lon="123.941966"><ele>-42.921181</ele><time>2024-07-17T02:03:18Z</time><name>2635</name><sym>Flag, Blue</sym></wpt><wpt lat="10.323680" lon="123.941988"><ele>-42.921181</ele><time>2024-07-17T02:03:53Z</time><name>2636</name><sym>Flag, Blue</sym></wpt><wpt lat="10.323696" lon="123.942025"><ele>-42.921181</ele><time>2024-07-17T02:04:06Z</time><name>2637</name><sym>Flag, Blue</sym></wpt><wpt lat="10.323698" lon="123.942076"><ele>-42.921181</ele><time>2024-07-17T02:04:29Z</time><name>2638</name><sym>Flag, Blue</sym></wpt><wpt lat="10.323669" lon="123.942099"><ele>-42.921181</ele><time>2024-07-17T02:04:45Z</time><name>2639</name><sym>Flag, Blue</sym></wpt><wpt lat="10.323663" lon="123.942121"><ele>-42.921181</ele><time>2024-07-17T02:04:56Z</time><name>2640</name><sym>Flag, Blue</sym></wpt><wpt lat="10.323602" lon="123.942127"><ele>-42.921181</ele><time>2024-07-17T02:06:16Z</time><name>2641</name><sym>Flag, Blue</sym></wpt><wpt lat="10.323115" lon="123.942010"><ele>-42.930511</ele><time>2024-07-17T02:08:14Z</time><name>2642</name><sym>Flag, Blue</sym></wpt><wpt lat="10.323212" lon="123.942065"><ele>-42.930511</ele><time>2024-07-17T02:10:23Z</time><name>2643</name><sym>Flag, Blue</sym></wpt><wpt lat="10.323231" lon="123.942054"><ele>-42.930511</ele><time>2024-07-17T02:10:48Z</time><name>2644</name><sym>Flag, Blue</sym></wpt><wpt lat="10.323235" lon="123.942073"><ele>-42.930511</ele><time>2024-07-17T02:11:27Z</time><name>2645</name><sym>Flag, Blue</sym></wpt><wpt lat="10.323231" lon="123.942073"><ele>-42.930511</ele><time>2024-07-17T02:11:51Z</time><name>2646</name><sym>Flag, Blue</sym></wpt><wpt lat="10.323208" lon="123.942064"><ele>-42.930511</ele><time>2024-07-17T02:13:03Z</time><name>2647</name><sym>Flag, Blue</sym></wpt><wpt lat="10.323194" lon="123.942070"><ele>-42.930511</ele><time>2024-07-17T02:13:16Z</time><name>2648</name><sym>Flag, Blue</sym></wpt><wpt lat="10.323298" lon="123.942113"><ele>-42.930511</ele><time>2024-07-17T02:14:15Z</time><name>2649</name><sym>Flag, Blue</sym></wpt><wpt lat="10.323309" lon="123.942124"><ele>-42.930511</ele><time>2024-07-17T02:14:36Z</time><name>2650</name><sym>Flag, Blue</sym></wpt><wpt lat="10.323314" lon="123.942118"><ele>-42.930511</ele><time>2024-07-17T02:14:45Z</time><name>2651</name><sym>Flag, Blue</sym></wpt><wpt lat="10.323326" lon="123.942123"><ele>-42.930511</ele><time>2024-07-17T02:14:58Z</time><name>2652</name><sym>Flag, Blue</sym></wpt><wpt lat="10.323352" lon="123.942140"><ele>-42.930511</ele><time>2024-07-17T02:15:22Z</time><name>2653</name><sym>Flag, Blue</sym></wpt><wpt lat="10.323360" lon="123.942155"><ele>-42.930511</ele><time>2024-07-17T02:15:38Z</time><name>2654</name><sym>Flag, Blue</sym></wpt><wpt lat="10.323274" lon="123.942164"><ele>-42.930511</ele><time>2024-07-17T02:16:41Z</time><name>2655</name><sym>Flag, Blue</sym></wpt><wpt lat="10.323220" lon="123.942232"><ele>-42.930511</ele><time>2024-07-17T02:18:34Z</time><name>2656</name><sym>Flag, Blue</sym></wpt><wpt lat="10.323193" lon="123.942232"><ele>-42.930511</ele><time>2024-07-17T02:18:44Z</time><name>2657</name><sym>Flag, Blue</sym></wpt><wpt lat="10.323168" lon="123.942241"><ele>-42.930511</ele><time>2024-07-17T02:19:15Z</time><name>2658</name><sym>Flag, Blue</sym></wpt><wpt lat="10.323021" lon="123.942363"><ele>-42.930511</ele><time>2024-07-17T02:20:13Z</time><name>2659</name><sym>Flag, Blue</sym></wpt><wpt lat="10.322991" lon="123.942392"><ele>-42.930511</ele><time>2024-07-17T02:20:31Z</time><name>2660</name><sym>Flag, Blue</sym></wpt><wpt lat="10.322980" lon="123.942409"><ele>-42.930511</ele><time>2024-07-17T02:20:45Z</time><name>2661</name><sym>Flag, Blue</sym></wpt><wpt lat="10.322942" lon="123.942416"><ele>-42.930511</ele><time>2024-07-17T02:21:24Z</time><name>2662</name><sym>Flag, Blue</sym></wpt><wpt lat="10.322969" lon="123.942378"><ele>-42.930511</ele><time>2024-07-17T02:24:56Z</time><name>2663</name><sym>Flag, Blue</sym></wpt><wpt lat="10.323470" lon="123.942026"><ele>-42.930511</ele><time>2024-07-17T02:27:52Z</time><name>2664</name><sym>Flag, Blue</sym></wpt><wpt lat="10.323508" lon="123.942012"><ele>-42.921181</ele><time>2024-07-17T02:28:21Z</time><name>2665</name><sym>Flag, Blue</sym></wpt><wpt lat="10.323508" lon="123.941985"><ele>-42.921181</ele><time>2024-07-17T02:28:43Z</time><name>2666</name><sym>Flag, Blue</sym></wpt><wpt lat="10.323549" lon="123.941920"><ele>-42.921181</ele><time>2024-07-17T02:29:22Z</time><name>2667</name><sym>Flag, Blue</sym></wpt><wpt lat="10.323575" lon="123.941894"><ele>-42.921181</ele><time>2024-07-17T02:29:38Z</time><name>2668</name><sym>Flag, Blue</sym></wpt><wpt lat="10.323536" lon="123.941813"><ele>-42.921181</ele><time>2024-07-17T02:30:46Z</time><name>2669</name><sym>Flag, Blue</sym></wpt><wpt lat="10.323539" lon="123.941858"><ele>-42.921181</ele><time>2024-07-17T02:31:23Z</time><name>2670</name><sym>Flag, Blue</sym></wpt><wpt lat="10.323540" lon="123.941913"><ele>-42.921181</ele><time>2024-07-17T02:31:45Z</time><name>2671</name><sym>Flag, Blue</sym></wpt><wpt lat="10.323453" lon="123.941981"><ele>-42.930511</ele><time>2024-07-17T02:32:30Z</time><name>2672</name><sym>Flag, Blue</sym></wpt><wpt lat="10.323446" lon="123.941990"><ele>-43.574329</ele><time>2024-07-17T02:43:38Z</time><name>2673</name><sym>Flag, Blue</sym></wpt><wpt lat="10.322957" lon="123.941675"><ele>-43.574329</ele><time>2024-07-17T02:44:08Z</time><name>2674</name><sym>Flag, Blue</sym></wpt><wpt lat="10.322937" lon="123.941663"><ele>-43.574329</ele><time>2024-07-17T02:44:32Z</time><name>2675</name><sym>Flag, Blue</sym></wpt><wpt lat="10.323009" lon="123.941557"><ele>-43.574329</ele><time>2024-07-17T02:45:06Z</time><name>2676</name><sym>Flag, Blue</sym></wpt><wpt lat="10.323085" lon="123.941409"><ele>-43.574329</ele><time>2024-07-17T02:46:05Z</time><name>2677</name><sym>Flag, Blue</sym></wpt><wpt lat="10.322910" lon="123.941486"><ele>-43.574329</ele><time>2024-07-17T02:46:52Z</time><name>2678</name><sym>Flag, Blue</sym></wpt><wpt lat="10.322399" lon="123.941349"><ele>-43.574329</ele><time>2024-07-17T02:50:25Z</time><name>2679</name><sym>Flag, Blue</sym></wpt><wpt lat="10.322253" lon="123.941302"><ele>-43.574329</ele><time>2024-07-17T02:51:12Z</time><name>2680</name><sym>Flag, Blue</sym></wpt><wpt lat="10.322264" lon="123.941284"><ele>-43.574329</ele><time>2024-07-17T02:51:27Z</time><name>2681</name><sym>Flag, Blue</sym></wpt><wpt lat="10.322249" lon="123.941258"><ele>-43.574329</ele><time>2024-07-17T02:51:48Z</time><name>2682</name><sym>Flag, Blue</sym></wpt><wpt lat="10.322237" lon="123.941215"><ele>-43.574329</ele><time>2024-07-17T02:52:06Z</time><name>2683</name><sym>Flag, Blue</sym></wpt><wpt lat="10.322189" lon="123.941157"><ele>-43.574329</ele><time>2024-07-17T02:52:24Z</time><name>2684</name><sym>Flag, Blue</sym></wpt><wpt lat="10.322191" lon="123.941081"><ele>-42.678585</ele><time>2024-07-17T02:55:37Z</time><name>2685</name><sym>Flag, Blue</sym></wpt><wpt lat="10.322316" lon="123.940708"><ele>-42.678585</ele><time>2024-07-17T02:58:29Z</time><name>2686</name><sym>Flag, Blue</sym></wpt><wpt lat="10.322316" lon="123.940646"><ele>-42.678585</ele><time>2024-07-17T02:58:44Z</time><name>2687</name><sym>Flag, Blue</sym></wpt><wpt lat="10.322327" lon="123.940617"><ele>-42.678585</ele><time>2024-07-17T02:59:11Z</time><name>2688</name><sym>Flag, Blue</sym></wpt><wpt lat="10.322606" lon="123.940092"><ele>-42.678585</ele><time>2024-07-17T03:00:53Z</time><name>2689</name><sym>Flag, Blue</sym></wpt><wpt lat="10.322627" lon="123.940101"><ele>-42.678585</ele><time>2024-07-17T03:01:09Z</time><name>2690</name><sym>Flag, Blue</sym></wpt><wpt lat="10.322749" lon="123.940039"><ele>-42.678585</ele><time>2024-07-17T03:01:47Z</time><name>2691</name><sym>Flag, Blue</sym></wpt><wpt lat="10.322761" lon="123.940056"><ele>-42.678585</ele><time>2024-07-17T03:02:08Z</time><name>2692</name><sym>Flag, Blue</sym></wpt><wpt lat="10.322900" lon="123.940167"><ele>-42.678585</ele><time>2024-07-17T03:02:51Z</time><name>2693</name><sym>Flag, Blue</sym></wpt><wpt lat="10.322910" lon="123.940160"><ele>-42.678585</ele><time>2024-07-17T03:03:03Z</time><name>2694</name><sym>Flag, Blue</sym></wpt><wpt lat="10.322914" lon="123.940169"><ele>-42.678585</ele><time>2024-07-17T03:03:13Z</time><name>2695</name><sym>Flag, Blue</sym></wpt><wpt lat="10.322940" lon="123.940207"><ele>-42.678585</ele><time>2024-07-17T03:03:24Z</time><name>2696</name><sym>Flag, Blue</sym></wpt><wpt lat="10.322974" lon="123.940248"><ele>-42.678585</ele><time>2024-07-17T03:03:39Z</time><name>2697</name><sym>Flag, Blue</sym></wpt><wpt lat="10.322912" lon="123.940275"><ele>-42.678585</ele><time>2024-07-17T03:04:08Z</time><name>2698</name><sym>Flag, Blue</sym></wpt><wpt lat="10.322904" lon="123.940270"><ele>-42.678585</ele><time>2024-07-17T03:04:17Z</time><name>2699</name><sym>Flag, Blue</sym></wpt><wpt lat="10.322970" lon="123.940248"><ele>-42.678585</ele><time>2024-07-17T03:04:41Z</time><name>2700</name><sym>Flag, Blue</sym></wpt><wpt lat="10.323023" lon="123.940249"><ele>-42.678585</ele><time>2024-07-17T03:05:23Z</time><name>2701</name><sym>Flag, Blue</sym></wpt><wpt lat="10.323054" lon="123.940261"><ele>-42.678585</ele><time>2024-07-17T03:05:46Z</time><name>2702</name><sym>Flag, Blue</sym></wpt><wpt lat="10.323057" lon="123.940257"><ele>-42.678585</ele><time>2024-07-17T03:05:56Z</time><name>2703</name><sym>Flag, Blue</sym></wpt><wpt lat="10.323075" lon="123.940269"><ele>-42.678585</ele><time>2024-07-17T03:06:12Z</time><name>2704</name><sym>Flag, Blue</sym></wpt><wpt lat="10.323100" lon="123.940288"><ele>-42.678585</ele><time>2024-07-17T03:06:34Z</time><name>2705</name><sym>Flag, Blue</sym></wpt><wpt lat="10.323073" lon="123.940330"><ele>-42.678585</ele><time>2024-07-17T03:07:00Z</time><name>2706</name><sym>Flag, Blue</sym></wpt><wpt lat="10.323075" lon="123.940349"><ele>-42.678585</ele><time>2024-07-17T03:07:10Z</time><name>2707</name><sym>Flag, Blue</sym></wpt><wpt lat="10.323183" lon="123.940398"><ele>-42.678585</ele><time>2024-07-17T03:07:33Z</time><name>2708</name><sym>Flag, Blue</sym></wpt><wpt lat="10.323201" lon="123.940415"><ele>-42.678585</ele><time>2024-07-17T03:07:52Z</time><name>2709</name><sym>Flag, Blue</sym></wpt><wpt lat="10.323244" lon="123.940438"><ele>-42.669254</ele><time>2024-07-17T03:08:41Z</time><name>2710</name><sym>Flag, Blue</sym></wpt><wpt lat="10.323475" lon="123.940576"><ele>-42.678585</ele><time>2024-07-17T03:10:38Z</time><name>2711</name><sym>Flag, Blue</sym></wpt><wpt lat="10.323473" lon="123.940595"><ele>-42.678585</ele><time>2024-07-17T03:11:05Z</time><name>2712</name><sym>Flag, Blue</sym></wpt><wpt lat="10.323489" lon="123.940628"><ele>-42.678585</ele><time>2024-07-17T03:11:21Z</time><name>2713</name><sym>Flag, Blue</sym></wpt><wpt lat="10.323555" lon="123.940714"><ele>-43.807598</ele><time>2024-07-17T03:17:50Z</time><name>2714</name><sym>Flag, Blue</sym></wpt><wpt lat="10.323705" lon="123.943063"><ele>-43.807598</ele><time>2024-07-17T03:18:41Z</time><name>2715</name><sym>Flag, Blue</sym></wpt><wpt lat="10.323698" lon="123.943170"><ele>-43.807598</ele><time>2024-07-17T03:19:11Z</time><name>2716</name><sym>Flag, Blue</sym></wpt><wpt lat="10.323680" lon="123.943303"><ele>-43.816929</ele><time>2024-07-17T03:20:50Z</time><name>2717</name><sym>Flag, Blue</sym></wpt><wpt lat="10.323665" lon="123.943289"><ele>-43.816929</ele><time>2024-07-17T03:21:13Z</time><name>2718</name><sym>Flag, Blue</sym></wpt><wpt lat="10.323658" lon="123.943301"><ele>-43.816929</ele><time>2024-07-17T03:21:44Z</time><name>2719</name><sym>Flag, Blue</sym></wpt><wpt lat="10.323373" lon="123.943273"><ele>-43.816929</ele><time>2024-07-17T03:22:47Z</time><name>2720</name><sym>Flag, Blue</sym></wpt><wpt lat="10.323257" lon="123.943154"><ele>-43.816929</ele><time>2024-07-17T03:23:20Z</time><name>2721</name><sym>Flag, Blue</sym></wpt><wpt lat="10.323265" lon="123.943121"><ele>-43.816929</ele><time>2024-07-17T03:24:09Z</time><name>2722</name><sym>Flag, Blue</sym></wpt><wpt lat="10.323220" lon="123.943128"><ele>-43.816929</ele><time>2024-07-17T03:24:37Z</time><name>2723</name><sym>Flag, Blue</sym></wpt><wpt lat="10.323130" lon="123.943071"><ele>-43.816929</ele><time>2024-07-17T03:25:12Z</time><name>2724</name><sym>Flag, Blue</sym></wpt><wpt lat="10.322897" lon="123.942919"><ele>-43.816929</ele><time>2024-07-17T03:26:02Z</time><name>2725</name><sym>Flag, Blue</sym></wpt><wpt lat="10.322812" lon="123.942854"><ele>-43.816929</ele><time>2024-07-17T03:26:31Z</time><name>2726</name><sym>Flag, Blue</sym></wpt><wpt lat="10.322685" lon="123.942764"><ele>-43.816929</ele><time>2024-07-17T03:27:07Z</time><name>2727</name><sym>Flag, Blue</sym></wpt><wpt lat="10.322660" lon="123.942758"><ele>-43.816929</ele><time>2024-07-17T03:27:20Z</time><name>2728</name><sym>Flag, Blue</sym></wpt><wpt lat="10.322646" lon="123.942758"><ele>-43.816929</ele><time>2024-07-17T03:27:32Z</time><name>2729</name><sym>Flag, Blue</sym></wpt><wpt lat="10.322614" lon="123.942753"><ele>-43.816929</ele><time>2024-07-17T03:27:55Z</time><name>2730</name><sym>Flag, Blue</sym></wpt><wpt lat="10.322896" lon="123.942867"><ele>-43.816929</ele><time>2024-07-17T03:29:15Z</time><name>2731</name><sym>Flag, Blue</sym></wpt><wpt lat="10.322849" lon="123.942715"><ele>-43.816929</ele><time>2024-07-17T03:29:58Z</time><name>2732</name><sym>Flag, Blue</sym></wpt><wpt lat="10.322873" lon="123.942716"><ele>-42.902519</ele><time>2024-07-17T03:35:37Z</time><name>2733</name><sym>Flag, Blue</sym></wpt><wpt lat="10.324022" lon="123.942690"><ele>-42.893188</ele><time>2024-07-17T03:36:02Z</time><name>2734</name><sym>Flag, Blue</sym></wpt><wpt lat="10.324024" lon="123.942694"><ele>-42.893188</ele><time>2024-07-17T03:36:23Z</time><name>2735</name><sym>Flag, Blue</sym></wpt><wpt lat="10.324032" lon="123.942675"><ele>-42.893188</ele><time>2024-07-17T03:36:43Z</time><name>2736</name><sym>Flag, Blue</sym></wpt><wpt lat="10.324036" lon="123.942636"><ele>-42.893188</ele><time>2024-07-17T03:36:59Z</time><name>2737</name><sym>Flag, Blue</sym></wpt><wpt lat="10.324177" lon="123.942567"><ele>-42.893188</ele><time>2024-07-17T03:37:37Z</time><name>2738</name><sym>Flag, Blue</sym></wpt><wpt lat="10.324183" lon="123.942565"><ele>-42.893188</ele><time>2024-07-17T03:37:44Z</time><name>2739</name><sym>Flag, Blue</sym></wpt><wpt lat="10.324201" lon="123.942582"><ele>-42.893188</ele><time>2024-07-17T03:38:05Z</time><name>2740</name><sym>Flag, Blue</sym></wpt><wpt lat="10.324255" lon="123.942546"><ele>-42.893188</ele><time>2024-07-17T03:38:32Z</time><name>2741</name><sym>Flag, Blue</sym></wpt><wpt lat="10.324265" lon="123.942563"><ele>-42.893188</ele><time>2024-07-17T03:38:55Z</time><name>2742</name><sym>Flag, Blue</sym></wpt><wpt lat="10.324334" lon="123.942595"><ele>-42.893188</ele><time>2024-07-17T03:39:20Z</time><name>2743</name><sym>Flag, Blue</sym></wpt><wpt lat="10.324429" lon="123.942631"><ele>-42.893188</ele><time>2024-07-17T03:40:07Z</time><name>2744</name><sym>Flag, Blue</sym></wpt><wpt lat="10.324435" lon="123.942642"><ele>-42.893188</ele><time>2024-07-17T03:40:21Z</time><name>2745</name><sym>Flag, Blue</sym></wpt><wpt lat="10.324497" lon="123.942649"><ele>-42.893188</ele><time>2024-07-17T03:40:58Z</time><name>2746</name><sym>Flag, Blue</sym></wpt><wpt lat="10.324499" lon="123.942641"><ele>-42.893188</ele><time>2024-07-17T03:41:10Z</time><name>2747</name><sym>Flag, Blue</sym></wpt><wpt lat="10.324517" lon="123.942689"><ele>-42.893188</ele><time>2024-07-17T03:41:41Z</time><name>2748</name><sym>Flag, Blue</sym></wpt><wpt lat="10.324381" lon="123.942725"><ele>-42.893188</ele><time>2024-07-17T03:42:24Z</time><name>2749</name><sym>Flag, Blue</sym></wpt><wpt lat="10.324387" lon="123.942700"><ele>-42.893188</ele><time>2024-07-17T03:43:29Z</time><name>2750</name><sym>Flag, Blue</sym></wpt><wpt lat="10.324398" lon="123.942720"><ele>-42.893188</ele><time>2024-07-17T03:43:55Z</time><name>2751</name><sym>Flag, Blue</sym></wpt><wpt lat="10.324363" lon="123.942720"><ele>-42.893188</ele><time>2024-07-17T03:44:49Z</time><name>2752</name><sym>Flag, Blue</sym></wpt><wpt lat="10.324356" lon="123.942720"><ele>-42.893188</ele><time>2024-07-17T03:45:08Z</time><name>2753</name><sym>Flag, Blue</sym></wpt><wpt lat="10.324376" lon="123.942706"><ele>-42.893188</ele><time>2024-07-17T03:45:28Z</time><name>2754</name><sym>Flag, Blue</sym></wpt><wpt lat="10.324450" lon="123.942685"><ele>-42.893188</ele><time>2024-07-17T03:45:55Z</time><name>2755</name><sym>Flag, Blue</sym></wpt><wpt lat="10.324488" lon="123.942683"><ele>-42.893188</ele><time>2024-07-17T03:46:22Z</time><name>2756</name><sym>Flag, Blue</sym></wpt><wpt lat="10.324608" lon="123.942791"><ele>-42.893188</ele><time>2024-07-17T03:46:49Z</time><name>2757</name><sym>Flag, Blue</sym></wpt><wpt lat="10.324548" lon="123.942806"><ele>-42.893188</ele><time>2024-07-17T03:47:14Z</time><name>2758</name><sym>Flag, Blue</sym></wpt><wpt lat="10.324571" lon="123.942850"><ele>-42.893188</ele><time>2024-07-17T03:47:36Z</time><name>2759</name><sym>Flag, Blue</sym></wpt><wpt lat="10.324463" lon="123.942852"><ele>-42.893188</ele><time>2024-07-17T03:48:08Z</time><name>2760</name><sym>Flag, Blue</sym></wpt><wpt lat="10.324530" lon="123.942903"><ele>-42.893188</ele><time>2024-07-17T03:48:42Z</time><name>2761</name><sym>Flag, Blue</sym></wpt><wpt lat="10.324533" lon="123.942923"><ele>-42.893188</ele><time>2024-07-17T03:48:57Z</time><name>2762</name><sym>Flag, Blue</sym></wpt><wpt lat="10.324527" lon="123.942923"><ele>-42.893188</ele><time>2024-07-17T03:49:07Z</time><name>2763</name><sym>Flag, Blue</sym></wpt><wpt lat="10.324494" lon="123.942933"><ele>-42.893188</ele><time>2024-07-17T03:49:28Z</time><name>2764</name><sym>Flag, Blue</sym></wpt><wpt lat="10.324485" lon="123.942941"><ele>-42.893188</ele><time>2024-07-17T03:49:39Z</time><name>2765</name><sym>Flag, Blue</sym></wpt><wpt lat="10.324475" lon="123.942990"><ele>-42.893188</ele><time>2024-07-17T03:50:48Z</time><name>2766</name><sym>Flag, Blue</sym></wpt><wpt lat="10.324477" lon="123.943005"><ele>-42.893188</ele><time>2024-07-17T03:50:57Z</time><name>2767</name><sym>Flag, Blue</sym></wpt><wpt lat="10.324489" lon="123.943044"><ele>-42.893188</ele><time>2024-07-17T03:51:24Z</time><name>2768</name><sym>Flag, Blue</sym></wpt><wpt lat="10.324477" lon="123.943134"><ele>-42.893188</ele><time>2024-07-17T03:52:39Z</time><name>2769</name><sym>Flag, Blue</sym></wpt><wpt lat="10.324505" lon="123.943104"><ele>-42.893188</ele><time>2024-07-17T03:53:27Z</time><name>2770</name><sym>Flag, Blue</sym></wpt><wpt lat="10.324303" lon="123.943054"><ele>-42.893188</ele><time>2024-07-17T03:54:13Z</time><name>2771</name><sym>Flag, Blue</sym></wpt><wpt lat="10.324300" lon="123.943072"><ele>-42.893188</ele><time>2024-07-17T03:54:26Z</time><name>2772</name><sym>Flag, Blue</sym></wpt><wpt lat="10.324581" lon="123.943141"><ele>-42.893188</ele><time>2024-07-17T03:55:45Z</time><name>2773</name><sym>Flag, Blue</sym></wpt><wpt lat="10.324645" lon="123.943178"><ele>-42.893188</ele><time>2024-07-17T03:56:11Z</time><name>2774</name><sym>Flag, Blue</sym></wpt><wpt lat="10.324675" lon="123.943218"><ele>-42.893188</ele><time>2024-07-17T03:56:55Z</time><name>2775</name><sym>Flag, Blue</sym></wpt><wpt lat="10.324689" lon="123.943254"><ele>-42.893188</ele><time>2024-07-17T03:57:10Z</time><name>2776</name><sym>Flag, Blue</sym></wpt><wpt lat="10.324729" lon="123.943172"><ele>-42.893188</ele><time>2024-07-17T03:57:45Z</time><name>2777</name><sym>Flag, Blue</sym></wpt></gpx>