<?xml version="1.0" encoding="UTF-8" standalone="no" ?><gpx xmlns="http://www.topografix.com/GPX/1/1" xmlns:gpxx="http://www.garmin.com/xmlschemas/GpxExtensions/v3" xmlns:wptx1="http://www.garmin.com/xmlschemas/WaypointExtension/v1" xmlns:gpxtpx="http://www.garmin.com/xmlschemas/TrackPointExtension/v1" creator="eTrex 22x" version="1.1" xmlns:xsi="http://www.w3.org/2001/XMLSchema-instance" xsi:schemaLocation="http://www.topografix.com/GPX/1/1 http://www.topografix.com/GPX/1/1/gpx.xsd http://www.garmin.com/xmlschemas/GpxExtensions/v3 http://www8.garmin.com/xmlschemas/GpxExtensionsv3.xsd http://www.garmin.com/xmlschemas/TrackStatsExtension/v1 http://www8.garmin.com/xmlschemas/TrackStatsExtension.xsd http://www.garmin.com/xmlschemas/WaypointExtension/v1 http://www8.garmin.com/xmlschemas/WaypointExtensionv1.xsd http://www.garmin.com/xmlschemas/TrackPointExtension/v1 http://www.garmin.com/xmlschemas/TrackPointExtensionv1.xsd"><metadata><link href="http://www.garmin.com"><text>Garmin International</text></link><time>2024-08-19T02:26:01Z</time></metadata><wpt lat="10.331380" lon="123.929825"><ele>20.175972</ele><time>2024-08-19T02:26:01Z</time><name>301</name><sym>Flag, Blue</sym></wpt><wpt lat="10.331347" lon="123.929824"><ele>26.660027</ele><time>2024-08-19T02:27:19Z</time><name>302</name><sym>Flag, Blue</sym></wpt><wpt lat="10.330515" lon="123.930366"><ele>15.117489</ele><time>2024-08-19T02:29:08Z</time><name>303</name><sym>Flag, Blue</sym></wpt><wpt lat="10.330476" lon="123.930375"><ele>16.408642</ele><time>2024-08-19T02:30:04Z</time><name>304</name><sym>Flag, Blue</sym></wpt><wpt lat="10.330372" lon="123.930407"><ele>15.738247</ele><time>2024-08-19T02:30:33Z</time><name>305</name><sym>Flag, Blue</sym></wpt><wpt lat="10.330049" lon="123.930426"><ele>14.255630</ele><time>2024-08-19T02:31:17Z</time><name>306</name><sym>Flag, Blue</sym></wpt><wpt lat="10.329569" lon="123.930497"><ele>23.967476</ele><time>2024-08-19T02:32:02Z</time><name>307</name><sym>Flag, Blue</sym></wpt><wpt lat="10.329600" lon="123.930480"><ele>24.832279</ele><time>2024-08-19T02:32:31Z</time><name>308</name><sym>Flag, Blue</sym></wpt><wpt lat="10.329579" lon="123.930488"><ele>23.875652</ele><time>2024-08-19T02:32:46Z</time><name>309</name><sym>Flag, Blue</sym></wpt><wpt lat="10.329574" lon="123.930488"><ele>23.624073</ele><time>2024-08-19T02:32:55Z</time><name>310</name><sym>Flag, Blue</sym></wpt><wpt lat="10.329537" lon="123.930472"><ele>23.931362</ele><time>2024-08-19T02:33:09Z</time><name>311</name><sym>Flag, Blue</sym></wpt><wpt lat="10.329513" lon="123.930490"><ele>23.085476</ele><time>2024-08-19T02:33:19Z</time><name>312</name><sym>Flag, Blue</sym></wpt><wpt lat="10.329407" lon="123.930400"><ele>16.590000</ele><time>2024-08-19T02:43:01Z</time><name>313</name><sym>Flag, Blue</sym></wpt><wpt lat="10.329464" lon="123.930361"><ele>19.070477</ele><time>2024-08-19T02:43:57Z</time><name>314</name><sym>Flag, Blue</sym></wpt><wpt lat="10.329476" lon="123.930383"><ele>21.853977</ele><time>2024-08-19T02:44:14Z</time><name>315</name><sym>Flag, Blue</sym></wpt><wpt lat="10.329479" lon="123.930437"><ele>20.442307</ele><time>2024-08-19T02:44:44Z</time><name>316</name><sym>Flag, Blue</sym></wpt><wpt lat="10.329476" lon="123.930449"><ele>19.299347</ele><time>2024-08-19T02:45:00Z</time><name>317</name><sym>Flag, Blue</sym></wpt><wpt lat="10.329458" lon="123.930478"><time>2024-08-19T02:49:24Z</time><name>318</name><sym>Flag, Blue</sym></wpt><wpt lat="10.332334" lon="123.927989"><ele>26.317795</ele><time>2024-08-19T02:49:52Z</time><name>319</name><sym>Flag, Blue</sym></wpt><wpt lat="10.332451" lon="123.927868"><ele>31.395168</ele><time>2024-08-19T02:53:55Z</time><name>320</name><sym>Flag, Blue</sym></wpt><wpt lat="10.332600" lon="123.927745"><ele>20.246166</ele><time>2024-08-19T02:54:09Z</time><name>321</name><sym>Flag, Blue</sym></wpt><wpt lat="10.332597" lon="123.927721"><ele>26.641376</ele><time>2024-08-19T02:54:20Z</time><name>322</name><sym>Flag, Blue</sym></wpt><wpt lat="10.332593" lon="123.927736"><ele>29.863438</ele><time>2024-08-19T02:54:29Z</time><name>323</name><sym>Flag, Blue</sym></wpt><wpt lat="10.332601" lon="123.927729"><ele>30.227982</ele><time>2024-08-19T02:54:36Z</time><name>324</name><sym>Flag, Blue</sym></wpt><wpt lat="10.332617" lon="123.927716"><ele>29.234406</ele><time>2024-08-19T02:54:44Z</time><name>325</name><sym>Flag, Blue</sym></wpt><wpt lat="10.332634" lon="123.927705"><ele>28.756584</ele><time>2024-08-19T02:54:52Z</time><name>326</name><sym>Flag, Blue</sym></wpt><wpt lat="10.332406" lon="123.927613"><ele>30.960999</ele><time>2024-08-19T02:55:24Z</time><name>327</name><sym>Flag, Blue</sym></wpt><wpt lat="10.332316" lon="123.927588"><ele>31.337082</ele><time>2024-08-19T02:55:48Z</time><name>328</name><sym>Flag, Blue</sym></wpt><wpt lat="10.332331" lon="123.927569"><ele>30.186806</ele><time>2024-08-19T02:56:02Z</time><name>329</name><sym>Flag, Blue</sym></wpt><wpt lat="10.332170" lon="123.927518"><ele>26.081093</ele><time>2024-08-19T02:56:24Z</time><name>330</name><sym>Flag, Blue</sym></wpt><wpt lat="10.332166" lon="123.927517"><ele>26.293446</ele><time>2024-08-19T02:56:35Z</time><name>331</name><sym>Flag, Blue</sym></wpt><wpt lat="10.332116" lon="123.927458"><ele>29.863415</ele><time>2024-08-19T02:56:46Z</time><name>332</name><sym>Flag, Blue</sym></wpt><wpt lat="10.332095" lon="123.927404"><ele>33.194546</ele><time>2024-08-19T02:56:58Z</time><name>333</name><sym>Flag, Blue</sym></wpt><wpt lat="10.332250" lon="123.927277"><ele>22.929558</ele><time>2024-08-19T02:57:37Z</time><name>334</name><sym>Flag, Blue</sym></wpt><wpt lat="10.332259" lon="123.927275"><ele>23.655983</ele><time>2024-08-19T02:57:49Z</time><name>335</name><sym>Flag, Blue</sym></wpt><wpt lat="10.332289" lon="123.927287"><ele>24.069481</ele><time>2024-08-19T02:58:01Z</time><name>336</name><sym>Flag, Blue</sym></wpt><wpt lat="10.332287" lon="123.927275"><ele>23.284950</ele><time>2024-08-19T02:58:10Z</time><name>337</name><sym>Flag, Blue</sym></wpt><wpt lat="10.332283" lon="123.927280"><ele>22.981743</ele><time>2024-08-19T02:58:18Z</time><name>338</name><sym>Flag, Blue</sym></wpt><wpt lat="10.332278" lon="123.927291"><ele>24.125809</ele><time>2024-08-19T02:58:27Z</time><name>339</name><sym>Flag, Blue</sym></wpt><wpt lat="10.332276" lon="123.927290"><ele>24.922729</ele><time>2024-08-19T02:58:36Z</time><name>340</name><sym>Flag, Blue</sym></wpt><wpt lat="10.332283" lon="123.927298"><ele>26.137222</ele><time>2024-08-19T02:58:43Z</time><name>341</name><sym>Flag, Blue</sym></wpt><wpt lat="10.332276" lon="123.927300"><ele>25.985512</ele><time>2024-08-19T02:58:50Z</time><name>342</name><sym>Flag, Blue</sym></wpt><wpt lat="10.332336" lon="123.927340"><ele>29.173935</ele><time>2024-08-19T02:59:24Z</time><name>343</name><sym>Flag, Blue</sym></wpt><wpt lat="10.332342" lon="123.927352"><ele>29.402252</ele><time>2024-08-19T02:59:31Z</time><name>344</name><sym>Flag, Blue</sym></wpt><wpt lat="10.332349" lon="123.927363"><ele>29.868088</ele><time>2024-08-19T02:59:38Z</time><name>345</name><sym>Flag, Blue</sym></wpt><wpt lat="10.332363" lon="123.927364"><ele>30.615692</ele><time>2024-08-19T02:59:49Z</time><name>346</name><sym>Flag, Blue</sym></wpt><wpt lat="10.332391" lon="123.927388"><ele>31.203400</ele><time>2024-08-19T03:00:01Z</time><name>347</name><sym>Flag, Blue</sym></wpt><wpt lat="10.332455" lon="123.927485"><ele>27.143932</ele><time>2024-08-19T03:00:31Z</time><name>348</name><sym>Flag, Blue</sym></wpt><wpt lat="10.332241" lon="123.927271"><ele>23.932873</ele><time>2024-08-19T03:01:19Z</time><name>349</name><sym>Flag, Blue</sym></wpt><wpt lat="10.332186" lon="123.927218"><ele>29.289490</ele><time>2024-08-19T03:01:35Z</time><name>350</name><sym>Flag, Blue</sym></wpt><wpt lat="10.332431" lon="123.927101"><ele>28.667799</ele><time>2024-08-19T03:02:09Z</time><name>351</name><sym>Flag, Blue</sym></wpt><wpt lat="10.332486" lon="123.927013"><ele>23.611965</ele><time>2024-08-19T03:02:55Z</time><name>352</name><sym>Flag, Blue</sym></wpt><wpt lat="10.332499" lon="123.927021"><ele>22.350895</ele><time>2024-08-19T03:03:02Z</time><name>353</name><sym>Flag, Blue</sym></wpt><wpt lat="10.332515" lon="123.927020"><ele>22.189350</ele><time>2024-08-19T03:03:08Z</time><name>354</name><sym>Flag, Blue</sym></wpt><wpt lat="10.332525" lon="123.927006"><ele>22.731853</ele><time>2024-08-19T03:03:17Z</time><name>355</name><sym>Flag, Blue</sym></wpt><wpt lat="10.332520" lon="123.927008"><ele>23.242367</ele><time>2024-08-19T03:03:26Z</time><name>356</name><sym>Flag, Blue</sym></wpt><wpt lat="10.332578" lon="123.926932"><ele>21.959419</ele><time>2024-08-19T03:03:54Z</time><name>357</name><sym>Flag, Blue</sym></wpt><wpt lat="10.332606" lon="123.927715"><ele>-2.352386</ele><time>2024-08-19T03:06:54Z</time><name>358</name><sym>Flag, Blue</sym></wpt><wpt lat="10.332706" lon="123.927688"><ele>21.688541</ele><time>2024-08-19T03:07:11Z</time><name>359</name><sym>Flag, Blue</sym></wpt><wpt lat="10.332710" lon="123.927680"><ele>27.496025</ele><time>2024-08-19T03:07:28Z</time><name>360</name><sym>Flag, Blue</sym></wpt><wpt lat="10.332951" lon="123.927418"><ele>27.449234</ele><time>2024-08-19T03:08:15Z</time><name>361</name><sym>Flag, Blue</sym></wpt><wpt lat="10.332960" lon="123.927438"><ele>26.493263</ele><time>2024-08-19T03:08:42Z</time><name>362</name><sym>Flag, Blue</sym></wpt><wpt lat="10.332985" lon="123.927421"><ele>27.633865</ele><time>2024-08-19T03:08:54Z</time><name>363</name><sym>Flag, Blue</sym></wpt><wpt lat="10.333059" lon="123.927354"><ele>26.790749</ele><time>2024-08-19T03:09:21Z</time><name>364</name><sym>Flag, Blue</sym></wpt><wpt lat="10.333138" lon="123.927293"><ele>26.269026</ele><time>2024-08-19T03:09:58Z</time><name>365</name><sym>Flag, Blue</sym></wpt><wpt lat="10.333158" lon="123.927316"><ele>27.647011</ele><time>2024-08-19T03:10:13Z</time><name>366</name><sym>Flag, Blue</sym></wpt><wpt lat="10.333164" lon="123.927314"><ele>28.286530</ele><time>2024-08-19T03:10:27Z</time><name>367</name><sym>Flag, Blue</sym></wpt><wpt lat="10.333140" lon="123.927321"><ele>27.527931</ele><time>2024-08-19T03:10:44Z</time><name>368</name><sym>Flag, Blue</sym></wpt><wpt lat="10.333498" lon="123.926949"><ele>29.778141</ele><time>2024-08-19T03:14:12Z</time><name>369</name><sym>Flag, Blue</sym></wpt><wpt lat="10.333815" lon="123.926673"><ele>21.106949</ele><time>2024-08-19T03:16:29Z</time><name>370</name><sym>Flag, Blue</sym></wpt><wpt lat="10.333843" lon="123.926641"><ele>24.179415</ele><time>2024-08-19T03:16:55Z</time><name>371</name><sym>Flag, Blue</sym></wpt><wpt lat="10.333999" lon="123.926471"><ele>26.685162</ele><time>2024-08-19T03:17:25Z</time><name>372</name><sym>Flag, Blue</sym></wpt><wpt lat="10.334052" lon="123.926402"><ele>29.638512</ele><time>2024-08-19T03:17:41Z</time><name>373</name><sym>Flag, Blue</sym></wpt><wpt lat="10.334153" lon="123.926259"><ele>29.691132</ele><time>2024-08-19T03:18:00Z</time><name>374</name><sym>Flag, Blue</sym></wpt><wpt lat="10.334236" lon="123.926185"><ele>29.104195</ele><time>2024-08-19T03:18:20Z</time><name>375</name><sym>Flag, Blue</sym></wpt><wpt lat="10.334290" lon="123.926173"><ele>27.711845</ele><time>2024-08-19T03:18:34Z</time><name>376</name><sym>Flag, Blue</sym></wpt><wpt lat="10.334275" lon="123.926126"><ele>26.210419</ele><time>2024-08-19T03:18:49Z</time><name>377</name><sym>Flag, Blue</sym></wpt><wpt lat="10.334313" lon="123.926112"><ele>27.924654</ele><time>2024-08-19T03:19:00Z</time><name>378</name><sym>Flag, Blue</sym></wpt><wpt lat="10.334351" lon="123.926114"><ele>28.336800</ele><time>2024-08-19T03:19:22Z</time><name>379</name><sym>Flag, Blue</sym></wpt><wpt lat="10.334390" lon="123.926060"><ele>28.681633</ele><time>2024-08-19T03:19:41Z</time><name>380</name><sym>Flag, Blue</sym></wpt><wpt lat="10.334425" lon="123.926061"><ele>28.205200</ele><time>2024-08-19T03:19:50Z</time><name>381</name><sym>Flag, Blue</sym></wpt><wpt lat="10.334423" lon="123.926051"><ele>28.627577</ele><time>2024-08-19T03:19:57Z</time><name>382</name><sym>Flag, Blue</sym></wpt><wpt lat="10.334420" lon="123.925990"><ele>29.663816</ele><time>2024-08-19T03:20:11Z</time><name>383</name><sym>Flag, Blue</sym></wpt><wpt lat="10.334499" lon="123.925991"><ele>28.929680</ele><time>2024-08-19T03:20:35Z</time><name>384</name><sym>Flag, Blue</sym></wpt><wpt lat="10.334762" lon="123.925614"><ele>17.055538</ele><time>2024-08-19T03:21:22Z</time><name>385</name><sym>Flag, Blue</sym></wpt><wpt lat="10.334940" lon="123.925289"><ele>18.955763</ele><time>2024-08-19T03:22:31Z</time><name>386</name><sym>Flag, Blue</sym></wpt><wpt lat="10.335053" lon="123.925169"><ele>27.314823</ele><time>2024-08-19T03:23:00Z</time><name>387</name><sym>Flag, Blue</sym></wpt><wpt lat="10.335094" lon="123.925066"><ele>27.552402</ele><time>2024-08-19T03:23:14Z</time><name>388</name><sym>Flag, Blue</sym></wpt><wpt lat="10.335076" lon="123.925065"><ele>27.998409</ele><time>2024-08-19T03:23:27Z</time><name>389</name><sym>Flag, Blue</sym></wpt><wpt lat="10.335074" lon="123.925057"><ele>27.932697</ele><time>2024-08-19T03:23:35Z</time><name>390</name><sym>Flag, Blue</sym></wpt><wpt lat="10.335140" lon="123.924869"><ele>28.938244</ele><time>2024-08-19T03:24:01Z</time><name>391</name><sym>Flag, Blue</sym></wpt><wpt lat="10.335171" lon="123.924831"><ele>27.673824</ele><time>2024-08-19T03:24:20Z</time><name>392</name><sym>Flag, Blue</sym></wpt><wpt lat="10.335165" lon="123.924809"><ele>28.065327</ele><time>2024-08-19T03:24:30Z</time><name>393</name><sym>Flag, Blue</sym></wpt><wpt lat="10.335168" lon="123.924731"><ele>27.426670</ele><time>2024-08-19T03:24:48Z</time><name>394</name><sym>Flag, Blue</sym></wpt><wpt lat="10.335101" lon="123.924636"><ele>27.470295</ele><time>2024-08-19T03:25:19Z</time><name>395</name><sym>Flag, Blue</sym></wpt><wpt lat="10.335090" lon="123.924554"><ele>28.481335</ele><time>2024-08-19T03:25:40Z</time><name>396</name><sym>Flag, Blue</sym></wpt><wpt lat="10.335038" lon="123.924565"><ele>30.748875</ele><time>2024-08-19T03:26:26Z</time><name>397</name><sym>Flag, Blue</sym></wpt><wpt lat="10.335057" lon="123.924558"><ele>32.597084</ele><time>2024-08-19T03:26:45Z</time><name>398</name><sym>Flag, Blue</sym></wpt><wpt lat="10.335024" lon="123.924554"><ele>34.688652</ele><time>2024-08-19T03:26:58Z</time><name>399</name><sym>Flag, Blue</sym></wpt><wpt lat="10.334965" lon="123.924545"><ele>36.278191</ele><time>2024-08-19T03:27:18Z</time><name>400</name><sym>Flag, Blue</sym></wpt><wpt lat="10.334956" lon="123.924542"><ele>36.835548</ele><time>2024-08-19T03:27:28Z</time><name>401</name><sym>Flag, Blue</sym></wpt><wpt lat="10.334971" lon="123.924539"><ele>36.384781</ele><time>2024-08-19T03:27:37Z</time><name>402</name><sym>Flag, Blue</sym></wpt><wpt lat="10.334970" lon="123.924519"><ele>37.003460</ele><time>2024-08-19T03:27:49Z</time><name>403</name><sym>Flag, Blue</sym></wpt><wpt lat="10.334936" lon="123.924524"><ele>34.607296</ele><time>2024-08-19T03:28:00Z</time><name>404</name><sym>Flag, Blue</sym></wpt><wpt lat="10.334900" lon="123.924521"><ele>33.183018</ele><time>2024-08-19T03:28:18Z</time><name>405</name><sym>Flag, Blue</sym></wpt><wpt lat="10.334901" lon="123.924510"><ele>33.476917</ele><time>2024-08-19T03:28:27Z</time><name>406</name><sym>Flag, Blue</sym></wpt><wpt lat="10.334882" lon="123.924487"><ele>33.424171</ele><time>2024-08-19T03:28:40Z</time><name>407</name><sym>Flag, Blue</sym></wpt><wpt lat="10.334866" lon="123.924492"><ele>32.946213</ele><time>2024-08-19T03:28:45Z</time><name>408</name><sym>Flag, Blue</sym></wpt><wpt lat="10.334802" lon="123.924481"><ele>33.311272</ele><time>2024-08-19T03:29:02Z</time><name>409</name><sym>Flag, Blue</sym></wpt><wpt lat="10.334781" lon="123.924462"><ele>33.914894</ele><time>2024-08-19T03:29:15Z</time><name>410</name><sym>Flag, Blue</sym></wpt><wpt lat="10.334801" lon="123.924449"><ele>33.358688</ele><time>2024-08-19T03:29:27Z</time><name>411</name><sym>Flag, Blue</sym></wpt><wpt lat="10.334803" lon="123.924446"><ele>34.790764</ele><time>2024-08-19T03:29:42Z</time><name>412</name><sym>Flag, Blue</sym></wpt><wpt lat="10.334791" lon="123.924444"><ele>35.038124</ele><time>2024-08-19T03:29:51Z</time><name>413</name><sym>Flag, Blue</sym></wpt><wpt lat="10.334778" lon="123.924446"><ele>34.633316</ele><time>2024-08-19T03:30:01Z</time><name>414</name><sym>Flag, Blue</sym></wpt><wpt lat="10.334768" lon="123.924452"><ele>34.510506</ele><time>2024-08-19T03:30:09Z</time><name>415</name><sym>Flag, Blue</sym></wpt><wpt lat="10.334745" lon="123.924429"><ele>35.274757</ele><time>2024-08-19T03:30:19Z</time><name>416</name><sym>Flag, Blue</sym></wpt><wpt lat="10.334692" lon="123.924407"><ele>35.819283</ele><time>2024-08-19T03:30:39Z</time><name>417</name><sym>Flag, Blue</sym></wpt><wpt lat="10.334629" lon="123.924370"><ele>35.200272</ele><time>2024-08-19T03:31:01Z</time><name>418</name><sym>Flag, Blue</sym></wpt><wpt lat="10.334624" lon="123.924352"><ele>32.882889</ele><time>2024-08-19T03:31:15Z</time><name>419</name><sym>Flag, Blue</sym></wpt><wpt lat="10.334613" lon="123.924310"><ele>34.184898</ele><time>2024-08-19T03:31:30Z</time><name>420</name><sym>Flag, Blue</sym></wpt><wpt lat="10.334581" lon="123.924236"><ele>33.233448</ele><time>2024-08-19T03:31:44Z</time><name>421</name><sym>Flag, Blue</sym></wpt><wpt lat="10.334592" lon="123.924152"><ele>32.751511</ele><time>2024-08-19T03:32:06Z</time><name>422</name><sym>Flag, Blue</sym></wpt><wpt lat="10.334572" lon="123.924087"><ele>32.524834</ele><time>2024-08-19T03:32:21Z</time><name>423</name><sym>Flag, Blue</sym></wpt><wpt lat="10.334643" lon="123.924065"><ele>34.580929</ele><time>2024-08-19T03:32:51Z</time><name>424</name><sym>Flag, Blue</sym></wpt><wpt lat="10.334764" lon="123.923482"><ele>28.732845</ele><time>2024-08-19T03:34:55Z</time><name>425</name><sym>Flag, Blue</sym></wpt><wpt lat="10.334721" lon="123.923474"><ele>31.004650</ele><time>2024-08-19T03:35:12Z</time><name>426</name><sym>Flag, Blue</sym></wpt><wpt lat="10.334705" lon="123.923467"><ele>31.310963</ele><time>2024-08-19T03:35:23Z</time><name>427</name><sym>Flag, Blue</sym></wpt><wpt lat="10.334674" lon="123.923447"><ele>32.390774</ele><time>2024-08-19T03:35:41Z</time><name>428</name><sym>Flag, Blue</sym></wpt><wpt lat="10.334664" lon="123.923446"><ele>33.024517</ele><time>2024-08-19T03:35:49Z</time><name>429</name><sym>Flag, Blue</sym></wpt><wpt lat="10.334643" lon="123.923442"><ele>33.884708</ele><time>2024-08-19T03:36:00Z</time><name>430</name><sym>Flag, Blue</sym></wpt><wpt lat="10.334617" lon="123.923444"><ele>32.675579</ele><time>2024-08-19T03:36:11Z</time><name>431</name><sym>Flag, Blue</sym></wpt><wpt lat="10.334599" lon="123.923438"><ele>32.007267</ele><time>2024-08-19T03:36:22Z</time><name>432</name><sym>Flag, Blue</sym></wpt><wpt lat="10.334497" lon="123.923429"><ele>29.798096</ele><time>2024-08-19T03:36:46Z</time><name>433</name><sym>Flag, Blue</sym></wpt><wpt lat="10.334508" lon="123.923427"><ele>31.216297</ele><time>2024-08-19T03:37:00Z</time><name>434</name><sym>Flag, Blue</sym></wpt><wpt lat="10.334496" lon="123.923422"><ele>32.950157</ele><time>2024-08-19T03:37:09Z</time><name>435</name><sym>Flag, Blue</sym></wpt><wpt lat="10.334487" lon="123.923416"><ele>33.984261</ele><time>2024-08-19T03:37:21Z</time><name>436</name><sym>Flag, Blue</sym></wpt><wpt lat="10.334440" lon="123.923406"><ele>34.374146</ele><time>2024-08-19T03:37:35Z</time><name>437</name><sym>Flag, Blue</sym></wpt><wpt lat="10.334434" lon="123.923378"><ele>34.701641</ele><time>2024-08-19T03:37:50Z</time><name>438</name><sym>Flag, Blue</sym></wpt><wpt lat="10.334402" lon="123.923366"><ele>34.446911</ele><time>2024-08-19T03:38:06Z</time><name>439</name><sym>Flag, Blue</sym></wpt><wpt lat="10.334371" lon="123.923348"><ele>34.449093</ele><time>2024-08-19T03:38:19Z</time><name>440</name><sym>Flag, Blue</sym></wpt><wpt lat="10.334372" lon="123.923348"><ele>35.237446</ele><time>2024-08-19T03:38:30Z</time><name>441</name><sym>Flag, Blue</sym></wpt><wpt lat="10.334352" lon="123.923337"><ele>36.870434</ele><time>2024-08-19T03:38:41Z</time><name>442</name><sym>Flag, Blue</sym></wpt><wpt lat="10.334361" lon="123.923326"><ele>37.957058</ele><time>2024-08-19T03:38:51Z</time><name>443</name><sym>Flag, Blue</sym></wpt><wpt lat="10.334358" lon="123.923316"><ele>38.319027</ele><time>2024-08-19T03:39:00Z</time><name>444</name><sym>Flag, Blue</sym></wpt><wpt lat="10.334355" lon="123.923314"><ele>37.394527</ele><time>2024-08-19T03:39:10Z</time><name>445</name><sym>Flag, Blue</sym></wpt><wpt lat="10.334332" lon="123.923312"><ele>36.996014</ele><time>2024-08-19T03:39:18Z</time><name>446</name><sym>Flag, Blue</sym></wpt><wpt lat="10.334342" lon="123.923295"><ele>35.875546</ele><time>2024-08-19T03:39:28Z</time><name>447</name><sym>Flag, Blue</sym></wpt><wpt lat="10.334325" lon="123.923283"><ele>34.178570</ele><time>2024-08-19T03:39:39Z</time><name>448</name><sym>Flag, Blue</sym></wpt><wpt lat="10.334296" lon="123.923263"><ele>33.211132</ele><time>2024-08-19T03:39:50Z</time><name>449</name><sym>Flag, Blue</sym></wpt><wpt lat="10.334276" lon="123.923259"><ele>34.547001</ele><time>2024-08-19T03:39:59Z</time><name>450</name><sym>Flag, Blue</sym></wpt><wpt lat="10.334196" lon="123.923240"><ele>32.639172</ele><time>2024-08-19T03:40:12Z</time><name>451</name><sym>Flag, Blue</sym></wpt><wpt lat="10.334127" lon="123.923266"><ele>31.950855</ele><time>2024-08-19T03:40:23Z</time><name>452</name><sym>Flag, Blue</sym></wpt><wpt lat="10.334004" lon="123.923345"><ele>34.107922</ele><time>2024-08-19T03:41:02Z</time><name>453</name><sym>Flag, Blue</sym></wpt><wpt lat="10.334020" lon="123.923275"><ele>33.467968</ele><time>2024-08-19T03:41:22Z</time><name>454</name><sym>Flag, Blue</sym></wpt><wpt lat="10.333803" lon="123.923231"><ele>31.754799</ele><time>2024-08-19T03:41:57Z</time><name>455</name><sym>Flag, Blue</sym></wpt><wpt lat="10.333712" lon="123.923214"><ele>29.520424</ele><time>2024-08-19T03:42:16Z</time><name>456</name><sym>Flag, Blue</sym></wpt><wpt lat="10.333436" lon="123.923093"><ele>29.500309</ele><time>2024-08-19T03:43:49Z</time><name>457</name><sym>Flag, Blue</sym></wpt><wpt lat="10.333410" lon="123.923098"><ele>29.589542</ele><time>2024-08-19T03:44:02Z</time><name>458</name><sym>Flag, Blue</sym></wpt><wpt lat="10.333367" lon="123.923122"><ele>30.013309</ele><time>2024-08-19T03:44:36Z</time><name>459</name><sym>Flag, Blue</sym></wpt><wpt lat="10.333346" lon="123.923111"><ele>31.660313</ele><time>2024-08-19T03:44:45Z</time><name>460</name><sym>Flag, Blue</sym></wpt><wpt lat="10.332918" lon="123.922698"><ele>24.209984</ele><time>2024-08-19T06:04:50Z</time><name>461</name><sym>Flag, Blue</sym></wpt><wpt lat="10.333010" lon="123.922821"><ele>24.889786</ele><time>2024-08-19T06:05:43Z</time><name>462</name><sym>Flag, Blue</sym></wpt><wpt lat="10.333120" lon="123.922795"><time>2024-08-19T06:15:37Z</time><name>463</name><sym>Flag, Blue</sym></wpt><wpt lat="10.335809" lon="123.923798"><ele>24.878078</ele><time>2024-08-19T06:17:13Z</time><name>464</name><sym>Flag, Blue</sym></wpt><wpt lat="10.336503" lon="123.923998"><ele>30.952499</ele><time>2024-08-19T06:18:12Z</time><name>465</name><sym>Flag, Blue</sym></wpt><wpt lat="10.337022" lon="123.924083"><ele>29.428349</ele><time>2024-08-19T06:18:57Z</time><name>466</name><sym>Flag, Blue</sym></wpt><wpt lat="10.337040" lon="123.924067"><ele>30.336018</ele><time>2024-08-19T06:19:11Z</time><name>467</name><sym>Flag, Blue</sym></wpt><wpt lat="10.337429" lon="123.924200"><ele>28.784969</ele><time>2024-08-19T06:19:45Z</time><name>468</name><sym>Flag, Blue</sym></wpt><wpt lat="10.337524" lon="123.924173"><ele>30.362896</ele><time>2024-08-19T06:20:16Z</time><name>469</name><sym>Flag, Blue</sym></wpt><wpt lat="10.337771" lon="123.924294"><ele>30.566601</ele><time>2024-08-19T06:21:25Z</time><name>470</name><sym>Flag, Blue</sym></wpt><wpt lat="10.337787" lon="123.924273"><ele>27.785721</ele><time>2024-08-19T06:21:52Z</time><name>471</name><sym>Flag, Blue</sym></wpt><wpt lat="10.337818" lon="123.924343"><ele>30.564835</ele><time>2024-08-19T06:22:15Z</time><name>472</name><sym>Flag, Blue</sym></wpt><wpt lat="10.337821" lon="123.924375"><ele>31.565235</ele><time>2024-08-19T06:22:26Z</time><name>473</name><sym>Flag, Blue</sym></wpt><wpt lat="10.337659" lon="123.925162"><ele>39.054646</ele><time>2024-08-19T06:23:34Z</time><name>474</name><sym>Flag, Blue</sym></wpt><wpt lat="10.337488" lon="123.925446"><ele>43.167591</ele><time>2024-08-19T06:23:59Z</time><name>475</name><sym>Flag, Blue</sym></wpt><wpt lat="10.337479" lon="123.925472"><ele>42.048374</ele><time>2024-08-19T06:24:11Z</time><name>476</name><sym>Flag, Blue</sym></wpt><wpt lat="10.337420" lon="123.925825"><ele>39.272270</ele><time>2024-08-19T06:24:46Z</time><name>477</name><sym>Flag, Blue</sym></wpt><wpt lat="10.337381" lon="123.925851"><ele>39.078415</ele><time>2024-08-19T06:24:54Z</time><name>478</name><sym>Flag, Blue</sym></wpt><wpt lat="10.337272" lon="123.926155"><ele>37.307365</ele><time>2024-08-19T06:25:16Z</time><name>479</name><sym>Flag, Blue</sym></wpt><wpt lat="10.337234" lon="123.926223"><ele>34.597374</ele><time>2024-08-19T06:25:43Z</time><name>480</name><sym>Flag, Blue</sym></wpt><wpt lat="10.337106" lon="123.926942"><ele>37.242645</ele><time>2024-08-19T06:26:19Z</time><name>481</name><sym>Flag, Blue</sym></wpt><wpt lat="10.337040" lon="123.927096"><ele>38.063183</ele><time>2024-08-19T06:26:37Z</time><name>482</name><sym>Flag, Blue</sym></wpt><wpt lat="10.336881" lon="123.927481"><ele>34.166363</ele><time>2024-08-19T06:27:16Z</time><name>483</name><sym>Flag, Blue</sym></wpt><wpt lat="10.331810" lon="123.934856"><ele>50.203007</ele><time>2024-08-19T06:33:14Z</time><name>484</name><sym>Flag, Blue</sym></wpt><wpt lat="10.331271" lon="123.934074"><ele>30.986029</ele><time>2024-08-19T06:34:02Z</time><name>485</name><sym>Flag, Blue</sym></wpt><wpt lat="10.330964" lon="123.933647"><ele>27.199936</ele><time>2024-08-19T06:34:27Z</time><name>486</name><sym>Flag, Blue</sym></wpt><wpt lat="10.330430" lon="123.932880"><ele>22.199526</ele><time>2024-08-19T06:35:03Z</time><name>487</name><sym>Flag, Blue</sym></wpt><wpt lat="10.329194" lon="123.931086"><ele>22.534012</ele><time>2024-08-19T06:36:04Z</time><name>488</name><sym>Flag, Blue</sym></wpt><wpt lat="10.329008" lon="123.931133"><ele>21.123154</ele><time>2024-08-19T06:37:09Z</time><name>489</name><sym>Flag, Blue</sym></wpt><wpt lat="10.328975" lon="123.931074"><ele>22.356136</ele><time>2024-08-19T06:37:52Z</time><name>490</name><sym>Flag, Blue</sym></wpt><wpt lat="10.328954" lon="123.931046"><ele>21.417961</ele><time>2024-08-19T06:38:24Z</time><name>491</name><sym>Flag, Blue</sym></wpt><wpt lat="10.328931" lon="123.931019"><ele>21.480965</ele><time>2024-08-19T06:38:38Z</time><name>492</name><sym>Flag, Blue</sym></wpt><wpt lat="10.328928" lon="123.931011"><ele>19.594582</ele><time>2024-08-19T06:38:53Z</time><name>493</name><sym>Flag, Blue</sym></wpt><wpt lat="10.328906" lon="123.930982"><ele>18.907331</ele><time>2024-08-19T06:39:11Z</time><name>494</name><sym>Flag, Blue</sym></wpt><wpt lat="10.328827" lon="123.930904"><ele>18.687275</ele><time>2024-08-19T06:39:47Z</time><name>495</name><sym>Flag, Blue</sym></wpt><wpt lat="10.328937" lon="123.930823"><ele>17.468060</ele><time>2024-08-19T06:40:15Z</time><name>496</name><sym>Flag, Blue</sym></wpt><wpt lat="10.328893" lon="123.930747"><ele>18.124088</ele><time>2024-08-19T06:40:34Z</time><name>497</name><sym>Flag, Blue</sym></wpt><wpt lat="10.328815" lon="123.930685"><ele>20.890690</ele><time>2024-08-19T06:40:54Z</time><name>498</name><sym>Flag, Blue</sym></wpt><wpt lat="10.328796" lon="123.930619"><ele>20.092022</ele><time>2024-08-19T06:41:12Z</time><name>499</name><sym>Flag, Blue</sym></wpt><wpt lat="10.326546" lon="123.928202"><ele>13.102178</ele><time>2024-08-19T06:44:04Z</time><name>500</name><sym>Flag, Blue</sym></wpt><wpt lat="10.326193" lon="123.928024"><ele>11.997238</ele><time>2024-08-19T06:46:54Z</time><name>501</name><sym>Flag, Blue</sym></wpt><wpt lat="10.328045" lon="123.930077"><ele>28.243088</ele><time>2024-08-19T06:49:58Z</time><name>502</name><sym>Flag, Blue</sym></wpt><wpt lat="10.328067" lon="123.930081"><ele>32.659714</ele><time>2024-08-19T06:50:20Z</time><name>503</name><sym>Flag, Blue</sym></wpt><wpt lat="10.328064" lon="123.930079"><ele>29.888046</ele><time>2024-08-19T06:50:42Z</time><name>504</name><sym>Flag, Blue</sym></wpt><wpt lat="10.328154" lon="123.930152"><ele>24.111732</ele><time>2024-08-19T06:51:12Z</time><name>505</name><sym>Flag, Blue</sym></wpt><wpt lat="10.329121" lon="123.931911"><ele>22.094604</ele><time>2024-08-19T06:52:33Z</time><name>506</name><sym>Flag, Blue</sym></wpt><wpt lat="10.329232" lon="123.932054"><ele>13.105682</ele><time>2024-08-19T06:52:59Z</time><name>507</name><sym>Flag, Blue</sym></wpt><wpt lat="10.329236" lon="123.932054"><ele>7.845848</ele><time>2024-08-19T06:53:12Z</time><name>508</name><sym>Flag, Blue</sym></wpt><wpt lat="10.329275" lon="123.932209"><ele>9.886024</ele><time>2024-08-19T06:53:28Z</time><name>509</name><sym>Flag, Blue</sym></wpt><wpt lat="10.329349" lon="123.932375"><ele>21.190948</ele><time>2024-08-19T06:54:04Z</time><name>510</name><sym>Flag, Blue</sym></wpt><wpt lat="10.329370" lon="123.932639"><ele>22.292332</ele><time>2024-08-19T06:54:44Z</time><name>511</name><sym>Flag, Blue</sym></wpt><wpt lat="10.329326" lon="123.932679"><ele>24.714863</ele><time>2024-08-19T06:54:59Z</time><name>512</name><sym>Flag, Blue</sym></wpt><wpt lat="10.329303" lon="123.932695"><ele>26.670818</ele><time>2024-08-19T06:55:08Z</time><name>513</name><sym>Flag, Blue</sym></wpt><wpt lat="10.329248" lon="123.932748"><ele>29.548874</ele><time>2024-08-19T06:55:22Z</time><name>514</name><sym>Flag, Blue</sym></wpt><wpt lat="10.329180" lon="123.932790"><ele>27.347490</ele><time>2024-08-19T06:55:36Z</time><name>515</name><sym>Flag, Blue</sym></wpt><wpt lat="10.329160" lon="123.932801"><ele>26.229616</ele><time>2024-08-19T06:55:44Z</time><name>516</name><sym>Flag, Blue</sym></wpt><wpt lat="10.329133" lon="123.932819"><ele>25.838022</ele><time>2024-08-19T06:55:55Z</time><name>517</name><sym>Flag, Blue</sym></wpt><wpt lat="10.329101" lon="123.932832"><ele>26.195728</ele><time>2024-08-19T06:56:05Z</time><name>518</name><sym>Flag, Blue</sym></wpt><wpt lat="10.329070" lon="123.932860"><ele>26.762556</ele><time>2024-08-19T06:56:16Z</time><name>519</name><sym>Flag, Blue</sym></wpt><wpt lat="10.329049" lon="123.932874"><ele>26.841694</ele><time>2024-08-19T06:56:25Z</time><name>520</name><sym>Flag, Blue</sym></wpt><wpt lat="10.329009" lon="123.932901"><ele>27.914700</ele><time>2024-08-19T06:56:36Z</time><name>521</name><sym>Flag, Blue</sym></wpt><wpt lat="10.328997" lon="123.932910"><ele>26.738066</ele><time>2024-08-19T06:56:45Z</time><name>522</name><sym>Flag, Blue</sym></wpt><wpt lat="10.328808" lon="123.933023"><ele>21.795254</ele><time>2024-08-19T06:57:11Z</time><name>523</name><sym>Flag, Blue</sym></wpt><wpt lat="10.328802" lon="123.933043"><ele>20.314919</ele><time>2024-08-19T06:57:26Z</time><name>524</name><sym>Flag, Blue</sym></wpt><wpt lat="10.328603" lon="123.933176"><ele>20.630196</ele><time>2024-08-19T06:57:51Z</time><name>525</name><sym>Flag, Blue</sym></wpt><wpt lat="10.328622" lon="123.933219"><ele>24.922279</ele><time>2024-08-19T06:58:04Z</time><name>526</name><sym>Flag, Blue</sym></wpt><wpt lat="10.327639" lon="123.933871"><ele>24.490971</ele><time>2024-08-19T06:59:32Z</time><name>527</name><sym>Flag, Blue</sym></wpt><wpt lat="10.327574" lon="123.933925"><ele>22.917130</ele><time>2024-08-19T06:59:55Z</time><name>528</name><sym>Flag, Blue</sym></wpt><wpt lat="10.325063" lon="123.932279"><ele>24.015236</ele><time>2024-08-19T07:02:08Z</time><name>529</name><sym>Flag, Blue</sym></wpt><wpt lat="10.324997" lon="123.932195"><ele>18.300961</ele><time>2024-08-19T07:02:37Z</time><name>530</name><sym>Flag, Blue</sym></wpt><wpt lat="10.324977" lon="123.932182"><ele>17.269810</ele><time>2024-08-19T07:02:50Z</time><name>531</name><sym>Flag, Blue</sym></wpt><wpt lat="10.324738" lon="123.931931"><ele>18.883617</ele><time>2024-08-19T07:03:22Z</time><name>532</name><sym>Flag, Blue</sym></wpt><wpt lat="10.324756" lon="123.931977"><ele>22.774567</ele><time>2024-08-19T07:03:39Z</time><name>533</name><sym>Flag, Blue</sym></wpt><wpt lat="10.324750" lon="123.931976"><ele>22.174614</ele><time>2024-08-19T07:03:51Z</time><name>534</name><sym>Flag, Blue</sym></wpt><wpt lat="10.324638" lon="123.931893"><ele>22.605392</ele><time>2024-08-19T07:04:12Z</time><name>535</name><sym>Flag, Blue</sym></wpt><wpt lat="10.324558" lon="123.931814"><ele>21.385216</ele><time>2024-08-19T07:04:32Z</time><name>536</name><sym>Flag, Blue</sym></wpt><wpt lat="10.324499" lon="123.931775"><ele>22.044373</ele><time>2024-08-19T07:04:45Z</time><name>537</name><sym>Flag, Blue</sym></wpt><wpt lat="10.324484" lon="123.931755"><ele>21.900909</ele><time>2024-08-19T07:04:56Z</time><name>538</name><sym>Flag, Blue</sym></wpt><wpt lat="10.324433" lon="123.931718"><ele>21.632179</ele><time>2024-08-19T07:05:07Z</time><name>539</name><sym>Flag, Blue</sym></wpt><wpt lat="10.324322" lon="123.931621"><ele>20.186981</ele><time>2024-08-19T07:05:27Z</time><name>540</name><sym>Flag, Blue</sym></wpt><wpt lat="10.324296" lon="123.931593"><ele>16.019348</ele><time>2024-08-19T07:05:44Z</time><name>541</name><sym>Flag, Blue</sym></wpt><wpt lat="10.324277" lon="123.931577"><ele>12.912537</ele><time>2024-08-19T07:05:56Z</time><name>542</name><sym>Flag, Blue</sym></wpt><wpt lat="10.324253" lon="123.931568"><ele>11.325775</ele><time>2024-08-19T07:06:05Z</time><name>543</name><sym>Flag, Blue</sym></wpt><wpt lat="10.324216" lon="123.931518"><ele>8.657578</ele><time>2024-08-19T07:06:16Z</time><name>544</name><sym>Flag, Blue</sym></wpt><wpt lat="10.324182" lon="123.931491"><ele>7.087349</ele><time>2024-08-19T07:06:26Z</time><name>545</name><sym>Flag, Blue</sym></wpt><wpt lat="10.324135" lon="123.931459"><ele>7.410797</ele><time>2024-08-19T07:06:38Z</time><name>546</name><sym>Flag, Blue</sym></wpt><wpt lat="10.324095" lon="123.931427"><ele>6.918930</ele><time>2024-08-19T07:06:48Z</time><name>547</name><sym>Flag, Blue</sym></wpt><wpt lat="10.324055" lon="123.931380"><ele>4.952103</ele><time>2024-08-19T07:06:59Z</time><name>548</name><sym>Flag, Blue</sym></wpt><wpt lat="10.324046" lon="123.931355"><ele>3.577984</ele><time>2024-08-19T07:07:09Z</time><name>549</name><sym>Flag, Blue</sym></wpt></gpx>